{"type": "FeatureCollection", "name": "PUG Municipiul Botoșani — Zonificare UTR", "crs": {"type": "name", "properties": {"name": "urn:ogc:def:crs:OGC:1.3:CRS84"}}, "features": [{"type": "Feature", "properties": {"UTR": "56", "tip": "zona_functionala"}, "geometry": {"type": "Polygon", "coordinates": [[[26.617355, 47.767911], [26.626928, 47.762975], [26.63315, 47.759817], [26.631018, 47.756394], [26.621642, 47.75956], [26.621642, 47.75956], [26.621642, 47.75956], [26.619507, 47.760409], [26.619507, 47.760409], [26.614074, 47.762815], [26.614074, 47.762815], [26.612176, 47.763704], [26.612725, 47.764553], [26.613838, 47.764124], [26.614048, 47.764321], [26.616407, 47.763289], [26.616837, 47.763672], [26.616619, 47.763768], [26.617322, 47.764452], [26.616303, 47.764907], [26.617745, 47.766209], [26.616452, 47.766826], [26.617355, 47.767911]]]}}, {"type": "Feature", "properties": {"UTR": "45", "tip": "zona_functionala"}, "geometry": {"type": "Polygon", "coordinates": [[[26.633288, 47.760038], [26.628855, 47.762348], [26.628855, 47.762348], [26.631956, 47.765461], [26.634504, 47.765047], [26.636758, 47.764075], [26.636758, 47.764075], [26.636814, 47.764083], [26.636814, 47.764083], [26.636248, 47.763373], [26.635336, 47.763696], [26.635048, 47.763768], [26.634755, 47.763658], [26.634626, 47.763403], [26.634873, 47.762843], [26.634901, 47.762644], [26.633288, 47.760038], [26.633288, 47.760038]]]}}, {"type": "Feature", "properties": {"UTR": "?", "tip": "zona_functionala"}, "geometry": {"type": "Polygon", "coordinates": [[[26.614074, 47.762815], [26.614074, 47.762815], [26.619507, 47.760409], [26.619507, 47.760409], [26.619507, 47.760409], [26.618011, 47.758792], [26.614875, 47.760137], [26.615822, 47.761198], [26.614274, 47.761936], [26.613672, 47.76236], [26.614074, 47.762815], [26.614074, 47.762815]]]}}, {"type": "Feature", "properties": {"UTR": "55", "tip": "zona_functionala"}, "geometry": {"type": "Polygon", "coordinates": [[[26.621642, 47.75956], [26.621642, 47.75956], [26.631018, 47.756394], [26.631018, 47.756394], [26.627205, 47.752555], [26.626009, 47.753288], [26.625325, 47.753788], [26.624536, 47.754486], [26.623514, 47.754845], [26.623356, 47.755107], [26.624055, 47.755651], [26.623465, 47.755833], [26.623803, 47.756381], [26.621721, 47.757134], [26.622025, 47.757619], [26.620552, 47.758185], [26.621642, 47.75956]]]}}, {"type": "Feature", "properties": {"UTR": "53", "tip": "zona_functionala"}, "geometry": {"type": "Polygon", "coordinates": [[[26.631018, 47.756394], [26.631018, 47.756394], [26.641313, 47.753136], [26.647572, 47.751154], [26.646823, 47.750405], [26.643882, 47.747466], [26.642722, 47.746307], [26.642722, 47.746307], [26.639259, 47.747928], [26.631364, 47.750822], [26.631364, 47.750822], [26.630859, 47.751022], [26.630543, 47.751143], [26.629807, 47.751431], [26.628864, 47.75184], [26.628318, 47.752006], [26.627938, 47.752179], [26.627536, 47.752352], [26.627536, 47.752352], [26.627205, 47.752555], [26.631018, 47.756394]]]}}, {"type": "Feature", "properties": {"UTR": "51 ?", "tip": "zona_functionala"}, "geometry": {"type": "Polygon", "coordinates": [[[26.63315, 47.759817], [26.626928, 47.762975], [26.617355, 47.767911], [26.617531, 47.768122], [26.625884, 47.763993], [26.628855, 47.762348], [26.628855, 47.762348], [26.628855, 47.762348], [26.633288, 47.760038], [26.633288, 47.760038], [26.63315, 47.759817]]]}}, {"type": "Feature", "properties": {"UTR": "62", "tip": "zona_functionala"}, "geometry": {"type": "Polygon", "coordinates": [[[26.65852, 47.763292], [26.654975, 47.759015], [26.652871, 47.757601], [26.65178, 47.757489], [26.651198, 47.757614], [26.649716, 47.75834], [26.649203, 47.758455], [26.648844, 47.758484], [26.646218, 47.759877], [26.646372, 47.76036], [26.646509, 47.760705], [26.645944, 47.761085], [26.644085, 47.762408], [26.643909, 47.762533], [26.643444, 47.762869], [26.642669, 47.762593], [26.641666, 47.76244], [26.641084, 47.762302], [26.640446, 47.762225], [26.63959, 47.762455], [26.638732, 47.762839], [26.638732, 47.762839], [26.638773, 47.762948], [26.638941, 47.763846], [26.639082, 47.764512], [26.640467, 47.767368], [26.640608, 47.767562], [26.640691, 47.767714], [26.640718, 47.767812], [26.640783, 47.767879], [26.640892, 47.767982], [26.641033, 47.768123], [26.641196, 47.768395], [26.641425, 47.768767], [26.641592, 47.768992], [26.641643, 47.769096], [26.641696, 47.769165], [26.641753, 47.769201], [26.641793, 47.769257], [26.641852, 47.769457], [26.642234, 47.770468], [26.642912, 47.772331], [26.642854, 47.772354], [26.642807, 47.772394], [26.642829, 47.772469], [26.642877, 47.772621], [26.643315, 47.773805], [26.643462, 47.774155], [26.644068, 47.775304], [26.645652, 47.777427], [26.646, 47.777901], [26.646245, 47.778296], [26.646314, 47.778494], [26.646669, 47.779007], [26.647309, 47.77997], [26.647634, 47.780483], [26.647661, 47.780545], [26.647657, 47.780588], [26.647504, 47.780645], [26.647173, 47.780715], [26.646966, 47.780767], [26.646847, 47.780834], [26.646776, 47.78087], [26.646694, 47.780869], [26.646577, 47.78087], [26.646428, 47.780902], [26.646199, 47.780999], [26.645975, 47.781097], [26.6456, 47.781184], [26.645298, 47.781267], [26.645093, 47.781364], [26.644926, 47.781431], [26.644763, 47.781489], [26.644659, 47.781533], [26.644573, 47.781597], [26.644432, 47.781703], [26.644307, 47.781753], [26.643976, 47.781843], [26.64342, 47.78203], [26.643239, 47.782088], [26.643066, 47.782113], [26.642907, 47.782158], [26.642768, 47.782199], [26.642539, 47.782313], [26.642143, 47.782475], [26.642013, 47.782516], [26.641644, 47.782619], [26.641493, 47.782713], [26.641402, 47.782756], [26.641154, 47.782864], [26.640922, 47.782871], [26.64081, 47.782843], [26.640786, 47.782882], [26.640833, 47.782963], [26.640864, 47.783031], [26.640902, 47.783154], [26.640623, 47.783354], [26.64038, 47.783514], [26.640183, 47.783686], [26.640032, 47.783806], [26.63963, 47.784112], [26.639294, 47.784354], [26.638982, 47.784606], [26.638867, 47.78466], [26.638665, 47.784806], [26.638495, 47.784936], [26.638394, 47.784989], [26.638348, 47.785052], [26.638259, 47.785151], [26.63816, 47.78525], [26.638056, 47.785314], [26.637969, 47.785328], [26.637858, 47.785336], [26.637737, 47.785341], [26.637631, 47.785339], [26.637564, 47.785363], [26.637535, 47.785507], [26.637556, 47.785562], [26.637592, 47.78563], [26.637623, 47.785708], [26.637602, 47.785819], [26.637485, 47.786072], [26.637364, 47.786393], [26.63726, 47.786492], [26.637235, 47.786786], [26.637305, 47.787016], [26.637394, 47.787398], [26.637546, 47.787998], [26.637576, 47.788083], [26.63762, 47.788304], [26.637675, 47.788472], [26.637743, 47.788673], [26.637764, 47.788924], [26.637953, 47.789577], [26.637971, 47.789759], [26.638115, 47.790147], [26.638963, 47.79201], [26.637888, 47.792406], [26.637398, 47.792877], [26.637314, 47.792948], [26.637143, 47.793074], [26.637115, 47.79311], [26.637022, 47.793162], [26.636876, 47.793232], [26.636169, 47.793607], [26.635737, 47.793851], [26.635494, 47.793982], [26.637447, 47.799537], [26.638528, 47.799137], [26.639791, 47.798676], [26.640769, 47.798341], [26.640896, 47.798546], [26.641115, 47.799006], [26.641179, 47.799171], [26.641276, 47.799362], [26.641344, 47.799498], [26.641319, 47.799586], [26.641222, 47.799695], [26.641082, 47.799905], [26.641552, 47.800903], [26.642292, 47.803094], [26.642642, 47.803008], [26.642776, 47.802957], [26.643057, 47.802882], [26.643305, 47.80284], [26.643448, 47.802774], [26.643532, 47.802748], [26.643647, 47.802762], [26.643756, 47.802824], [26.643874, 47.80277], [26.644065, 47.802684], [26.644204, 47.802594], [26.644332, 47.802504], [26.644658, 47.802299], [26.645102, 47.802124], [26.645414, 47.801938], [26.645606, 47.801814], [26.6457, 47.801884], [26.645842, 47.801901], [26.646089, 47.801798], [26.646498, 47.801642], [26.646689, 47.801517], [26.646771, 47.801407], [26.646884, 47.801303], [26.646997, 47.801304], [26.647344, 47.801296], [26.647725, 47.801262], [26.647988, 47.80117], [26.648474, 47.801109], [26.648474, 47.801109], [26.648479, 47.801108], [26.648478, 47.801107], [26.648788, 47.801072], [26.649202, 47.801061], [26.650073, 47.8009], [26.650312, 47.800835], [26.650449, 47.800795], [26.650634, 47.800735], [26.650856, 47.800681], [26.651147, 47.800637], [26.651563, 47.800571], [26.651682, 47.800548], [26.65204, 47.800441], [26.652525, 47.80025], [26.652975, 47.800134], [26.653294, 47.80003], [26.653626, 47.799908], [26.653886, 47.799857], [26.654137, 47.799863], [26.654414, 47.799878], [26.654693, 47.799864], [26.654883, 47.799857], [26.654959, 47.799896], [26.655168, 47.800017], [26.655477, 47.800282], [26.655665, 47.800397], [26.655907, 47.800464], [26.656428, 47.800605], [26.656733, 47.800722], [26.657029, 47.800808], [26.657409, 47.800953], [26.657753, 47.801106], [26.657863, 47.801214], [26.65803, 47.801254], [26.658246, 47.80128], [26.658474, 47.801291], [26.658729, 47.801318], [26.658935, 47.801355], [26.659315, 47.801407], [26.659609, 47.80142], [26.659805, 47.801448], [26.659961, 47.801468], [26.660288, 47.801506], [26.660578, 47.801528], [26.660933, 47.801544], [26.661283, 47.801537], [26.661667, 47.801493], [26.662025, 47.801488], [26.662398, 47.801449], [26.662567, 47.801426], [26.663037, 47.801302], [26.663212, 47.801223], [26.663399, 47.801099], [26.663591, 47.800915], [26.663761, 47.800781], [26.664179, 47.800618], [26.664442, 47.800524], [26.664818, 47.800688], [26.665504, 47.800309], [26.666015, 47.800041], [26.666515, 47.799757], [26.666655, 47.799672], [26.666423, 47.799509], [26.666227, 47.799347], [26.666156, 47.799215], [26.666083, 47.79904], [26.665968, 47.798681], [26.665875, 47.798396], [26.665833, 47.798196], [26.665831, 47.798008], [26.665884, 47.797813], [26.665927, 47.797702], [26.666052, 47.797486], [26.666146, 47.797329], [26.666232, 47.797154], [26.666284, 47.797005], [26.666327, 47.796814], [26.666338, 47.796359], [26.66634, 47.796109], [26.666316, 47.795888], [26.666361, 47.795529], [26.666342, 47.795267], [26.666263, 47.795008], [26.666122, 47.794789], [26.665894, 47.794504], [26.665569, 47.794194], [26.665329, 47.793966], [26.665163, 47.79377], [26.665013, 47.793487], [26.664792, 47.792989], [26.664651, 47.792758], [26.664573, 47.792678], [26.663806, 47.79189], [26.663344, 47.79138], [26.6616, 47.789433], [26.660655, 47.788437], [26.660299, 47.788141], [26.660218, 47.788013], [26.659903, 47.787777], [26.659294, 47.787748], [26.659124, 47.787769], [26.65886, 47.787811], [26.658277, 47.787936], [26.657837, 47.788016], [26.657394, 47.788092], [26.656987, 47.788172], [26.656655, 47.78821], [26.656492, 47.788193], [26.65628, 47.788069], [26.656152, 47.788062], [26.656289, 47.787676], [26.656447, 47.787436], [26.656559, 47.787294], [26.65672, 47.787112], [26.657361, 47.786362], [26.657556, 47.786133], [26.65801, 47.785595], [26.65817, 47.785407], [26.658297, 47.7852], [26.658363, 47.78503], [26.658324, 47.784813], [26.658253, 47.784456], [26.658145, 47.783943], [26.658028, 47.783354], [26.657941, 47.782724], [26.657627, 47.78064], [26.657506, 47.779801], [26.657378, 47.77877], [26.657339, 47.777968], [26.657325, 47.777524], [26.657312, 47.777229], [26.657337, 47.776995], [26.657373, 47.77669], [26.657112, 47.776703], [26.657002, 47.776723], [26.65689, 47.776754], [26.656803, 47.776779], [26.656725, 47.776761], [26.656663, 47.776702], [26.656582, 47.776588], [26.656425, 47.776362], [26.65616, 47.775894], [26.656019, 47.775684], [26.655972, 47.775544], [26.655858, 47.775426], [26.655801, 47.775386], [26.655522, 47.774947], [26.655236, 47.774527], [26.654264, 47.773053], [26.653369, 47.771789], [26.653103, 47.77142], [26.652685, 47.770716], [26.652822, 47.770664], [26.653224, 47.770566], [26.65344, 47.770553], [26.653608, 47.770496], [26.653863, 47.770404], [26.654028, 47.770359], [26.654376, 47.770315], [26.654879, 47.770225], [26.655192, 47.77014], [26.655537, 47.769994], [26.655629, 47.769911], [26.655638, 47.769838], [26.655599, 47.769736], [26.655501, 47.769644], [26.655501, 47.769532], [26.655542, 47.769491], [26.655602, 47.769476], [26.655669, 47.769499], [26.65586, 47.769599], [26.656085, 47.769665], [26.656525, 47.769601], [26.656803, 47.769449], [26.657108, 47.76935], [26.657395, 47.769284], [26.657515, 47.769258], [26.657591, 47.769193], [26.657681, 47.769041], [26.657754, 47.768992], [26.657834, 47.768955], [26.658, 47.768858], [26.658124, 47.768716], [26.658124, 47.76861], [26.658198, 47.768593], [26.658307, 47.768591], [26.658419, 47.768678], [26.658629, 47.768706], [26.658756, 47.7687], [26.658889, 47.768649], [26.659028, 47.768581], [26.659902, 47.768154], [26.660318, 47.767903], [26.660771, 47.76756], [26.660859, 47.767465], [26.660916, 47.767445], [26.66107, 47.767398], [26.661182, 47.76738], [26.661388, 47.767405], [26.661422, 47.767264], [26.661397, 47.767014], [26.661339, 47.766853], [26.659172, 47.764134], [26.658591, 47.763422], [26.65852, 47.763292], [26.65852, 47.763292]]]}}, {"type": "Feature", "properties": {"UTR": "44", "tip": "zona_functionala"}, "geometry": {"type": "Polygon", "coordinates": [[[26.644085, 47.762408], [26.642992, 47.761166], [26.642376, 47.761109], [26.641738, 47.760895], [26.641449, 47.760547], [26.641266, 47.760082], [26.63761, 47.75812], [26.636959, 47.758406], [26.635033, 47.759363], [26.633923, 47.759708], [26.633288, 47.760038], [26.633288, 47.760038], [26.634901, 47.762644], [26.634873, 47.762843], [26.634626, 47.763403], [26.634755, 47.763658], [26.635048, 47.763768], [26.635336, 47.763696], [26.636248, 47.763373], [26.636814, 47.764083], [26.636876, 47.764066], [26.636894, 47.764029], [26.636927, 47.763923], [26.636997, 47.763845], [26.637101, 47.763752], [26.637198, 47.763692], [26.637303, 47.763639], [26.637438, 47.763572], [26.63756, 47.76351], [26.637636, 47.763491], [26.637749, 47.763446], [26.637887, 47.763389], [26.638272, 47.763149], [26.638515, 47.762981], [26.638732, 47.762839], [26.638732, 47.762839], [26.638732, 47.762839], [26.63959, 47.762455], [26.640446, 47.762225], [26.641084, 47.762302], [26.641666, 47.76244], [26.642669, 47.762593], [26.643444, 47.762869], [26.643909, 47.762533], [26.644085, 47.762408]]]}}, {"type": "Feature", "properties": {"UTR": "54", "tip": "zona_functionala"}, "geometry": {"type": "Polygon", "coordinates": [[[26.63315, 47.759817], [26.63315, 47.759817], [26.63877, 47.757083], [26.639673, 47.756574], [26.640498, 47.756091], [26.640886, 47.755554], [26.642474, 47.75466], [26.641313, 47.753136], [26.631018, 47.756394], [26.631018, 47.756394], [26.631018, 47.756394], [26.63315, 47.759817], [26.63315, 47.759817]]]}}, {"type": "Feature", "properties": {"UTR": "42", "tip": "zona_functionala"}, "geometry": {"type": "Polygon", "coordinates": [[[26.642474, 47.75466], [26.642474, 47.75466], [26.648892, 47.75141], [26.648396, 47.751111], [26.647572, 47.751154], [26.647572, 47.751154], [26.647572, 47.751154], [26.641313, 47.753136], [26.642474, 47.75466], [26.642474, 47.75466]]]}}, {"type": "Feature", "properties": {"UTR": "43", "tip": "zona_functionala"}, "geometry": {"type": "Polygon", "coordinates": [[[26.648844, 47.758484], [26.648703, 47.758371], [26.648289, 47.758095], [26.647793, 47.758083], [26.64639, 47.757313], [26.646081, 47.757012], [26.644406, 47.755381], [26.643996, 47.755232], [26.642987, 47.755508], [26.63761, 47.75812], [26.63761, 47.75812], [26.641266, 47.760082], [26.641449, 47.760547], [26.641738, 47.760895], [26.642376, 47.761109], [26.642992, 47.761166], [26.644085, 47.762408], [26.645944, 47.761085], [26.646509, 47.760705], [26.646372, 47.76036], [26.646218, 47.759877], [26.648844, 47.758484]]]}}, {"type": "Feature", "properties": {"UTR": "51", "tip": "zona_functionala"}, "geometry": {"type": "Polygon", "coordinates": [[[26.643996, 47.755232], [26.643996, 47.755232], [26.644404, 47.755261], [26.647328, 47.753773], [26.647317, 47.753651], [26.647454, 47.753428], [26.648389, 47.752953], [26.649132, 47.752514], [26.64962, 47.751995], [26.649765, 47.75184], [26.649765, 47.75184], [26.648892, 47.75141], [26.648892, 47.75141], [26.642474, 47.75466], [26.642474, 47.75466], [26.640886, 47.755554], [26.640498, 47.756091], [26.639673, 47.756574], [26.63877, 47.757083], [26.63315, 47.759817], [26.63315, 47.759817], [26.633288, 47.760038], [26.633288, 47.760038], [26.633288, 47.760038], [26.633923, 47.759708], [26.635033, 47.759363], [26.636959, 47.758406], [26.63761, 47.75812], [26.63761, 47.75812], [26.63761, 47.75812], [26.642987, 47.755508], [26.643996, 47.755232], [26.643996, 47.755232]]]}}, {"type": "Feature", "properties": {"UTR": "61", "tip": "zona_functionala"}, "geometry": {"type": "Polygon", "coordinates": [[[26.642722, 47.746307], [26.642722, 47.746307], [26.641429, 47.744822], [26.641121, 47.744121], [26.641326, 47.741464], [26.642253, 47.739098], [26.642606, 47.73809], [26.642515, 47.7374], [26.642127, 47.736848], [26.641257, 47.736399], [26.641119, 47.736451], [26.640931, 47.736525], [26.64068, 47.736613], [26.640464, 47.736706], [26.63989, 47.736973], [26.639617, 47.737088], [26.639225, 47.737196], [26.638833, 47.737264], [26.638486, 47.737359], [26.638005, 47.737471], [26.637564, 47.737541], [26.637289, 47.737578], [26.636717, 47.737713], [26.63613, 47.737892], [26.635675, 47.738013], [26.635226, 47.738122], [26.634872, 47.738262], [26.634352, 47.738523], [26.633918, 47.738747], [26.633654, 47.738953], [26.633038, 47.739528], [26.63284, 47.739606], [26.632325, 47.739661], [26.63214, 47.739774], [26.632166, 47.739841], [26.632045, 47.739911], [26.631731, 47.740193], [26.631556, 47.740437], [26.631329, 47.740709], [26.631128, 47.740843], [26.63092, 47.740952], [26.630785, 47.740975], [26.629752, 47.740226], [26.629416, 47.740462], [26.629315, 47.740551], [26.629293, 47.740587], [26.6294, 47.740649], [26.629352, 47.740786], [26.629333, 47.741026], [26.629263, 47.741236], [26.62927, 47.74136], [26.629294, 47.741499], [26.629283, 47.741602], [26.629218, 47.741704], [26.629137, 47.74181], [26.629023, 47.741942], [26.628877, 47.74215], [26.628763, 47.742273], [26.628638, 47.742386], [26.628557, 47.742448], [26.628533, 47.742533], [26.628568, 47.74262], [26.628617, 47.742701], [26.628728, 47.742923], [26.628692, 47.742991], [26.628632, 47.743067], [26.628588, 47.743165], [26.628604, 47.743305], [26.628614, 47.743432], [26.62854, 47.74351], [26.628348, 47.743582], [26.628178, 47.743664], [26.62808, 47.743758], [26.627918, 47.743804], [26.627579, 47.743797], [26.627421, 47.743799], [26.627285, 47.743869], [26.62724, 47.743946], [26.627171, 47.744076], [26.6271, 47.744162], [26.626967, 47.74421], [26.626875, 47.744207], [26.626783, 47.744169], [26.626639, 47.744085], [26.626548, 47.744002], [26.626397, 47.743932], [26.62628, 47.743956], [26.62615, 47.744015], [26.626021, 47.744045], [26.625865, 47.744007], [26.625701, 47.74394], [26.625508, 47.743878], [26.625206, 47.743798], [26.624859, 47.743581], [26.624664, 47.74335], [26.624558, 47.743154], [26.624231, 47.743222], [26.623875, 47.74329], [26.623651, 47.743285], [26.623303, 47.74333], [26.623231, 47.743343], [26.623376, 47.743633], [26.623476, 47.743759], [26.624166, 47.744415], [26.624635, 47.744878], [26.624927, 47.745139], [26.625946, 47.746264], [26.626787, 47.747198], [26.626838, 47.747269], [26.626913, 47.747356], [26.627004, 47.747482], [26.627157, 47.747582], [26.627323, 47.747771], [26.627871, 47.748357], [26.628219, 47.748627], [26.629739, 47.749573], [26.631364, 47.750822], [26.631364, 47.750822], [26.631364, 47.750822], [26.639259, 47.747928], [26.642722, 47.746307], [26.642722, 47.746307]]]}}, {"type": "Feature", "properties": {"UTR": "49", "tip": "zona_functionala"}, "geometry": {"type": "Polygon", "coordinates": [[[26.65253, 47.733577], [26.65253, 47.733577], [26.652932, 47.733941], [26.653232, 47.735243], [26.655945, 47.736295], [26.655945, 47.736295], [26.656886, 47.735466], [26.657553, 47.734121], [26.658271, 47.734109], [26.660683, 47.73465], [26.661096, 47.733183], [26.661709, 47.731009], [26.661632, 47.727661], [26.660131, 47.726047], [26.660077, 47.726073], [26.659845, 47.726195], [26.659739, 47.726339], [26.659605, 47.726571], [26.659419, 47.726645], [26.659419, 47.726835], [26.659631, 47.727213], [26.659549, 47.727242], [26.659587, 47.727316], [26.659922, 47.728088], [26.659435, 47.728261], [26.658878, 47.728856], [26.658287, 47.729502], [26.658475, 47.729694], [26.658401, 47.729734], [26.657853, 47.730059], [26.657263, 47.730551], [26.656968, 47.730706], [26.656498, 47.730887], [26.656248, 47.73099], [26.655896, 47.731161], [26.655604, 47.731387], [26.655319, 47.731296], [26.654886, 47.731152], [26.654731, 47.73109], [26.654576, 47.731041], [26.654181, 47.731364], [26.653946, 47.73172], [26.653572, 47.732363], [26.653293, 47.732823], [26.65312, 47.733008], [26.652735, 47.733392], [26.652593, 47.733528], [26.65253, 47.733577]]]}}, {"type": "Feature", "properties": {"UTR": "50", "tip": "zona_functionala"}, "geometry": {"type": "Polygon", "coordinates": [[[26.642722, 47.746307], [26.644656, 47.743764], [26.646948, 47.741472], [26.647214, 47.741206], [26.648699, 47.737368], [26.650067, 47.736455], [26.65082, 47.736371], [26.652758, 47.735274], [26.653232, 47.735243], [26.653232, 47.735243], [26.652932, 47.733941], [26.65253, 47.733577], [26.65253, 47.733577], [26.65253, 47.733577], [26.651845, 47.733842], [26.651831, 47.733236], [26.65163, 47.733104], [26.651502, 47.733112], [26.651393, 47.733196], [26.651319, 47.733376], [26.65133, 47.733552], [26.651256, 47.733646], [26.651038, 47.733455], [26.650821, 47.733276], [26.65073, 47.733182], [26.650713, 47.73302], [26.650612, 47.732981], [26.650219, 47.732991], [26.649587, 47.733067], [26.649162, 47.733272], [26.649065, 47.73338], [26.649043, 47.733517], [26.648875, 47.733706], [26.64868, 47.733946], [26.64855, 47.734108], [26.648439, 47.734304], [26.648334, 47.734613], [26.648178, 47.734879], [26.647965, 47.735015], [26.647653, 47.735164], [26.647543, 47.735203], [26.647396, 47.735257], [26.647056, 47.735352], [26.646615, 47.735576], [26.646519, 47.735673], [26.646477, 47.735906], [26.646443, 47.735933], [26.646402, 47.735974], [26.646378, 47.73604], [26.646383, 47.736097], [26.646379, 47.736162], [26.646322, 47.736297], [26.646297, 47.736427], [26.646242, 47.736588], [26.645482, 47.736567], [26.644681, 47.736618], [26.64434, 47.736615], [26.643981, 47.736676], [26.643694, 47.736796], [26.643491, 47.736894], [26.643229, 47.736686], [26.643083, 47.736605], [26.642603, 47.736454], [26.642098, 47.736385], [26.641511, 47.736302], [26.641257, 47.736399], [26.642127, 47.736848], [26.642515, 47.7374], [26.642606, 47.73809], [26.642253, 47.739098], [26.641326, 47.741464], [26.641121, 47.744121], [26.641429, 47.744822], [26.642722, 47.746307]]]}}, {"type": "Feature", "properties": {"UTR": "34", "tip": "zona_functionala"}, "geometry": {"type": "Polygon", "coordinates": [[[26.649582, 47.742763], [26.649582, 47.742763], [26.647059, 47.745426], [26.643882, 47.747466], [26.646823, 47.750405], [26.654329, 47.746106], [26.655285, 47.745558], [26.649582, 47.742763]]]}}, {"type": "Feature", "properties": {"UTR": "41", "tip": "zona_functionala"}, "geometry": {"type": "Polygon", "coordinates": [[[26.643882, 47.747466], [26.647059, 47.745426], [26.649582, 47.742763], [26.646948, 47.741472], [26.644656, 47.743764], [26.642722, 47.746307], [26.642722, 47.746307], [26.643882, 47.747466]]]}}, {"type": "Feature", "properties": {"UTR": "17", "tip": "zona_functionala"}, "geometry": {"type": "Polygon", "coordinates": [[[26.647572, 47.751154], [26.647572, 47.751154], [26.656535, 47.748899], [26.655582, 47.747441], [26.654329, 47.746106], [26.646823, 47.750405], [26.647572, 47.751154]]]}}, {"type": "Feature", "properties": {"UTR": "40", "tip": "zona_functionala"}, "geometry": {"type": "Polygon", "coordinates": [[[26.649582, 47.742763], [26.649582, 47.742763], [26.65363, 47.738649], [26.655945, 47.736295], [26.655945, 47.736295], [26.655945, 47.736295], [26.653232, 47.735243], [26.652758, 47.735274], [26.65082, 47.736371], [26.650067, 47.736455], [26.648699, 47.737368], [26.647214, 47.741206], [26.646948, 47.741472], [26.649582, 47.742763], [26.649582, 47.742763]]]}}, {"type": "Feature", "properties": {"UTR": "34", "tip": "zona_functionala"}, "geometry": {"type": "Polygon", "coordinates": [[[26.649582, 47.742763], [26.649582, 47.742763], [26.649582, 47.742763], [26.649582, 47.742763]]]}}, {"type": "Feature", "properties": {"UTR": "16", "tip": "zona_functionala"}, "geometry": {"type": "Polygon", "coordinates": [[[26.655593, 47.739343], [26.654116, 47.740825], [26.652562, 47.743049], [26.653049, 47.743256], [26.653143, 47.74321], [26.655341, 47.744268], [26.655452, 47.744268], [26.655572, 47.744343], [26.655589, 47.744527], [26.656191, 47.745005], [26.657364, 47.744289], [26.660615, 47.741119], [26.655593, 47.739343]]]}}, {"type": "Feature", "properties": {"UTR": "33", "tip": "zona_functionala"}, "geometry": {"type": "Polygon", "coordinates": [[[26.656191, 47.745005], [26.655589, 47.744527], [26.655572, 47.744343], [26.655452, 47.744268], [26.655341, 47.744268], [26.653143, 47.74321], [26.653049, 47.743256], [26.652562, 47.743049], [26.654116, 47.740825], [26.655593, 47.739343], [26.65363, 47.738649], [26.649582, 47.742763], [26.649582, 47.742763], [26.655285, 47.745558], [26.655285, 47.745558], [26.655285, 47.745558], [26.656191, 47.745005]]]}}, {"type": "Feature", "properties": {"UTR": "32", "tip": "zona_functionala"}, "geometry": {"type": "Polygon", "coordinates": [[[26.660615, 47.741119], [26.660615, 47.741119], [26.661415, 47.740402], [26.662916, 47.739872], [26.665379, 47.738565], [26.664157, 47.737488], [26.665109, 47.735947], [26.666702, 47.734311], [26.666189, 47.734047], [26.665328, 47.734428], [26.664696, 47.734823], [26.66412, 47.735467], [26.663732, 47.735264], [26.66335, 47.735755], [26.661597, 47.734127], [26.660683, 47.73465], [26.660683, 47.73465], [26.660683, 47.73465], [26.658271, 47.734109], [26.657553, 47.734121], [26.656886, 47.735466], [26.655945, 47.736295], [26.655945, 47.736295], [26.65363, 47.738649], [26.655593, 47.739343], [26.660615, 47.741119], [26.660615, 47.741119]]]}}, {"type": "Feature", "properties": {"UTR": "39", "tip": "zona_functionala"}, "geometry": {"type": "Polygon", "coordinates": [[[26.666702, 47.734311], [26.666702, 47.734311], [26.66705, 47.733843], [26.666395, 47.733515], [26.665241, 47.73273], [26.663689, 47.731237], [26.662816, 47.731419], [26.662021, 47.732221], [26.661636, 47.732903], [26.661096, 47.733183], [26.660683, 47.73465], [26.660683, 47.73465], [26.661597, 47.734127], [26.66335, 47.735755], [26.663732, 47.735264], [26.66412, 47.735467], [26.664696, 47.734823], [26.665328, 47.734428], [26.666189, 47.734047], [26.666702, 47.734311], [26.666702, 47.734311]]]}}, {"type": "Feature", "properties": {"UTR": "31", "tip": "zona_functionala"}, "geometry": {"type": "Polygon", "coordinates": [[[26.665379, 47.738565], [26.665379, 47.738565], [26.665379, 47.738565], [26.666364, 47.737969], [26.668859, 47.734624], [26.66705, 47.733843], [26.66705, 47.733843], [26.666702, 47.734311], [26.666702, 47.734311], [26.665109, 47.735947], [26.664157, 47.737488], [26.665379, 47.738565]]]}}, {"type": "Feature", "properties": {"UTR": "7", "tip": "zona_functionala"}, "geometry": {"type": "Polygon", "coordinates": [[[26.664639, 47.743506], [26.661242, 47.741245], [26.660615, 47.741119], [26.660615, 47.741119], [26.660615, 47.741119], [26.657364, 47.744289], [26.656191, 47.745005], [26.655285, 47.745558], [26.655285, 47.745558], [26.654329, 47.746106], [26.655582, 47.747441], [26.656535, 47.748899], [26.656535, 47.748899], [26.660213, 47.747986], [26.66232, 47.747508], [26.662949, 47.747454], [26.664639, 47.743506]]]}}, {"type": "Feature", "properties": {"UTR": "6", "tip": "zona_functionala"}, "geometry": {"type": "Polygon", "coordinates": [[[26.666357, 47.739491], [26.664639, 47.743506], [26.662949, 47.747454], [26.663994, 47.747366], [26.66638, 47.747353], [26.667361, 47.746926], [26.667554, 47.746175], [26.667149, 47.744079], [26.668486, 47.741138], [26.66714, 47.740233], [26.666357, 47.739491]]]}}, {"type": "Feature", "properties": {"UTR": "15", "tip": "zona_functionala"}, "geometry": {"type": "Polygon", "coordinates": [[[26.660615, 47.741119], [26.660615, 47.741119], [26.661242, 47.741245], [26.664639, 47.743506], [26.666357, 47.739491], [26.665379, 47.738565], [26.665379, 47.738565], [26.665379, 47.738565], [26.665379, 47.738565], [26.662916, 47.739872], [26.661415, 47.740402], [26.660615, 47.741119], [26.660615, 47.741119]]]}}, {"type": "Feature", "properties": {"UTR": "5", "tip": "zona_functionala"}, "geometry": {"type": "Polygon", "coordinates": [[[26.674594, 47.741042], [26.673769, 47.740798], [26.670896, 47.738676], [26.669917, 47.738398], [26.668486, 47.741138], [26.668486, 47.741138], [26.672005, 47.743078], [26.673836, 47.744804], [26.675491, 47.744221], [26.675491, 47.744221], [26.675491, 47.744221], [26.673957, 47.743702], [26.674479, 47.743063], [26.675167, 47.742549], [26.674817, 47.742232], [26.674552, 47.741744], [26.674646, 47.741634], [26.674594, 47.741042], [26.674594, 47.741042]]]}}, {"type": "Feature", "properties": {"UTR": "7", "tip": "zona_functionala"}, "geometry": {"type": "Polygon", "coordinates": [[[26.668486, 47.741138], [26.668486, 47.741138], [26.668486, 47.741138], [26.668486, 47.741138], [26.668486, 47.741138]]]}}, {"type": "Feature", "properties": {"UTR": "72", "tip": "zona_functionala"}, "geometry": {"type": "Polygon", "coordinates": [[[26.668486, 47.741138], [26.668486, 47.741138], [26.669917, 47.738398], [26.671314, 47.735724], [26.668859, 47.734624], [26.668859, 47.734624], [26.668859, 47.734624], [26.666364, 47.737969], [26.665379, 47.738565], [26.665379, 47.738565], [26.666357, 47.739491], [26.66714, 47.740233], [26.668486, 47.741138], [26.668486, 47.741138], [26.668486, 47.741138], [26.668486, 47.741138]]]}}, {"type": "Feature", "properties": {"UTR": "11", "tip": "zona_functionala"}, "geometry": {"type": "Polygon", "coordinates": [[[26.678999, 47.739747], [26.678999, 47.739747], [26.678363, 47.741264], [26.675491, 47.744221], [26.675491, 47.744221], [26.684185, 47.742198], [26.684185, 47.742198], [26.684622, 47.741629], [26.683172, 47.740818], [26.67958, 47.739964], [26.678999, 47.739747]]]}}, {"type": "Feature", "properties": {"UTR": "12", "tip": "zona_functionala"}, "geometry": {"type": "Polygon", "coordinates": [[[26.67626, 47.738654], [26.675954, 47.739161], [26.675629, 47.739972], [26.674594, 47.741042], [26.674646, 47.741634], [26.674552, 47.741744], [26.674817, 47.742232], [26.675167, 47.742549], [26.674479, 47.743063], [26.673957, 47.743702], [26.675491, 47.744221], [26.678363, 47.741264], [26.678999, 47.739747], [26.676567, 47.738835], [26.67626, 47.738654], [26.67626, 47.738654]]]}}, {"type": "Feature", "properties": {"UTR": "72", "tip": "zona_functionala"}, "geometry": {"type": "Polygon", "coordinates": [[[26.675491, 47.744221], [26.675491, 47.744221], [26.675491, 47.744221], [26.675491, 47.744221]]]}}, {"type": "Feature", "properties": {"UTR": "13", "tip": "zona_functionala"}, "geometry": {"type": "Polygon", "coordinates": [[[26.671314, 47.735724], [26.671314, 47.735724], [26.669917, 47.738398], [26.670896, 47.738676], [26.673769, 47.740798], [26.674594, 47.741042], [26.675629, 47.739972], [26.675954, 47.739161], [26.67626, 47.738654], [26.672794, 47.736601], [26.671314, 47.735724]]]}}, {"type": "Feature", "properties": {"UTR": "1", "tip": "zona_functionala"}, "geometry": {"type": "Polygon", "coordinates": [[[26.66638, 47.747353], [26.66638, 47.747353], [26.666403, 47.74767], [26.667979, 47.748289], [26.668539, 47.74758], [26.671396, 47.746847], [26.674908, 47.745807], [26.673836, 47.744804], [26.673836, 47.744804], [26.673836, 47.744804], [26.672005, 47.743078], [26.668486, 47.741138], [26.668486, 47.741138], [26.667149, 47.744079], [26.667554, 47.746175], [26.667361, 47.746926], [26.66638, 47.747353]]]}}, {"type": "Feature", "properties": {"UTR": "2", "tip": "zona_functionala"}, "geometry": {"type": "Polygon", "coordinates": [[[26.660213, 47.747986], [26.661744, 47.749274], [26.661744, 47.749274], [26.661869, 47.749765], [26.662143, 47.74967], [26.662382, 47.749834], [26.664611, 47.750133], [26.666087, 47.750098], [26.668738, 47.751078], [26.671756, 47.749715], [26.667979, 47.748289], [26.667979, 47.748289], [26.667979, 47.748289], [26.666403, 47.74767], [26.66638, 47.747353], [26.66638, 47.747353], [26.66638, 47.747353], [26.663994, 47.747366], [26.662949, 47.747454], [26.66232, 47.747508], [26.660213, 47.747986]]]}}, {"type": "Feature", "properties": {"UTR": "18", "tip": "zona_functionala"}, "geometry": {"type": "Polygon", "coordinates": [[[26.661744, 47.749274], [26.661744, 47.749274], [26.660213, 47.747986], [26.656535, 47.748899], [26.656535, 47.748899], [26.656535, 47.748899], [26.656535, 47.748899], [26.647572, 47.751154], [26.647572, 47.751154], [26.647572, 47.751154], [26.647572, 47.751154], [26.648396, 47.751111], [26.648892, 47.75141], [26.648892, 47.75141], [26.649765, 47.75184], [26.649765, 47.75184], [26.649765, 47.75184], [26.65359, 47.750764], [26.655001, 47.750899], [26.655386, 47.750936], [26.661009, 47.749366], [26.661744, 47.749274], [26.661744, 47.749274]]]}}, {"type": "Feature", "properties": {"UTR": "20", "tip": "zona_functionala"}, "geometry": {"type": "Polygon", "coordinates": [[[26.666835, 47.753754], [26.664717, 47.753148], [26.66316, 47.752809], [26.662399, 47.752809], [26.660355, 47.753286], [26.657112, 47.754786], [26.657112, 47.754786], [26.65658, 47.755107], [26.655442, 47.755544], [26.655006, 47.755578], [26.654724, 47.755544], [26.654253, 47.755664], [26.653715, 47.756291], [26.652902, 47.756452], [26.652235, 47.756441], [26.649032, 47.758112], [26.648703, 47.758371], [26.648844, 47.758484], [26.649203, 47.758455], [26.649716, 47.75834], [26.651198, 47.757614], [26.65178, 47.757489], [26.652871, 47.757601], [26.654975, 47.759015], [26.65852, 47.763292], [26.658791, 47.762959], [26.658959, 47.762776], [26.659319, 47.762406], [26.65965, 47.762029], [26.659837, 47.761812], [26.659893, 47.761678], [26.660039, 47.761497], [26.660579, 47.760882], [26.660628, 47.760909], [26.660943, 47.76052], [26.661754, 47.759769], [26.662628, 47.759037], [26.664226, 47.757903], [26.665611, 47.756753], [26.665883, 47.756149], [26.666295, 47.754731], [26.66672, 47.753866], [26.666835, 47.753754]]]}}, {"type": "Feature", "properties": {"UTR": "35", "tip": "zona_functionala"}, "geometry": {"type": "Polygon", "coordinates": [[[26.646081, 47.757012], [26.647055, 47.756766], [26.648748, 47.755651], [26.650185, 47.754483], [26.650668, 47.753693], [26.650805, 47.753233], [26.650514, 47.752767], [26.650018, 47.752434], [26.649765, 47.75184], [26.649765, 47.75184], [26.649765, 47.75184], [26.649765, 47.75184], [26.64962, 47.751995], [26.649132, 47.752514], [26.648389, 47.752953], [26.647454, 47.753428], [26.647317, 47.753651], [26.647328, 47.753773], [26.644404, 47.755261], [26.643996, 47.755232], [26.643996, 47.755232], [26.644406, 47.755381], [26.646081, 47.757012]]]}}, {"type": "Feature", "properties": {"UTR": "19", "tip": "zona_functionala"}, "geometry": {"type": "Polygon", "coordinates": [[[26.648703, 47.758371], [26.649032, 47.758112], [26.652235, 47.756441], [26.652902, 47.756452], [26.653715, 47.756291], [26.654253, 47.755664], [26.654724, 47.755544], [26.655006, 47.755578], [26.655442, 47.755544], [26.65658, 47.755107], [26.657112, 47.754786], [26.656676, 47.754407], [26.656688, 47.753882], [26.655597, 47.751728], [26.655169, 47.751187], [26.655001, 47.750899], [26.65359, 47.750764], [26.649765, 47.75184], [26.649765, 47.75184], [26.650018, 47.752434], [26.650514, 47.752767], [26.650805, 47.753233], [26.650668, 47.753693], [26.650185, 47.754483], [26.648748, 47.755651], [26.647055, 47.756766], [26.646081, 47.757012], [26.64639, 47.757313], [26.647793, 47.758083], [26.648289, 47.758095], [26.648703, 47.758371]]]}}, {"type": "Feature", "properties": {"UTR": "8", "tip": "zona_functionala"}, "geometry": {"type": "Polygon", "coordinates": [[[26.657112, 47.754786], [26.657112, 47.754786], [26.660355, 47.753286], [26.662399, 47.752809], [26.66316, 47.752809], [26.664717, 47.753148], [26.666835, 47.753754], [26.667372, 47.75323], [26.66833, 47.75269], [26.669367, 47.751731], [26.668738, 47.751078], [26.668738, 47.751078], [26.668738, 47.751078], [26.666087, 47.750098], [26.664611, 47.750133], [26.662382, 47.749834], [26.662143, 47.74967], [26.661869, 47.749765], [26.661744, 47.749274], [26.661009, 47.749366], [26.655386, 47.750936], [26.655001, 47.750899], [26.655169, 47.751187], [26.655597, 47.751728], [26.656688, 47.753882], [26.656676, 47.754407], [26.657112, 47.754786], [26.657112, 47.754786]]]}}, {"type": "Feature", "properties": {"UTR": "4", "tip": "zona_functionala"}, "geometry": {"type": "Polygon", "coordinates": [[[26.674908, 47.745807], [26.674908, 47.745807], [26.675818, 47.746308], [26.676678, 47.747166], [26.676699, 47.747155], [26.676699, 47.747155], [26.681086, 47.745227], [26.682509, 47.744464], [26.683221, 47.7437], [26.684185, 47.742198], [26.684185, 47.742198], [26.684185, 47.742198], [26.675491, 47.744221], [26.675491, 47.744221], [26.673836, 47.744804], [26.673836, 47.744804], [26.674908, 47.745807]]]}}, {"type": "Feature", "properties": {"UTR": "3", "tip": "zona_functionala"}, "geometry": {"type": "Polygon", "coordinates": [[[26.676678, 47.747166], [26.675818, 47.746308], [26.674908, 47.745807], [26.674908, 47.745807], [26.674908, 47.745807], [26.671396, 47.746847], [26.668539, 47.74758], [26.667979, 47.748289], [26.667979, 47.748289], [26.671756, 47.749715], [26.671756, 47.749715], [26.671757, 47.749715], [26.672485, 47.749523], [26.676678, 47.747166]]]}}, {"type": "Feature", "properties": {"UTR": "47", "tip": "zona_functionala"}, "geometry": {"type": "Polygon", "coordinates": [[[26.701175, 47.7556], [26.701148, 47.755589], [26.700662, 47.755657], [26.700163, 47.755762], [26.698752, 47.75413], [26.697888, 47.753848], [26.696468, 47.754112], [26.696229, 47.753675], [26.697535, 47.75305], [26.696663, 47.752395], [26.697256, 47.751121], [26.695845, 47.752009], [26.694087, 47.751923], [26.692497, 47.750198], [26.691034, 47.752233], [26.691509, 47.753044], [26.692112, 47.75426], [26.689957, 47.75482], [26.690021, 47.755148], [26.690983, 47.755769], [26.691479, 47.756523], [26.691103, 47.756931], [26.691171, 47.757713], [26.69254, 47.757834], [26.692913, 47.758082], [26.693562, 47.75772], [26.693763, 47.757627], [26.69404, 47.757542], [26.694129, 47.757538], [26.694229, 47.757572], [26.694448, 47.7576], [26.694669, 47.757625], [26.694923, 47.757629], [26.695191, 47.757587], [26.695571, 47.75756], [26.695984, 47.757532], [26.696666, 47.757518], [26.697243, 47.757461], [26.697613, 47.757387], [26.697944, 47.757272], [26.698279, 47.757117], [26.698706, 47.756856], [26.69913, 47.756547], [26.69949, 47.756316], [26.699732, 47.756164], [26.69994, 47.756106], [26.700047, 47.756047], [26.700149, 47.75592], [26.700313, 47.755848], [26.700539, 47.75574], [26.700852, 47.755692], [26.700997, 47.755683], [26.701117, 47.755667], [26.701175, 47.7556], [26.701175, 47.7556]]]}}, {"type": "Feature", "properties": {"UTR": "57", "tip": "zona_functionala"}, "geometry": {"type": "Polygon", "coordinates": [[[26.685802, 47.743911], [26.682791, 47.746603], [26.681457, 47.748098], [26.68165, 47.748251], [26.682266, 47.748481], [26.684515, 47.749189], [26.684105, 47.749733], [26.684789, 47.749955], [26.683985, 47.751159], [26.685171, 47.751535], [26.687452, 47.751964], [26.689424, 47.752746], [26.690012, 47.753543], [26.689915, 47.754401], [26.689957, 47.75482], [26.692112, 47.75426], [26.691509, 47.753044], [26.691034, 47.752233], [26.692497, 47.750198], [26.694087, 47.751923], [26.695845, 47.752009], [26.697256, 47.751121], [26.696663, 47.752395], [26.697535, 47.75305], [26.696229, 47.753675], [26.696468, 47.754112], [26.697888, 47.753848], [26.698752, 47.75413], [26.700163, 47.755762], [26.700662, 47.755657], [26.701148, 47.755589], [26.701175, 47.7556], [26.701305, 47.755588], [26.701726, 47.755492], [26.702079, 47.755374], [26.702649, 47.755185], [26.703126, 47.755078], [26.703082, 47.755019], [26.702993, 47.754986], [26.702918, 47.754956], [26.702817, 47.754908], [26.70283, 47.754853], [26.702899, 47.754802], [26.703046, 47.75479], [26.703176, 47.754755], [26.703167, 47.754595], [26.703144, 47.754315], [26.703329, 47.754343], [26.703687, 47.754392], [26.703786, 47.754386], [26.704318, 47.754338], [26.704621, 47.754279], [26.704936, 47.754212], [26.705184, 47.754111], [26.70533, 47.75402], [26.705501, 47.753961], [26.705702, 47.753934], [26.705868, 47.753941], [26.706065, 47.753919], [26.706227, 47.753888], [26.706693, 47.753789], [26.707017, 47.753714], [26.707227, 47.753668], [26.707417, 47.753613], [26.707632, 47.753508], [26.707795, 47.753412], [26.707964, 47.753264], [26.708094, 47.753134], [26.708207, 47.753023], [26.708357, 47.752865], [26.708495, 47.752739], [26.708838, 47.752536], [26.709917, 47.753779], [26.710394, 47.754313], [26.710589, 47.754229], [26.711089, 47.753957], [26.711279, 47.75384], [26.71154, 47.753672], [26.712029, 47.753285], [26.712814, 47.75275], [26.713339, 47.75236], [26.713681, 47.752134], [26.714078, 47.751852], [26.714624, 47.751472], [26.715014, 47.751161], [26.71525, 47.751029], [26.715466, 47.75103], [26.715633, 47.751068], [26.716113, 47.751159], [26.716351, 47.7512], [26.71664, 47.751266], [26.716973, 47.751435], [26.717307, 47.751683], [26.71755, 47.751986], [26.717671, 47.752144], [26.717816, 47.752225], [26.718087, 47.752402], [26.718359, 47.752535], [26.718609, 47.7526], [26.7188, 47.752607], [26.718901, 47.752565], [26.719122, 47.752488], [26.719403, 47.752345], [26.719496, 47.752492], [26.719445, 47.752661], [26.719604, 47.752754], [26.719876, 47.75297], [26.720107, 47.753126], [26.720471, 47.753247], [26.72053, 47.753315], [26.720511, 47.753373], [26.72052, 47.753439], [26.720564, 47.753481], [26.720628, 47.753495], [26.720637, 47.753568], [26.720816, 47.753604], [26.720991, 47.753671], [26.721332, 47.753737], [26.721651, 47.753756], [26.72182, 47.753735], [26.72196, 47.753675], [26.722161, 47.753558], [26.722472, 47.75337], [26.722773, 47.753263], [26.723073, 47.753163], [26.72326, 47.753139], [26.723408, 47.753129], [26.723528, 47.753125], [26.723757, 47.753093], [26.723957, 47.753047], [26.724058, 47.753003], [26.724123, 47.75295], [26.72422, 47.752884], [26.724361, 47.752853], [26.72452, 47.752861], [26.724573, 47.752862], [26.724668, 47.752973], [26.72471, 47.753069], [26.724717, 47.753153], [26.724735, 47.75316], [26.725899, 47.752571], [26.726947, 47.752081], [26.727181, 47.751982], [26.727157, 47.752235], [26.727181, 47.752302], [26.727248, 47.752301], [26.72729, 47.75229], [26.727348, 47.752222], [26.72848, 47.751827], [26.728844, 47.751709], [26.728878, 47.751799], [26.729327, 47.751688], [26.730236, 47.751572], [26.730472, 47.751554], [26.730393, 47.75131], [26.730316, 47.75112], [26.730351, 47.750986], [26.730678, 47.750943], [26.730939, 47.750827], [26.73186, 47.75043], [26.732724, 47.750064], [26.73299, 47.750299], [26.733198, 47.7505], [26.733486, 47.750479], [26.733551, 47.750524], [26.733547, 47.750612], [26.733596, 47.750659], [26.733694, 47.750651], [26.733786, 47.750656], [26.733919, 47.750721], [26.734096, 47.750747], [26.734195, 47.750719], [26.73426, 47.750673], [26.734368, 47.750631], [26.734396, 47.750628], [26.734527, 47.750641], [26.734612, 47.750635], [26.734678, 47.75059], [26.734699, 47.750499], [26.734665, 47.750431], [26.734566, 47.750309], [26.734535, 47.750238], [26.734558, 47.750187], [26.734595, 47.750131], [26.734612, 47.750088], [26.734575, 47.750039], [26.734554, 47.750046], [26.734447, 47.750015], [26.734329, 47.750074], [26.734225, 47.750137], [26.73419, 47.750137], [26.734096, 47.750006], [26.733955, 47.749886], [26.733963, 47.749814], [26.73402, 47.749718], [26.73401, 47.749686], [26.733992, 47.749628], [26.733979, 47.749531], [26.73388, 47.74943], [26.733745, 47.74941], [26.733506, 47.749356], [26.733135, 47.749333], [26.732869, 47.749313], [26.731794, 47.748531], [26.730999, 47.748128], [26.729259, 47.746998], [26.727624, 47.74593], [26.728031, 47.745646], [26.728498, 47.745341], [26.728708, 47.745156], [26.728809, 47.744907], [26.728858, 47.744673], [26.728902, 47.744408], [26.728914, 47.744214], [26.72891, 47.744005], [26.728951, 47.743835], [26.728997, 47.743725], [26.729227, 47.743425], [26.729392, 47.743261], [26.729656, 47.74303], [26.72988, 47.742849], [26.730081, 47.742733], [26.730238, 47.742674], [26.730509, 47.742617], [26.730898, 47.742552], [26.731035, 47.742505], [26.731225, 47.74239], [26.731432, 47.742241], [26.73165, 47.742069], [26.731756, 47.741979], [26.731534, 47.741882], [26.731165, 47.741726], [26.730007, 47.741128], [26.728824, 47.74059], [26.727462, 47.740005], [26.726756, 47.739711], [26.72652, 47.739635], [26.726407, 47.739634], [26.726325, 47.739588], [26.726039, 47.739402], [26.725817, 47.739296], [26.725707, 47.739297], [26.725631, 47.739325], [26.725466, 47.739389], [26.72523, 47.739495], [26.724957, 47.739606], [26.724818, 47.739658], [26.724474, 47.739837], [26.724182, 47.739999], [26.72366, 47.739596], [26.723466, 47.739473], [26.72332, 47.739442], [26.723186, 47.739477], [26.723071, 47.739531], [26.722921, 47.739782], [26.722716, 47.740001], [26.722586, 47.740137], [26.722422, 47.74032], [26.722124, 47.740697], [26.721911, 47.740998], [26.721722, 47.741258], [26.721682, 47.741345], [26.721419, 47.741196], [26.721258, 47.741146], [26.720973, 47.741062], [26.72085, 47.74098], [26.720749, 47.740912], [26.720628, 47.740883], [26.720448, 47.740867], [26.720153, 47.740831], [26.719605, 47.740725], [26.719388, 47.740673], [26.719081, 47.740601], [26.717499, 47.739409], [26.716706, 47.738832], [26.715675, 47.73807], [26.71497, 47.737606], [26.714611, 47.737338], [26.713607, 47.73737], [26.712179, 47.73741], [26.705962, 47.738582], [26.693257, 47.736399], [26.691511, 47.736268], [26.690356, 47.736481], [26.687086, 47.738667], [26.687086, 47.738667], [26.691497, 47.740402], [26.689609, 47.742513], [26.688694, 47.742266], [26.687901, 47.744855], [26.685802, 47.743911]]]}}, {"type": "Feature", "properties": {"UTR": "36", "tip": "zona_functionala"}, "geometry": {"type": "Polygon", "coordinates": [[[26.680408, 47.755796], [26.680187, 47.755826], [26.679997, 47.755811], [26.679412, 47.75576], [26.679325, 47.755997], [26.679173, 47.756133], [26.678849, 47.75611], [26.67856, 47.755985], [26.678301, 47.755914], [26.678016, 47.755921], [26.677826, 47.756064], [26.676518, 47.756148], [26.676183, 47.75635], [26.675955, 47.756649], [26.675491, 47.756795], [26.674725, 47.756775], [26.673824, 47.756744], [26.672974, 47.756848], [26.672239, 47.75707], [26.671777, 47.757204], [26.671344, 47.757196], [26.670836, 47.757097], [26.670694, 47.757131], [26.670323, 47.757066], [26.669947, 47.757062], [26.669682, 47.75698], [26.669374, 47.757109], [26.668438, 47.756937], [26.668161, 47.756026], [26.667768, 47.755543], [26.667768, 47.755202], [26.668093, 47.754757], [26.668195, 47.75455], [26.668018, 47.754082], [26.666835, 47.753754], [26.666835, 47.753754], [26.666835, 47.753754], [26.66672, 47.753866], [26.666295, 47.754731], [26.665883, 47.756149], [26.665611, 47.756753], [26.664226, 47.757903], [26.662628, 47.759037], [26.661754, 47.759769], [26.660943, 47.76052], [26.660628, 47.760909], [26.660665, 47.76093], [26.660797, 47.760857], [26.661031, 47.760663], [26.66166, 47.761307], [26.662656, 47.762418], [26.66437, 47.764308], [26.665242, 47.765277], [26.665404, 47.765489], [26.665505, 47.765462], [26.665647, 47.765433], [26.665738, 47.76541], [26.665895, 47.765372], [26.666086, 47.765279], [26.666205, 47.765211], [26.666318, 47.765085], [26.666378, 47.764984], [26.666424, 47.764859], [26.666489, 47.764818], [26.666634, 47.764816], [26.666829, 47.764823], [26.666921, 47.764817], [26.667068, 47.764793], [26.667166, 47.764765], [26.66724, 47.764736], [26.667431, 47.764624], [26.667523, 47.764517], [26.667645, 47.764365], [26.667845, 47.764277], [26.668015, 47.764195], [26.668161, 47.76411], [26.668393, 47.763966], [26.66857, 47.763751], [26.668923, 47.7633], [26.669056, 47.763108], [26.669321, 47.762892], [26.669497, 47.762782], [26.669748, 47.76266], [26.669915, 47.762571], [26.670023, 47.762517], [26.670421, 47.762595], [26.670698, 47.762639], [26.671488, 47.762787], [26.671994, 47.762904], [26.672203, 47.762917], [26.672903, 47.763062], [26.673072, 47.763124], [26.673507, 47.76327], [26.673872, 47.763387], [26.675114, 47.763865], [26.675316, 47.7639], [26.675902, 47.763329], [26.676334, 47.763106], [26.676744, 47.762878], [26.677106, 47.762699], [26.677554, 47.762464], [26.677765, 47.762182], [26.678129, 47.761631], [26.678814, 47.760741], [26.679135, 47.76037], [26.679308, 47.760469], [26.680013, 47.759956], [26.680756, 47.759526], [26.680822, 47.759592], [26.681079, 47.759801], [26.681303, 47.759955], [26.681435, 47.759879], [26.681573, 47.759782], [26.681852, 47.759627], [26.68221, 47.759915], [26.682826, 47.760376], [26.683003, 47.76049], [26.683477, 47.760066], [26.683718, 47.759848], [26.6841, 47.759516], [26.684426, 47.759342], [26.684699, 47.759231], [26.684914, 47.759123], [26.685088, 47.759051], [26.685336, 47.759026], [26.685499, 47.759064], [26.685499, 47.759064], [26.685499, 47.759064], [26.686094, 47.758191], [26.681634, 47.756776], [26.680408, 47.755796]]]}}, {"type": "Feature", "properties": {"UTR": "40", "tip": "zona_functionala"}, "geometry": {"type": "Polygon", "coordinates": [[[26.666835, 47.753754], [26.666835, 47.753754], [26.668018, 47.754082], [26.668195, 47.75455], [26.668093, 47.754757], [26.667768, 47.755202], [26.667768, 47.755543], [26.668161, 47.756026], [26.668438, 47.756937], [26.669374, 47.757109], [26.669682, 47.75698], [26.669947, 47.757062], [26.670323, 47.757066], [26.670694, 47.757131], [26.670836, 47.757097], [26.671344, 47.757196], [26.671777, 47.757204], [26.672239, 47.75707], [26.672974, 47.756848], [26.673824, 47.756744], [26.674725, 47.756775], [26.675491, 47.756795], [26.675955, 47.756649], [26.676183, 47.75635], [26.676518, 47.756148], [26.677826, 47.756064], [26.678016, 47.755921], [26.678301, 47.755914], [26.67856, 47.755985], [26.678849, 47.75611], [26.679173, 47.756133], [26.679325, 47.755997], [26.679412, 47.75576], [26.679997, 47.755811], [26.680187, 47.755826], [26.680408, 47.755796], [26.679415, 47.755002], [26.679311, 47.754919], [26.678931, 47.754906], [26.6725, 47.754679], [26.67116, 47.753418], [26.669367, 47.751731], [26.669367, 47.751731], [26.66833, 47.75269], [26.667372, 47.75323], [26.666835, 47.753754]]]}}, {"type": "Feature", "properties": {"UTR": "25", "tip": "zona_functionala"}, "geometry": {"type": "Polygon", "coordinates": [[[26.687086, 47.738667], [26.687086, 47.738667], [26.687086, 47.738667], [26.686744, 47.738916], [26.685953, 47.73949], [26.684704, 47.741496], [26.685154, 47.741779], [26.685815, 47.742346], [26.685818, 47.742483], [26.684702, 47.743417], [26.685802, 47.743911], [26.687901, 47.744855], [26.688694, 47.742266], [26.689609, 47.742513], [26.691497, 47.740402], [26.687086, 47.738667]]]}}, {"type": "Feature", "properties": {"UTR": "24", "tip": "zona_functionala"}, "geometry": {"type": "Polygon", "coordinates": [[[26.677875, 47.75021], [26.677525, 47.75071], [26.677077, 47.750929], [26.678065, 47.751949], [26.678376, 47.752197], [26.678545, 47.752197], [26.678575, 47.752433], [26.678446, 47.75276], [26.679313, 47.752721], [26.679559, 47.753122], [26.679623, 47.753327], [26.679881, 47.753394], [26.68022, 47.753744], [26.68, 47.753984], [26.68037, 47.754021], [26.682672, 47.754027], [26.683295, 47.753944], [26.686264, 47.754729], [26.687239, 47.754635], [26.687459, 47.755066], [26.687098, 47.755899], [26.686817, 47.75611], [26.686929, 47.756429], [26.686148, 47.757074], [26.686431, 47.757763], [26.686222, 47.758217], [26.686927, 47.758357], [26.690537, 47.757711], [26.691171, 47.757713], [26.691171, 47.757713], [26.691103, 47.756931], [26.691479, 47.756523], [26.690983, 47.755769], [26.690021, 47.755148], [26.689957, 47.75482], [26.689957, 47.75482], [26.689915, 47.754401], [26.690012, 47.753543], [26.689424, 47.752746], [26.687452, 47.751964], [26.685171, 47.751535], [26.683985, 47.751159], [26.684789, 47.749955], [26.684105, 47.749733], [26.684515, 47.749189], [26.682266, 47.748481], [26.68165, 47.748251], [26.681457, 47.748098], [26.681139, 47.748233], [26.680843, 47.74831], [26.680235, 47.748739], [26.679095, 47.749327], [26.678821, 47.749628], [26.678707, 47.750027], [26.678448, 47.749945], [26.678122, 47.750267], [26.677875, 47.75021]]]}}, {"type": "Feature", "properties": {"UTR": "9", "tip": "zona_functionala"}, "geometry": {"type": "Polygon", "coordinates": [[[26.67116, 47.753418], [26.671372, 47.753339], [26.671821, 47.753411], [26.672976, 47.75385], [26.673174, 47.75363], [26.673599, 47.753339], [26.674071, 47.753656], [26.674535, 47.753587], [26.674906, 47.753555], [26.676979, 47.752819], [26.67643, 47.752172], [26.676377, 47.751784], [26.675556, 47.75137], [26.67491, 47.750624], [26.675631, 47.750362], [26.676133, 47.750035], [26.676368, 47.749651], [26.676041, 47.749268], [26.677448, 47.747924], [26.676699, 47.747155], [26.676699, 47.747155], [26.676699, 47.747155], [26.676678, 47.747166], [26.672485, 47.749523], [26.671757, 47.749715], [26.671756, 47.749715], [26.668738, 47.751078], [26.668738, 47.751078], [26.669367, 47.751731], [26.669367, 47.751731], [26.669367, 47.751731], [26.67116, 47.753418]]]}}, {"type": "Feature", "properties": {"UTR": "22", "tip": "zona_functionala"}, "geometry": {"type": "Polygon", "coordinates": [[[26.678931, 47.754906], [26.67851, 47.754559], [26.678076, 47.754089], [26.677886, 47.753665], [26.676979, 47.752819], [26.676979, 47.752819], [26.676979, 47.752819], [26.674906, 47.753555], [26.674535, 47.753587], [26.674071, 47.753656], [26.673599, 47.753339], [26.673174, 47.75363], [26.672976, 47.75385], [26.671821, 47.753411], [26.671372, 47.753339], [26.67116, 47.753418], [26.6725, 47.754679], [26.678931, 47.754906]]]}}, {"type": "Feature", "properties": {"UTR": "10", "tip": "zona_functionala"}, "geometry": {"type": "Polygon", "coordinates": [[[26.676368, 47.749651], [26.676368, 47.749651], [26.676997, 47.750004], [26.677875, 47.75021], [26.678122, 47.750267], [26.678448, 47.749945], [26.678707, 47.750027], [26.678821, 47.749628], [26.679095, 47.749327], [26.680235, 47.748739], [26.680843, 47.74831], [26.681139, 47.748233], [26.681457, 47.748098], [26.681457, 47.748098], [26.682791, 47.746603], [26.685802, 47.743911], [26.684702, 47.743417], [26.685818, 47.742483], [26.685815, 47.742346], [26.685154, 47.741779], [26.684704, 47.741496], [26.684622, 47.741629], [26.684622, 47.741629], [26.684185, 47.742198], [26.684185, 47.742198], [26.683221, 47.7437], [26.682509, 47.744464], [26.681086, 47.745227], [26.676699, 47.747155], [26.676699, 47.747155], [26.677448, 47.747924], [26.676041, 47.749268], [26.676368, 47.749651], [26.676368, 47.749651]]]}}, {"type": "Feature", "properties": {"UTR": "60", "tip": "zona_functionala"}, "geometry": {"type": "Polygon", "coordinates": [[[26.668859, 47.734624], [26.668859, 47.734624], [26.668953, 47.732751], [26.67492, 47.72524], [26.677096, 47.723995], [26.677158, 47.723959], [26.68092, 47.721762], [26.684221, 47.718831], [26.684221, 47.718831], [26.684221, 47.718831], [26.683794, 47.7186], [26.682946, 47.718136], [26.681295, 47.717201], [26.679907, 47.716377], [26.678029, 47.715303], [26.676784, 47.714544], [26.676666, 47.71472], [26.676408, 47.714918], [26.67619, 47.715076], [26.675857, 47.715314], [26.675603, 47.715429], [26.675395, 47.715566], [26.675301, 47.715722], [26.675076, 47.716019], [26.674629, 47.716192], [26.673959, 47.716376], [26.673576, 47.716535], [26.673324, 47.716737], [26.67321, 47.716834], [26.672404, 47.717531], [26.671915, 47.717848], [26.671563, 47.718031], [26.670586, 47.718548], [26.670374, 47.718892], [26.670328, 47.719472], [26.67015, 47.719775], [26.669937, 47.720095], [26.669818, 47.72043], [26.66937, 47.720923], [26.669135, 47.721125], [26.668962, 47.721381], [26.668888, 47.721683], [26.668723, 47.722019], [26.668681, 47.72217], [26.668406, 47.722582], [26.668125, 47.722994], [26.667957, 47.72323], [26.667856, 47.722824], [26.667647, 47.722731], [26.667154, 47.722909], [26.666845, 47.723004], [26.666638, 47.723146], [26.666204, 47.723525], [26.665925, 47.723794], [26.665632, 47.724008], [26.665002, 47.72435], [26.664733, 47.724544], [26.66438, 47.724712], [26.664175, 47.724746], [26.663662, 47.724849], [26.663315, 47.725032], [26.66315, 47.725201], [26.663019, 47.725322], [26.662953, 47.725469], [26.662807, 47.725475], [26.662682, 47.725426], [26.662454, 47.725286], [26.662114, 47.725113], [26.661916, 47.724985], [26.661333, 47.72529], [26.660754, 47.725568], [26.660551, 47.72563], [26.660429, 47.725688], [26.660326, 47.725772], [26.660228, 47.725813], [26.660072, 47.725919], [26.660186, 47.72602], [26.660131, 47.726047], [26.661632, 47.727661], [26.661709, 47.731009], [26.661096, 47.733183], [26.661636, 47.732903], [26.662021, 47.732221], [26.662816, 47.731419], [26.663689, 47.731237], [26.665241, 47.73273], [26.666395, 47.733515], [26.66705, 47.733843], [26.66705, 47.733843], [26.668859, 47.734624], [26.668859, 47.734624], [26.668859, 47.734624], [26.668859, 47.734624]]]}}, {"type": "Feature", "properties": {"UTR": "30", "tip": "zona_functionala"}, "geometry": {"type": "Polygon", "coordinates": [[[26.671314, 47.735724], [26.671314, 47.735724], [26.674287, 47.729739], [26.677158, 47.723959], [26.677096, 47.723995], [26.67492, 47.72524], [26.668953, 47.732751], [26.668859, 47.734624], [26.668859, 47.734624], [26.671314, 47.735724], [26.671314, 47.735724]]]}}, {"type": "Feature", "properties": {"UTR": "13", "tip": "zona_functionala"}, "geometry": {"type": "Polygon", "coordinates": [[[26.671314, 47.735724], [26.671314, 47.735724], [26.671314, 47.735724], [26.671314, 47.735724]]]}}, {"type": "Feature", "properties": {"UTR": "29", "tip": "zona_functionala"}, "geometry": {"type": "Polygon", "coordinates": [[[26.672794, 47.736601], [26.673158, 47.735022], [26.678886, 47.73155], [26.677671, 47.731326], [26.676404, 47.731206], [26.676937, 47.730406], [26.674287, 47.729739], [26.671314, 47.735724], [26.671314, 47.735724], [26.672794, 47.736601]]]}}, {"type": "Feature", "properties": {"UTR": "28", "tip": "zona_functionala"}, "geometry": {"type": "Polygon", "coordinates": [[[26.67626, 47.738654], [26.67626, 47.738654], [26.679078, 47.734746], [26.682027, 47.732652], [26.682234, 47.732505], [26.680818, 47.731757], [26.681003, 47.731488], [26.680299, 47.731002], [26.679795, 47.731022], [26.678886, 47.73155], [26.678886, 47.73155], [26.673158, 47.735022], [26.672794, 47.736601], [26.67626, 47.738654], [26.67626, 47.738654]]]}}, {"type": "Feature", "properties": {"UTR": "27", "tip": "zona_functionala"}, "geometry": {"type": "Polygon", "coordinates": [[[26.678999, 47.739747], [26.678999, 47.739747], [26.680388, 47.737978], [26.681514, 47.73733], [26.682865, 47.735824], [26.682954, 47.73554], [26.683354, 47.734837], [26.684344, 47.734015], [26.684621, 47.733925], [26.685266, 47.733581], [26.684397, 47.732905], [26.684138, 47.7329], [26.683827, 47.733074], [26.682485, 47.732825], [26.682027, 47.732652], [26.679078, 47.734746], [26.67626, 47.738654], [26.67626, 47.738654], [26.676567, 47.738835], [26.678999, 47.739747], [26.678999, 47.739747]]]}}, {"type": "Feature", "properties": {"UTR": "11", "tip": "zona_functionala"}, "geometry": {"type": "Polygon", "coordinates": [[[26.678999, 47.739747], [26.678999, 47.739747], [26.678999, 47.739747], [26.678999, 47.739747]]]}}, {"type": "Feature", "properties": {"UTR": "59", "tip": "zona_functionala"}, "geometry": {"type": "Polygon", "coordinates": [[[26.682234, 47.732505], [26.682234, 47.732505], [26.689323, 47.727627], [26.688838, 47.727142], [26.689748, 47.72621], [26.690181, 47.726497], [26.690423, 47.726275], [26.690904, 47.726448], [26.691955, 47.726042], [26.693354, 47.725502], [26.693545, 47.725557], [26.694104, 47.725114], [26.693674, 47.724964], [26.693916, 47.724693], [26.694986, 47.725056], [26.695377, 47.724818], [26.695689, 47.724458], [26.696067, 47.72419], [26.696589, 47.723928], [26.696314, 47.723778], [26.697524, 47.722804], [26.696921, 47.722579], [26.697225, 47.722211], [26.69465, 47.721317], [26.695227, 47.720924], [26.695549, 47.72112], [26.695872, 47.721078], [26.69601, 47.721168], [26.696041, 47.721391], [26.696312, 47.721583], [26.697138, 47.721079], [26.697405, 47.721189], [26.698034, 47.720874], [26.698211, 47.720963], [26.699236, 47.720233], [26.698686, 47.720302], [26.698021, 47.719841], [26.698085, 47.719689], [26.69887, 47.719265], [26.697114, 47.717979], [26.697961, 47.717428], [26.697875, 47.717122], [26.698407, 47.716956], [26.698796, 47.717294], [26.701556, 47.716376], [26.70114, 47.715747], [26.700916, 47.715078], [26.701287, 47.714964], [26.701835, 47.715912], [26.702316, 47.716126], [26.703205, 47.715856], [26.701945, 47.713672], [26.699812, 47.711351], [26.700316, 47.710926], [26.700649, 47.710914], [26.702018, 47.712299], [26.702449, 47.712203], [26.702925, 47.713091], [26.702971, 47.713079], [26.703898, 47.714932], [26.704868, 47.714518], [26.703746, 47.712386], [26.704046, 47.712309], [26.705009, 47.714165], [26.7072, 47.713522], [26.708402, 47.71561], [26.709802, 47.715067], [26.711058, 47.714559], [26.712111, 47.713567], [26.713934, 47.712729], [26.716737, 47.711494], [26.722442, 47.705618], [26.722765, 47.705418], [26.722961, 47.705096], [26.722861, 47.705034], [26.721363, 47.703931], [26.720908, 47.704079], [26.720498, 47.70424], [26.719907, 47.70442], [26.719297, 47.70456], [26.718908, 47.704659], [26.718569, 47.704683], [26.718228, 47.704722], [26.717926, 47.704767], [26.717593, 47.704831], [26.71738, 47.704915], [26.717116, 47.705043], [26.716775, 47.705224], [26.71642, 47.705356], [26.716112, 47.70547], [26.715819, 47.705556], [26.715629, 47.705599], [26.715254, 47.705659], [26.71491, 47.705726], [26.714695, 47.705734], [26.714525, 47.705753], [26.714287, 47.7058], [26.714088, 47.705864], [26.713931, 47.705936], [26.713731, 47.705963], [26.713404, 47.706001], [26.713164, 47.706036], [26.71301, 47.706062], [26.71278, 47.706065], [26.712668, 47.706086], [26.712497, 47.706138], [26.712257, 47.706228], [26.711962, 47.706321], [26.711569, 47.706402], [26.711425, 47.706424], [26.711273, 47.706409], [26.711195, 47.706389], [26.711131, 47.706378], [26.710877, 47.706386], [26.710665, 47.706394], [26.710387, 47.706427], [26.710075, 47.706482], [26.709991, 47.706492], [26.70986, 47.706518], [26.709625, 47.706536], [26.709357, 47.70654], [26.70908, 47.70653], [26.70882, 47.706529], [26.708497, 47.706505], [26.708086, 47.70647], [26.70768, 47.706443], [26.707443, 47.706446], [26.707281, 47.706468], [26.707166, 47.706498], [26.707051, 47.706545], [26.706866, 47.706407], [26.706517, 47.706314], [26.706239, 47.706233], [26.705932, 47.70614], [26.705736, 47.706097], [26.705471, 47.706075], [26.705102, 47.706042], [26.704515, 47.705996], [26.704219, 47.705895], [26.703738, 47.705781], [26.703302, 47.705625], [26.703043, 47.705472], [26.702749, 47.705347], [26.702387, 47.705367], [26.701883, 47.705422], [26.701609, 47.705462], [26.701209, 47.705525], [26.700885, 47.705458], [26.700383, 47.705451], [26.700098, 47.705128], [26.699316, 47.705199], [26.698601, 47.705253], [26.69758, 47.705325], [26.696656, 47.705372], [26.696348, 47.705391], [26.696218, 47.705497], [26.696054, 47.705547], [26.695823, 47.705608], [26.695598, 47.705649], [26.695248, 47.705726], [26.694842, 47.705758], [26.694435, 47.705731], [26.694039, 47.70571], [26.693861, 47.705677], [26.693793, 47.705626], [26.693597, 47.705618], [26.693312, 47.705623], [26.692986, 47.705611], [26.692833, 47.705592], [26.692729, 47.70557], [26.692462, 47.705553], [26.692323, 47.705512], [26.692241, 47.705424], [26.692049, 47.705399], [26.692011, 47.7054], [26.691935, 47.705575], [26.691803, 47.705886], [26.691449, 47.706809], [26.691237, 47.707357], [26.69076, 47.708598], [26.690445, 47.709316], [26.690056, 47.710102], [26.689652, 47.710884], [26.68931, 47.711555], [26.68923, 47.711713], [26.689083, 47.711983], [26.688878, 47.712281], [26.68843, 47.712856], [26.688266, 47.713062], [26.687809, 47.713659], [26.687483, 47.714088], [26.687059, 47.714641], [26.686902, 47.714838], [26.686656, 47.715166], [26.6864, 47.715576], [26.685647, 47.716748], [26.684909, 47.717908], [26.684534, 47.71847], [26.684221, 47.718831], [26.684221, 47.718831], [26.68092, 47.721762], [26.677158, 47.723959], [26.674287, 47.729739], [26.676937, 47.730406], [26.676404, 47.731206], [26.677671, 47.731326], [26.678886, 47.73155], [26.678886, 47.73155], [26.678886, 47.73155], [26.679795, 47.731022], [26.680299, 47.731002], [26.681003, 47.731488], [26.680818, 47.731757], [26.682234, 47.732505], [26.682234, 47.732505]]]}}, {"type": "Feature", "properties": {"UTR": "52", "tip": "zona_functionala"}, "geometry": {"type": "Polygon", "coordinates": [[[26.689323, 47.727627], [26.689323, 47.727627], [26.689952, 47.727968], [26.690885, 47.727535], [26.691611, 47.727067], [26.691775, 47.727221], [26.693101, 47.726581], [26.693233, 47.726767], [26.693955, 47.726468], [26.693837, 47.726254], [26.694884, 47.725878], [26.695163, 47.726338], [26.695488, 47.726179], [26.695444, 47.72609], [26.696062, 47.725921], [26.695835, 47.725591], [26.696612, 47.725239], [26.696836, 47.725475], [26.69831, 47.724748], [26.698621, 47.724864], [26.700177, 47.724102], [26.699808, 47.723665], [26.700748, 47.723074], [26.701644, 47.72292], [26.701775, 47.723139], [26.702109, 47.723038], [26.702443, 47.723499], [26.702946, 47.723341], [26.702524, 47.722786], [26.705107, 47.722626], [26.706158, 47.722286], [26.70712, 47.722074], [26.707801, 47.721737], [26.708115, 47.721938], [26.709011, 47.721605], [26.708667, 47.721349], [26.707782, 47.720353], [26.708775, 47.719835], [26.709284, 47.71869], [26.710039, 47.717668], [26.710527, 47.717207], [26.710645, 47.715251], [26.711058, 47.714559], [26.711058, 47.714559], [26.711058, 47.714559], [26.709802, 47.715067], [26.708402, 47.71561], [26.7072, 47.713522], [26.705009, 47.714165], [26.704046, 47.712309], [26.703746, 47.712386], [26.704868, 47.714518], [26.703898, 47.714932], [26.702971, 47.713079], [26.702925, 47.713091], [26.702449, 47.712203], [26.702018, 47.712299], [26.700649, 47.710914], [26.700316, 47.710926], [26.699812, 47.711351], [26.701945, 47.713672], [26.703205, 47.715856], [26.702316, 47.716126], [26.701835, 47.715912], [26.701287, 47.714964], [26.700916, 47.715078], [26.70114, 47.715747], [26.701556, 47.716376], [26.698796, 47.717294], [26.698407, 47.716956], [26.697875, 47.717122], [26.697961, 47.717428], [26.697114, 47.717979], [26.69887, 47.719265], [26.698085, 47.719689], [26.698021, 47.719841], [26.698686, 47.720302], [26.699236, 47.720233], [26.698211, 47.720963], [26.698034, 47.720874], [26.697405, 47.721189], [26.697138, 47.721079], [26.696312, 47.721583], [26.696041, 47.721391], [26.69601, 47.721168], [26.695872, 47.721078], [26.695549, 47.72112], [26.695227, 47.720924], [26.69465, 47.721317], [26.697225, 47.722211], [26.696921, 47.722579], [26.697524, 47.722804], [26.696314, 47.723778], [26.696589, 47.723928], [26.696067, 47.72419], [26.695689, 47.724458], [26.695377, 47.724818], [26.694986, 47.725056], [26.693916, 47.724693], [26.693674, 47.724964], [26.694104, 47.725114], [26.693545, 47.725557], [26.693354, 47.725502], [26.691955, 47.726042], [26.690904, 47.726448], [26.690423, 47.726275], [26.690181, 47.726497], [26.689748, 47.72621], [26.688838, 47.727142], [26.689323, 47.727627], [26.689323, 47.727627]]]}}, {"type": "Feature", "properties": {"UTR": "25", "tip": "zona_functionala"}, "geometry": {"type": "Polygon", "coordinates": [[[26.687086, 47.738667], [26.687086, 47.738667], [26.687086, 47.738667], [26.687086, 47.738667]]]}}, {"type": "Feature", "properties": {"UTR": "58", "tip": "zona_functionala"}, "geometry": {"type": "Polygon", "coordinates": [[[26.685266, 47.733581], [26.685266, 47.733581], [26.685557, 47.733899], [26.686337, 47.734138], [26.687029, 47.734564], [26.687148, 47.734783], [26.688225, 47.735487], [26.685015, 47.73756], [26.68489, 47.737755], [26.686744, 47.738916], [26.687086, 47.738667], [26.687086, 47.738667], [26.690356, 47.736481], [26.691511, 47.736268], [26.693257, 47.736399], [26.705962, 47.738582], [26.712179, 47.73741], [26.713607, 47.73737], [26.714611, 47.737338], [26.714525, 47.737274], [26.714525, 47.737274], [26.714877, 47.737228], [26.715442, 47.737125], [26.716208, 47.73697], [26.717292, 47.736745], [26.717682, 47.736661], [26.718397, 47.736516], [26.718326, 47.735733], [26.718291, 47.735423], [26.718214, 47.735222], [26.718122, 47.73499], [26.718005, 47.734763], [26.718018, 47.734612], [26.717961, 47.734373], [26.71788, 47.734145], [26.717753, 47.733858], [26.717632, 47.73351], [26.717611, 47.73341], [26.717634, 47.733355], [26.71771, 47.733285], [26.717774, 47.733193], [26.717777, 47.733055], [26.71779, 47.732923], [26.717813, 47.732759], [26.717825, 47.732672], [26.717773, 47.732507], [26.717731, 47.732324], [26.717652, 47.732146], [26.717569, 47.732116], [26.717491, 47.731888], [26.717503, 47.731819], [26.717453, 47.731689], [26.717382, 47.731547], [26.717339, 47.731419], [26.717333, 47.73135], [26.717403, 47.731237], [26.717476, 47.730985], [26.717637, 47.730726], [26.717757, 47.730595], [26.717815, 47.730523], [26.717833, 47.730442], [26.717857, 47.730286], [26.717881, 47.730155], [26.717915, 47.730009], [26.717947, 47.729913], [26.718012, 47.72985], [26.718108, 47.729775], [26.718191, 47.729712], [26.718221, 47.729676], [26.718189, 47.729647], [26.718003, 47.729586], [26.717896, 47.729538], [26.717808, 47.729453], [26.717788, 47.729365], [26.717764, 47.72927], [26.717683, 47.729188], [26.717606, 47.729119], [26.717506, 47.729073], [26.717493, 47.729007], [26.717564, 47.728894], [26.717704, 47.728727], [26.717862, 47.728606], [26.717939, 47.72859], [26.71811, 47.728531], [26.718319, 47.728413], [26.718609, 47.728225], [26.719369, 47.727787], [26.719503, 47.727676], [26.719542, 47.727568], [26.71957, 47.72747], [26.719778, 47.72734], [26.720027, 47.727165], [26.720113, 47.727104], [26.720209, 47.727114], [26.72104, 47.727484], [26.721119, 47.727497], [26.721182, 47.727486], [26.721386, 47.727233], [26.721695, 47.726947], [26.721854, 47.726752], [26.721891, 47.726687], [26.721863, 47.726492], [26.721875, 47.726413], [26.721947, 47.726343], [26.722016, 47.726196], [26.722116, 47.726124], [26.722227, 47.726048], [26.722316, 47.725973], [26.722777, 47.72635], [26.723002, 47.726518], [26.723214, 47.726651], [26.723336, 47.726721], [26.72494, 47.727586], [26.725176, 47.727778], [26.725362, 47.727944], [26.725533, 47.727897], [26.725774, 47.727823], [26.726156, 47.727713], [26.726339, 47.727682], [26.726547, 47.727676], [26.726813, 47.727699], [26.72722, 47.727721], [26.727447, 47.727768], [26.727481, 47.727727], [26.727051, 47.727519], [26.727572, 47.72744], [26.727853, 47.727426], [26.72865, 47.727166], [26.728847, 47.72712], [26.728977, 47.726989], [26.729087, 47.726926], [26.729177, 47.726848], [26.729392, 47.726731], [26.729512, 47.726734], [26.729723, 47.726693], [26.72992, 47.726661], [26.730229, 47.726623], [26.73039, 47.726573], [26.731012, 47.726368], [26.732767, 47.725775], [26.733207, 47.725644], [26.734401, 47.725316], [26.735975, 47.724821], [26.737474, 47.724334], [26.737591, 47.724232], [26.737726, 47.724039], [26.738095, 47.723555], [26.738259, 47.7234], [26.738429, 47.723287], [26.738546, 47.723171], [26.738622, 47.723018], [26.738765, 47.722865], [26.738918, 47.722708], [26.738983, 47.722629], [26.739059, 47.722489], [26.739165, 47.722259], [26.739303, 47.721833], [26.739432, 47.721561], [26.739538, 47.721481], [26.739811, 47.721269], [26.740012, 47.721161], [26.740739, 47.720939], [26.740776, 47.720885], [26.740875, 47.72076], [26.740902, 47.720719], [26.741028, 47.720481], [26.741133, 47.720346], [26.741232, 47.720235], [26.741336, 47.720088], [26.741501, 47.719905], [26.741627, 47.719793], [26.741783, 47.719708], [26.74188, 47.719636], [26.742046, 47.719525], [26.742147, 47.719466], [26.741836, 47.719049], [26.742592, 47.718715], [26.742964, 47.718548], [26.742389, 47.717827], [26.741066, 47.716245], [26.740675, 47.715748], [26.740163, 47.715103], [26.739735, 47.714539], [26.739121, 47.7138], [26.737783, 47.712216], [26.736623, 47.710758], [26.735373, 47.709168], [26.735006, 47.708754], [26.734767, 47.708542], [26.734677, 47.708615], [26.734579, 47.708638], [26.734395, 47.708629], [26.734327, 47.708589], [26.734285, 47.708502], [26.734235, 47.708481], [26.734047, 47.709325], [26.733957, 47.709811], [26.733759, 47.710567], [26.733637, 47.711126], [26.732778, 47.711251], [26.732067, 47.710559], [26.731843, 47.7107], [26.731431, 47.710973], [26.730872, 47.711375], [26.730436, 47.711644], [26.73035, 47.711502], [26.73016, 47.710857], [26.730376, 47.710681], [26.729984, 47.71033], [26.729328, 47.709829], [26.7284, 47.709097], [26.726907, 47.707937], [26.725965, 47.707217], [26.724548, 47.706199], [26.723185, 47.705232], [26.722961, 47.705096], [26.722765, 47.705418], [26.722442, 47.705618], [26.716737, 47.711494], [26.713934, 47.712729], [26.712111, 47.713567], [26.711058, 47.714559], [26.711058, 47.714559], [26.710645, 47.715251], [26.710527, 47.717207], [26.710039, 47.717668], [26.709284, 47.71869], [26.708775, 47.719835], [26.707782, 47.720353], [26.708667, 47.721349], [26.709011, 47.721605], [26.708115, 47.721938], [26.707801, 47.721737], [26.70712, 47.722074], [26.706158, 47.722286], [26.705107, 47.722626], [26.702524, 47.722786], [26.702946, 47.723341], [26.702443, 47.723499], [26.702109, 47.723038], [26.701775, 47.723139], [26.701644, 47.72292], [26.700748, 47.723074], [26.699808, 47.723665], [26.700177, 47.724102], [26.698621, 47.724864], [26.69831, 47.724748], [26.696836, 47.725475], [26.696612, 47.725239], [26.695835, 47.725591], [26.696062, 47.725921], [26.695444, 47.72609], [26.695488, 47.726179], [26.695163, 47.726338], [26.694884, 47.725878], [26.693837, 47.726254], [26.693955, 47.726468], [26.693233, 47.726767], [26.693101, 47.726581], [26.691775, 47.727221], [26.691611, 47.727067], [26.690885, 47.727535], [26.689952, 47.727968], [26.689323, 47.727627], [26.689323, 47.727627], [26.682234, 47.732505], [26.682234, 47.732505], [26.682027, 47.732652], [26.682485, 47.732825], [26.683827, 47.733074], [26.684138, 47.7329], [26.684397, 47.732905], [26.685266, 47.733581]]]}}, {"type": "Feature", "properties": {"UTR": "28", "tip": "zona_functionala"}, "geometry": {"type": "Polygon", "coordinates": [[[26.686744, 47.738916], [26.68489, 47.737755], [26.685015, 47.73756], [26.688225, 47.735487], [26.687148, 47.734783], [26.687029, 47.734564], [26.686337, 47.734138], [26.685557, 47.733899], [26.685266, 47.733581], [26.685266, 47.733581], [26.685266, 47.733581], [26.685266, 47.733581], [26.684621, 47.733925], [26.684344, 47.734015], [26.683354, 47.734837], [26.682954, 47.73554], [26.682865, 47.735824], [26.681514, 47.73733], [26.680388, 47.737978], [26.678999, 47.739747], [26.678999, 47.739747], [26.67958, 47.739964], [26.683172, 47.740818], [26.684622, 47.741629], [26.684622, 47.741629], [26.684622, 47.741629], [26.684704, 47.741496], [26.685953, 47.73949], [26.686744, 47.738916]]]}}, {"type": "Feature", "properties": {"UTR": "32", "tip": "zona_functionala"}, "geometry": {"type": "Polygon", "coordinates": [[[26.686094, 47.758191], [26.686094, 47.758191], [26.686094, 47.758191], [26.686298, 47.75787], [26.686263, 47.757778], [26.686002, 47.757701], [26.68574, 47.757048], [26.685749, 47.756657], [26.685585, 47.756539], [26.685702, 47.756358], [26.685556, 47.756082], [26.685152, 47.755925], [26.684947, 47.755764], [26.684291, 47.755645], [26.684127, 47.755657], [26.683623, 47.755504], [26.683366, 47.755346], [26.682686, 47.755527], [26.682335, 47.755638], [26.682183, 47.755858], [26.682048, 47.755897], [26.681059, 47.755905], [26.680824, 47.755787], [26.680684, 47.755771], [26.680408, 47.755796], [26.680408, 47.755796], [26.681634, 47.756776], [26.686094, 47.758191], [26.686094, 47.758191]]]}}, {"type": "Feature", "properties": {"UTR": "48", "tip": "zona_functionala"}, "geometry": {"type": "Polygon", "coordinates": [[[26.691171, 47.757713], [26.690537, 47.757711], [26.686927, 47.758357], [26.686222, 47.758217], [26.686094, 47.758191], [26.686094, 47.758191], [26.686094, 47.758191], [26.685499, 47.759064], [26.685499, 47.759064], [26.68564, 47.759165], [26.685872, 47.759343], [26.686077, 47.759459], [26.686231, 47.759526], [26.686516, 47.759576], [26.686858, 47.75966], [26.687137, 47.759644], [26.68759, 47.759685], [26.687997, 47.759701], [26.68821, 47.759695], [26.688454, 47.75972], [26.68864, 47.759701], [26.688959, 47.759715], [26.689823, 47.75975], [26.690531, 47.759766], [26.690791, 47.759743], [26.690948, 47.759679], [26.6911, 47.759556], [26.691557, 47.759153], [26.69221, 47.758564], [26.692676, 47.758214], [26.692913, 47.758082], [26.69254, 47.757834], [26.691171, 47.757713]]]}}, {"type": "Feature", "properties": {"UTR": "32", "tip": "zona_functionala"}, "geometry": {"type": "Polygon", "coordinates": [[[26.686094, 47.758191], [26.686094, 47.758191], [26.686094, 47.758191], [26.686094, 47.758191]]]}}, {"type": "Feature", "properties": {"UTR": "38", "tip": "zona_functionala"}, "geometry": {"type": "Polygon", "coordinates": [[[26.686222, 47.758217], [26.686431, 47.757763], [26.686148, 47.757074], [26.686929, 47.756429], [26.686817, 47.75611], [26.687098, 47.755899], [26.687459, 47.755066], [26.687239, 47.754635], [26.686264, 47.754729], [26.683295, 47.753944], [26.682672, 47.754027], [26.68037, 47.754021], [26.68, 47.753984], [26.679712, 47.753956], [26.679404, 47.754352], [26.679527, 47.754877], [26.679415, 47.755002], [26.680408, 47.755796], [26.680408, 47.755796], [26.680408, 47.755796], [26.680684, 47.755771], [26.680824, 47.755787], [26.681059, 47.755905], [26.682048, 47.755897], [26.682183, 47.755858], [26.682335, 47.755638], [26.682686, 47.755527], [26.683366, 47.755346], [26.683623, 47.755504], [26.684127, 47.755657], [26.684291, 47.755645], [26.684947, 47.755764], [26.685152, 47.755925], [26.685556, 47.756082], [26.685702, 47.756358], [26.685585, 47.756539], [26.685749, 47.756657], [26.68574, 47.757048], [26.686002, 47.757701], [26.686263, 47.757778], [26.686298, 47.75787], [26.686094, 47.758191], [26.686094, 47.758191], [26.686094, 47.758191], [26.686222, 47.758217]]]}}, {"type": "Feature", "properties": {"UTR": "23", "tip": "zona_functionala"}, "geometry": {"type": "Polygon", "coordinates": [[[26.68, 47.753984], [26.68022, 47.753744], [26.679881, 47.753394], [26.679623, 47.753327], [26.679559, 47.753122], [26.679313, 47.752721], [26.678446, 47.75276], [26.678575, 47.752433], [26.678545, 47.752197], [26.678376, 47.752197], [26.678065, 47.751949], [26.677077, 47.750929], [26.677525, 47.75071], [26.677875, 47.75021], [26.676997, 47.750004], [26.676368, 47.749651], [26.676368, 47.749651], [26.676133, 47.750035], [26.675631, 47.750362], [26.67491, 47.750624], [26.675556, 47.75137], [26.676377, 47.751784], [26.67643, 47.752172], [26.676979, 47.752819], [26.676979, 47.752819], [26.677886, 47.753665], [26.678076, 47.754089], [26.67851, 47.754559], [26.678931, 47.754906], [26.679311, 47.754919], [26.679415, 47.755002], [26.679527, 47.754877], [26.679404, 47.754352], [26.679712, 47.753956], [26.68, 47.753984]]]}}]}