{"type":"FeatureCollection","features":[{"type":"Feature","properties":{"utr":"Manolești — L","cod":"L","ZONA":"L","denumire":"Manolești — L","functiune":"Locuințe și funcțiuni complementare","sat":"Manolești","utr_id":"UTR-5","tip":"intravilan_propus_2020"},"geometry":{"type":"Polygon","coordinates":[[[26.518621,47.789007],[26.519951,47.789682],[26.520577,47.789159],[26.52149,47.789603],[26.52222,47.789981],[26.522671,47.7902],[26.524036,47.789199],[26.525919,47.7877],[26.518621,47.789007]]]}},{"type":"Feature","properties":{"utr":"Cervicești — L","cod":"L","ZONA":"L","denumire":"Cervicești — L","functiune":"Locuințe și funcțiuni complementare","sat":"Cervicești","utr_id":"UTR-4","tip":"intravilan_propus_2020"},"geometry":{"type":"Polygon","coordinates":[[[26.578536,47.747251],[26.57826,47.747596],[26.578056,47.748037],[26.578006,47.748388],[26.57768,47.748758],[26.577685,47.74901],[26.577658,47.749061],[26.578131,47.749367],[26.577981,47.749604],[26.5777,47.749966],[26.577265,47.75053],[26.577445,47.750631],[26.57725,47.750995],[26.577357,47.751037],[26.577262,47.75116],[26.576864,47.751543],[26.576297,47.752003],[26.575673,47.752542],[26.575453,47.752754],[26.575216,47.752966],[26.575258,47.752983],[26.575077,47.753093],[26.575034,47.753083],[26.574849,47.753273],[26.574773,47.753255],[26.574655,47.753469],[26.574726,47.753492],[26.574548,47.753647],[26.574329,47.753875],[26.578536,47.747251]]]}},{"type":"Feature","properties":{"utr":"Stâncești — L","cod":"L","ZONA":"L","denumire":"Stâncești — L","functiune":"Locuințe și funcțiuni complementare","sat":"Stâncești","utr_id":"UTR-2a","tip":"intravilan_propus_2020"},"geometry":{"type":"Polygon","coordinates":[[[26.57873,47.78124],[26.579844,47.781936],[26.580329,47.78226],[26.580673,47.782505],[26.58074,47.782589],[26.580753,47.78265],[26.580733,47.78271],[26.580593,47.782853],[26.580088,47.783237],[26.579854,47.783386],[26.579697,47.783523],[26.581656,47.783813],[26.581742,47.783654],[26.581641,47.783574],[26.581629,47.783414],[26.581756,47.783271],[26.581827,47.783167],[26.581916,47.783038],[26.582024,47.782906],[26.582142,47.782752],[26.582325,47.782492],[26.582483,47.782278],[26.582614,47.782098],[26.582764,47.781926],[26.582847,47.781842],[26.583019,47.781621],[26.583315,47.781353],[26.583451,47.781231],[26.583613,47.781078],[26.583755,47.780925],[26.583906,47.780699],[26.584002,47.78054],[26.57873,47.78124]]]}},{"type":"Feature","properties":{"utr":"Cervicești — L","cod":"L","ZONA":"L","denumire":"Cervicești — L","functiune":"Locuințe și funcțiuni complementare","sat":"Cervicești","utr_id":"UTR-4","tip":"intravilan_propus_2020"},"geometry":{"type":"Polygon","coordinates":[[[26.564001,47.732162],[26.564291,47.732348],[26.564442,47.732458],[26.564575,47.732536],[26.56499,47.732741],[26.565122,47.732662],[26.565255,47.732583],[26.565497,47.732467],[26.565634,47.732422],[26.565902,47.732333],[26.566044,47.732266],[26.566111,47.732233],[26.566544,47.731881],[26.566805,47.732004],[26.567335,47.731776],[26.567818,47.731478],[26.567897,47.73143],[26.568271,47.731199],[26.568941,47.730762],[26.569238,47.730521],[26.569208,47.730333],[26.564001,47.732162]]]}},{"type":"Feature","properties":{"utr":"Manolești — L","cod":"L","ZONA":"L","denumire":"Manolești — L","functiune":"Locuințe și funcțiuni complementare","sat":"Manolești","utr_id":"UTR-5","tip":"intravilan_propus_2020"},"geometry":{"type":"Polygon","coordinates":[[[26.530961,47.771404],[26.53151,47.771039],[26.532366,47.770399],[26.534821,47.771021],[26.535148,47.770909],[26.535162,47.77051],[26.535985,47.769644],[26.536338,47.769369],[26.536988,47.768636],[26.537456,47.768191],[26.530961,47.771404]]]}},{"type":"Feature","properties":{"utr":"Cucorăni — L","cod":"L","ZONA":"L","denumire":"Cucorăni — L","functiune":"Locuințe și funcțiuni complementare","sat":"Cucorăni","utr_id":"UTR-6a","tip":"intravilan_propus_2020"},"geometry":{"type":"Polygon","coordinates":[[[26.605517,47.781586],[26.605608,47.781713],[26.605677,47.781739],[26.605798,47.781755],[26.610342,47.781833],[26.611093,47.781867],[26.614886,47.780276],[26.605517,47.781586]]]}},{"type":"Feature","properties":{"utr":"Cătămărești-Deal — L","cod":"L","ZONA":"L","denumire":"Cătămărești-Deal — L","functiune":"Locuințe și funcțiuni complementare","sat":"Cătămărești-Deal","utr_id":"UTR-8a","tip":"intravilan_propus_2020"},"geometry":{"type":"Polygon","coordinates":[[[26.612869,47.763375],[26.612288,47.763649],[26.612165,47.763716],[26.612709,47.764558],[26.613833,47.764112],[26.614051,47.76432],[26.61642,47.763265],[26.61683,47.763669],[26.616615,47.763762],[26.617317,47.764456],[26.616302,47.764906],[26.617714,47.766215],[26.616433,47.766821],[26.616908,47.767391],[26.617429,47.767991],[26.61753,47.768123],[26.622976,47.765406],[26.625927,47.763939],[26.627411,47.763102],[26.627758,47.762898],[26.628856,47.762341],[26.629211,47.762655],[26.629313,47.762813],[26.629487,47.762997],[26.629584,47.763152],[26.612869,47.763375]]]}},{"type":"Feature","properties":{"utr":"Cătămărești-Deal — L","cod":"L","ZONA":"L","denumire":"Cătămărești-Deal — L","functiune":"Locuințe și funcțiuni complementare","sat":"Cătămărești-Deal","utr_id":"UTR-8a","tip":"intravilan_propus_2020"},"geometry":{"type":"Polygon","coordinates":[[[26.621722,47.757133],[26.622038,47.757631],[26.621314,47.757917],[26.620546,47.758164],[26.621688,47.759533],[26.619499,47.760433],[26.617995,47.758748],[26.614839,47.760126],[26.615818,47.7612],[26.614226,47.761956],[26.614264,47.76201],[26.621722,47.757133]]]}},{"type":"Feature","properties":{"utr":"Baișa — L","cod":"L","ZONA":"L","denumire":"Baișa — L","functiune":"Locuințe și funcțiuni complementare","sat":"Baișa","utr_id":"UTR-7","tip":"intravilan_propus_2020"},"geometry":{"type":"Polygon","coordinates":[[[26.513959,47.775413],[26.513484,47.775892],[26.513089,47.775583],[26.51291,47.775452],[26.512301,47.775064],[26.512151,47.774926],[26.512087,47.774848],[26.512035,47.774727],[26.512009,47.774566],[26.512005,47.774352],[26.512086,47.773909],[26.511974,47.773572],[26.511961,47.773523],[26.511312,47.772561],[26.511465,47.772512],[26.511265,47.772211],[26.512017,47.771982],[26.511265,47.770905],[26.509474,47.771478],[26.509388,47.771409],[26.508932,47.770802],[26.507113,47.771415],[26.507119,47.771427],[26.50702,47.771456],[26.506605,47.771537],[26.506524,47.771529],[26.505671,47.77203],[26.504811,47.772549],[26.504969,47.772869],[26.505211,47.773496],[26.506918,47.773195],[26.507083,47.773315],[26.50706,47.773335],[26.506923,47.774007],[26.506971,47.774088],[26.508116,47.774228],[26.510677,47.774809],[26.510914,47.774773],[26.511487,47.774828],[26.511922,47.774897],[26.513959,47.775413]]]}},{"type":"Feature","properties":{"utr":"Cătămărești — L","cod":"L","ZONA":"L","denumire":"Cătămărești — L","functiune":"Locuințe și funcțiuni complementare","sat":"Cătămărești","utr_id":"UTR-3a","tip":"intravilan_propus_2020"},"geometry":{"type":"Polygon","coordinates":[[[26.558138,47.731963],[26.558321,47.731784],[26.558559,47.731581],[26.558799,47.73136],[26.559064,47.73118],[26.559223,47.73107],[26.559497,47.730876],[26.559694,47.73074],[26.559841,47.730632],[26.560165,47.730401],[26.560316,47.730291],[26.560984,47.729829],[26.561176,47.729709],[26.561419,47.729569],[26.561671,47.729437],[26.561464,47.729299],[26.561176,47.729125],[26.56065,47.728811],[26.559144,47.727892],[26.556223,47.726119],[26.556365,47.726012],[26.556583,47.72585],[26.556722,47.725748],[26.556803,47.725682],[26.556943,47.725594],[26.557038,47.725544],[26.557278,47.725405],[26.557541,47.725247],[26.557803,47.7251],[26.557954,47.724997],[26.558138,47.724851],[26.558138,47.731963]]]}},{"type":"Feature","properties":{"utr":"Cervicești — L","cod":"L","ZONA":"L","denumire":"Cervicești — L","functiune":"Locuințe și funcțiuni complementare","sat":"Cervicești","utr_id":"UTR-4","tip":"intravilan_propus_2020"},"geometry":{"type":"Polygon","coordinates":[[[26.594789,47.723793],[26.595066,47.723897],[26.59547,47.724047],[26.596113,47.72429],[26.596696,47.724517],[26.597284,47.724692],[26.598,47.724893],[26.598207,47.724945],[26.598763,47.725148],[26.599105,47.725336],[26.599625,47.725778],[26.599993,47.726107],[26.60016,47.726275],[26.600472,47.726565],[26.601709,47.727689],[26.601883,47.72785],[26.602482,47.728402],[26.602681,47.728582],[26.603646,47.729458],[26.603869,47.729652],[26.604049,47.72982],[26.604317,47.730025],[26.604639,47.730255],[26.605056,47.730547],[26.594789,47.723793]]]}},{"type":"Feature","properties":{"utr":"Cătămărești-Deal — L","cod":"L","ZONA":"L","denumire":"Cătămărești-Deal — L","functiune":"Locuințe și funcțiuni complementare","sat":"Cătămărești-Deal","utr_id":"UTR-8a","tip":"intravilan_propus_2020"},"geometry":{"type":"Polygon","coordinates":[[[26.60694,47.761014],[26.612856,47.761549],[26.612661,47.761119],[26.612573,47.760695],[26.612672,47.760604],[26.612966,47.760306],[26.613389,47.760092],[26.60694,47.761014]]]}},{"type":"Feature","properties":{"utr":"Cătămărești-Deal — L","cod":"L","ZONA":"L","denumire":"Cătămărești-Deal — L","functiune":"Locuințe și funcțiuni complementare","sat":"Cătămărești-Deal","utr_id":"UTR-8a","tip":"intravilan_propus_2020"},"geometry":{"type":"Polygon","coordinates":[[[26.637438,47.763572],[26.63756,47.76351],[26.637637,47.763491],[26.637749,47.763447],[26.637887,47.763389],[26.638272,47.763149],[26.638515,47.762981],[26.638731,47.762839],[26.638773,47.762948],[26.638941,47.763846],[26.639083,47.764512],[26.640467,47.767368],[26.640609,47.767562],[26.640691,47.767714],[26.640718,47.767811],[26.640783,47.767879],[26.640893,47.767982],[26.637438,47.763572]]]}},{"type":"Feature","properties":{"utr":"Manolești — L","cod":"L","ZONA":"L","denumire":"Manolești — L","functiune":"Locuințe și funcțiuni complementare","sat":"Manolești","utr_id":"UTR-5","tip":"intravilan_propus_2020"},"geometry":{"type":"Polygon","coordinates":[[[26.531801,47.777412],[26.532071,47.777024],[26.532243,47.776772],[26.53246,47.776443],[26.532748,47.775918],[26.532801,47.775663],[26.532689,47.775511],[26.53245,47.775344],[26.531991,47.775128],[26.531508,47.774925],[26.531152,47.774761],[26.53103,47.7747],[26.530611,47.774495],[26.529594,47.774011],[26.529228,47.77383],[26.528612,47.773661],[26.527745,47.773129],[26.531801,47.777412]]]}},{"type":"Feature","properties":{"utr":"Cătămărești-Deal — L","cod":"L","ZONA":"L","denumire":"Cătămărești-Deal — L","functiune":"Locuințe și funcțiuni complementare","sat":"Cătămărești-Deal","utr_id":"UTR-8a","tip":"intravilan_propus_2020"},"geometry":{"type":"Polygon","coordinates":[[[26.608708,47.776485],[26.609163,47.775901],[26.610923,47.773351],[26.611478,47.772551],[26.61222,47.771716],[26.612852,47.771103],[26.613134,47.77085],[26.612766,47.770581],[26.612419,47.770893],[26.611771,47.771521],[26.611006,47.772382],[26.610738,47.772768],[26.60868,47.775724],[26.608708,47.776485]]]}}]}