{"type":"FeatureCollection","name":"zona_532_956","features":[{"type":"Feature","properties":{"nr":null},"geometry":{"type":"Polygon","coordinates":[[[26.647055,47.796786],[26.647048,47.796638],[26.646996,47.796666],[26.647001,47.796786],[26.646961,47.797574],[26.647033,47.797763],[26.647039,47.797807],[26.647011,47.79821],[26.646993,47.79826],[26.646935,47.798626],[26.647026,47.799174],[26.647004,47.799239],[26.646978,47.799284],[26.646978,47.799563],[26.646937,47.801311],[26.646991,47.801293],[26.647031,47.799571],[26.647031,47.799302],[26.64708,47.799175],[26.64699,47.798638],[26.647004,47.798508],[26.647046,47.798266],[26.647064,47.798215],[26.647093,47.797806],[26.647085,47.797757],[26.647015,47.79757],[26.647055,47.796786]]]}},{"type":"Feature","properties":{"nr":null},"geometry":{"type":"Polygon","coordinates":[[[26.646991,47.801293],[26.647833,47.801176],[26.647354,47.799515],[26.647031,47.799571],[26.646991,47.801293]]]}},{"type":"Feature","properties":{"nr":null},"geometry":{"type":"Polygon","coordinates":[[[26.647833,47.801176],[26.649544,47.800938],[26.649047,47.799223],[26.647354,47.799515],[26.647833,47.801176]]]}},{"type":"Feature","properties":{"nr":null},"geometry":{"type":"Polygon","coordinates":[[[26.649047,47.799223],[26.649544,47.800938],[26.650159,47.800852],[26.649656,47.799118],[26.649047,47.799223]]]}},{"type":"Feature","properties":{"nr":null},"geometry":{"type":"Polygon","coordinates":[[[26.642642,47.803008],[26.641589,47.800219],[26.641263,47.800289],[26.641552,47.800903],[26.642292,47.803094],[26.642642,47.803008]]]}},{"type":"Feature","properties":{"nr":null},"geometry":{"type":"Polygon","coordinates":[[[26.646937,47.801311],[26.646978,47.799563],[26.646978,47.799284],[26.647004,47.799239],[26.647026,47.799174],[26.646982,47.798905],[26.646062,47.799117],[26.646295,47.799747],[26.643505,47.800491],[26.643224,47.799746],[26.642854,47.799587],[26.642722,47.799541],[26.642599,47.799505],[26.642506,47.799487],[26.642299,47.799483],[26.641954,47.799563],[26.641296,47.799612],[26.64119,47.799667],[26.641081,47.799741],[26.641263,47.800289],[26.641589,47.800219],[26.642642,47.803008],[26.642776,47.802956],[26.643057,47.802882],[26.643305,47.80284],[26.643448,47.802774],[26.643532,47.802748],[26.644244,47.802447],[26.643569,47.800659],[26.64485,47.800317],[26.645461,47.801934],[26.646937,47.801311]]]}},{"type":"Feature","properties":{"nr":null},"geometry":{"type":"Polygon","coordinates":[[[26.644244,47.802447],[26.645461,47.801934],[26.64485,47.800317],[26.643569,47.800659],[26.644244,47.802447]]]}},{"type":"Feature","properties":{"nr":null},"geometry":{"type":"Polygon","coordinates":[[[26.646982,47.798905],[26.646935,47.798626],[26.646951,47.798504],[26.646993,47.79826],[26.647011,47.79821],[26.647037,47.79779],[26.645835,47.798096],[26.645541,47.798337],[26.645411,47.798429],[26.645135,47.798601],[26.644946,47.798703],[26.64475,47.798794],[26.644689,47.798836],[26.644546,47.798973],[26.64429,47.799256],[26.644216,47.799345],[26.644007,47.799646],[26.643895,47.799719],[26.643659,47.799786],[26.643477,47.799812],[26.64334,47.799796],[26.643224,47.799746],[26.643505,47.800491],[26.646295,47.799747],[26.646062,47.799117],[26.646982,47.798905]]]}},{"type":"Feature","properties":{"nr":null},"geometry":{"type":"Polygon","coordinates":[[[26.641543,47.799813],[26.641279,47.799907],[26.641365,47.800018],[26.64163,47.799923],[26.641543,47.799813]]]}},{"type":"Feature","properties":{"nr":null},"geometry":{"type":"Polygon","coordinates":[[[26.64213,47.79995],[26.642008,47.799984],[26.642198,47.800297],[26.642417,47.800236],[26.642384,47.800182],[26.642287,47.800209],[26.64213,47.79995]]]}},{"type":"Feature","properties":{"nr":null},"geometry":{"type":"Polygon","coordinates":[[[26.637438,47.801066],[26.637001,47.799823],[26.63686,47.799876],[26.637294,47.801113],[26.637438,47.801066]]]}},{"type":"Feature","properties":{"nr":null},"geometry":{"type":"Polygon","coordinates":[[[26.637246,47.801128],[26.636812,47.799894],[26.636762,47.799912],[26.637195,47.801145],[26.637246,47.801128]]]}},{"type":"Feature","properties":{"nr":null},"geometry":{"type":"Polygon","coordinates":[[[26.633615,47.80252],[26.63315,47.801241],[26.633022,47.801289],[26.633493,47.802588],[26.633615,47.80252]]]}},{"type":"Feature","properties":{"nr":null},"geometry":{"type":"Polygon","coordinates":[[[26.631394,47.803762],[26.630634,47.802143],[26.630561,47.80217],[26.631325,47.8038],[26.631394,47.803762]]]}},{"type":"Feature","properties":{"nr":null},"geometry":{"type":"Polygon","coordinates":[[[26.631325,47.8038],[26.630561,47.80217],[26.630454,47.802208],[26.631227,47.803855],[26.631325,47.8038]]]}},{"type":"Feature","properties":{"nr":null},"geometry":{"type":"Polygon","coordinates":[[[26.630977,47.803995],[26.630185,47.802306],[26.630134,47.802326],[26.63093,47.804021],[26.630977,47.803995]]]}},{"type":"Feature","properties":{"nr":null},"geometry":{"type":"Polygon","coordinates":[[[26.631966,47.801499],[26.630096,47.797513],[26.62975,47.797695],[26.629392,47.797809],[26.63059,47.800364],[26.631119,47.800251],[26.631743,47.801581],[26.631966,47.801499]]]}},{"type":"Feature","properties":{"nr":null},"geometry":{"type":"Polygon","coordinates":[[[26.629955,47.80224],[26.628114,47.798315],[26.628033,47.798347],[26.629873,47.80227],[26.629955,47.80224]]]}},{"type":"Feature","properties":{"nr":null},"geometry":{"type":"Polygon","coordinates":[[[26.630286,47.802118],[26.628442,47.798185],[26.628397,47.798203],[26.630241,47.802135],[26.630286,47.802118]]]}},{"type":"Feature","properties":{"nr":null},"geometry":{"type":"Polygon","coordinates":[[[26.630241,47.802135],[26.628397,47.798203],[26.628281,47.798249],[26.630124,47.802177],[26.630241,47.802135]]]}},{"type":"Feature","properties":{"nr":null},"geometry":{"type":"Polygon","coordinates":[[[26.630393,47.802079],[26.628547,47.798144],[26.628442,47.798185],[26.630286,47.802118],[26.630393,47.802079]]]}},{"type":"Feature","properties":{"nr":null},"geometry":{"type":"Polygon","coordinates":[[[26.632119,47.801443],[26.630234,47.797423],[26.630096,47.797513],[26.631966,47.801499],[26.632119,47.801443]]]}},{"type":"Feature","properties":{"nr":null},"geometry":{"type":"Polygon","coordinates":[[[26.632417,47.801333],[26.630501,47.797248],[26.630234,47.797423],[26.632119,47.801443],[26.632417,47.801333]]]}},{"type":"Feature","properties":{"nr":null},"geometry":{"type":"Polygon","coordinates":[[[26.634025,47.800741],[26.632323,47.796053],[26.631927,47.796318],[26.633591,47.800901],[26.634025,47.800741]]]}},{"type":"Feature","properties":{"nr":null},"geometry":{"type":"Polygon","coordinates":[[[26.630573,47.802012],[26.628725,47.798073],[26.628653,47.798102],[26.630499,47.802039],[26.630573,47.802012]]]}},{"type":"Feature","properties":{"nr":null},"geometry":{"type":"Polygon","coordinates":[[[26.632545,47.801286],[26.630616,47.797174],[26.630501,47.797248],[26.632417,47.801333],[26.632545,47.801286]]]}},{"type":"Feature","properties":{"nr":null},"geometry":{"type":"Polygon","coordinates":[[[26.632798,47.801193],[26.6312,47.796792],[26.630616,47.797174],[26.632545,47.801286],[26.632798,47.801193]]]}},{"type":"Feature","properties":{"nr":null},"geometry":{"type":"Polygon","coordinates":[[[26.633093,47.801084],[26.631471,47.796616],[26.631353,47.796693],[26.632964,47.801131],[26.633093,47.801084]]]}},{"type":"Feature","properties":{"nr":null},"geometry":{"type":"Polygon","coordinates":[[[26.632964,47.801131],[26.631353,47.796693],[26.6312,47.796792],[26.632798,47.801193],[26.632964,47.801131]]]}},{"type":"Feature","properties":{"nr":null},"geometry":{"type":"Polygon","coordinates":[[[26.633029,47.800907],[26.633154,47.80086],[26.631586,47.796541],[26.631471,47.796616],[26.633029,47.800907]]]}},{"type":"Feature","properties":{"nr":null},"geometry":{"type":"Polygon","coordinates":[[[26.621495,47.803711],[26.621479,47.803643],[26.621482,47.803504],[26.621783,47.80328],[26.621976,47.802732],[26.622076,47.801721],[26.621856,47.801637],[26.621667,47.801884],[26.621524,47.801999],[26.62127,47.802047],[26.621025,47.802014],[26.62091,47.801948],[26.620856,47.801827],[26.620766,47.801697],[26.620464,47.801585],[26.620391,47.801384],[26.62032,47.801296],[26.620126,47.801104],[26.61984,47.80077],[26.619947,47.800512],[26.617459,47.798399],[26.617235,47.798604],[26.617073,47.798774],[26.616996,47.798881],[26.616855,47.799028],[26.616717,47.799126],[26.616523,47.799233],[26.616705,47.799555],[26.616771,47.799721],[26.617021,47.800493],[26.617057,47.800559],[26.617195,47.800715],[26.617309,47.800904],[26.617738,47.801468],[26.61784,47.801629],[26.617922,47.801794],[26.618171,47.802241],[26.618371,47.802376],[26.618893,47.802587],[26.619191,47.802679],[26.619302,47.802727],[26.619399,47.802783],[26.61949,47.802855],[26.619537,47.802919],[26.619608,47.803042],[26.619758,47.803332],[26.619974,47.80365],[26.620215,47.803886],[26.620314,47.804044],[26.620595,47.803858],[26.621495,47.803711]]]}},{"type":"Feature","properties":{"nr":null},"geometry":{"type":"Polygon","coordinates":[[[26.619947,47.800512],[26.619996,47.800391],[26.620102,47.800311],[26.61765,47.798229],[26.617459,47.798399],[26.619947,47.800512]]]}},{"type":"Feature","properties":{"nr":null},"geometry":{"type":"Polygon","coordinates":[[[26.6179,47.798013],[26.61765,47.798229],[26.620102,47.800311],[26.620367,47.80011],[26.6179,47.798013]]]}},{"type":"Feature","properties":{"nr":null},"geometry":{"type":"Polygon","coordinates":[[[26.620368,47.800108],[26.620594,47.799908],[26.62085,47.799707],[26.618395,47.797623],[26.6179,47.798013],[26.620368,47.800108]]]}},{"type":"Feature","properties":{"nr":null},"geometry":{"type":"Polygon","coordinates":[[[26.631586,47.796541],[26.633154,47.80086],[26.63325,47.800825],[26.631673,47.796484],[26.631586,47.796541]]]}},{"type":"Feature","properties":{"nr":null},"geometry":{"type":"Polygon","coordinates":[[[26.633402,47.80097],[26.631754,47.796431],[26.631673,47.796484],[26.633314,47.801003],[26.633402,47.80097]]]}},{"type":"Feature","properties":{"nr":null},"geometry":{"type":"Polygon","coordinates":[[[26.633483,47.80094],[26.631828,47.796383],[26.631754,47.796431],[26.633402,47.80097],[26.633483,47.80094]]]}},{"type":"Feature","properties":{"nr":null},"geometry":{"type":"Polygon","coordinates":[[[26.633542,47.800919],[26.631882,47.796348],[26.631828,47.796383],[26.633483,47.80094],[26.633542,47.800919]]]}},{"type":"Feature","properties":{"nr":null},"geometry":{"type":"Polygon","coordinates":[[[26.633591,47.800901],[26.631927,47.796318],[26.631882,47.796348],[26.633542,47.800919],[26.633591,47.800901]]]}},{"type":"Feature","properties":{"nr":null},"geometry":{"type":"Polygon","coordinates":[[[26.634188,47.800621],[26.634481,47.800513],[26.632752,47.79575],[26.632489,47.795943],[26.634188,47.800621]]]}},{"type":"Feature","properties":{"nr":null},"geometry":{"type":"Polygon","coordinates":[[[26.634855,47.800435],[26.633109,47.795467],[26.632816,47.795699],[26.634573,47.800539],[26.634855,47.800435]]]}},{"type":"Feature","properties":{"nr":null},"geometry":{"type":"Polygon","coordinates":[[[26.630499,47.802039],[26.628653,47.798102],[26.628547,47.798144],[26.630393,47.802079],[26.630499,47.802039]]]}},{"type":"Feature","properties":{"nr":null},"geometry":{"type":"Polygon","coordinates":[[[26.634573,47.800539],[26.632816,47.795699],[26.632752,47.79575],[26.634481,47.800513],[26.634501,47.800565],[26.634573,47.800539]]]}},{"type":"Feature","properties":{"nr":null},"geometry":{"type":"Polygon","coordinates":[[[26.619996,47.800391],[26.61984,47.80077],[26.620126,47.801104],[26.62032,47.801296],[26.620391,47.801384],[26.620464,47.801585],[26.620766,47.801697],[26.620856,47.801827],[26.62091,47.801948],[26.621025,47.802014],[26.62127,47.802047],[26.621524,47.801999],[26.621667,47.801884],[26.621856,47.801637],[26.622076,47.801721],[26.621976,47.802732],[26.621783,47.80328],[26.621482,47.803504],[26.621479,47.803643],[26.621495,47.803711],[26.621669,47.803645],[26.621978,47.803508],[26.62226,47.803005],[26.62241,47.802522],[26.622476,47.802109],[26.622459,47.801786],[26.622398,47.80151],[26.622409,47.801388],[26.622501,47.801198],[26.622677,47.800928],[26.622889,47.800752],[26.623388,47.8004],[26.623659,47.800221],[26.623991,47.799965],[26.624431,47.799711],[26.625077,47.799423],[26.626023,47.799205],[26.626395,47.799103],[26.627066,47.79873],[26.629392,47.797809],[26.629025,47.796754],[26.628664,47.795633],[26.628479,47.795182],[26.628247,47.794889],[26.627782,47.794375],[26.627636,47.793911],[26.627437,47.793604],[26.627101,47.793187],[26.626973,47.79324],[26.627529,47.793911],[26.627656,47.794364],[26.628071,47.794817],[26.628376,47.795259],[26.628531,47.795632],[26.628398,47.795748],[26.628082,47.795892],[26.625764,47.79709],[26.623121,47.798325],[26.622744,47.798513],[26.621097,47.799488],[26.62089,47.799675],[26.620594,47.799908],[26.620367,47.80011],[26.619996,47.800391]]]}},{"type":"Feature","properties":{"nr":null},"geometry":{"type":"Polygon","coordinates":[[[26.633993,47.794794],[26.635847,47.80007],[26.636044,47.799997],[26.634171,47.79467],[26.633993,47.794794]]]}},{"type":"Feature","properties":{"nr":null},"geometry":{"type":"Polygon","coordinates":[[[26.635001,47.800381],[26.633238,47.795365],[26.633109,47.795467],[26.634855,47.800435],[26.635001,47.800381]]]}},{"type":"Feature","properties":{"nr":null},"geometry":{"type":"Polygon","coordinates":[[[26.635186,47.800313],[26.633402,47.795235],[26.633238,47.795365],[26.635001,47.800381],[26.635186,47.800313]]]}},{"type":"Feature","properties":{"nr":null},"geometry":{"type":"Polygon","coordinates":[[[26.6354,47.800234],[26.633591,47.795086],[26.633402,47.795235],[26.635186,47.800313],[26.6354,47.800234]]]}},{"type":"Feature","properties":{"nr":null},"geometry":{"type":"Polygon","coordinates":[[[26.608718,47.800714],[26.609708,47.800366],[26.610058,47.800324],[26.610764,47.800121],[26.610967,47.800074],[26.613858,47.799585],[26.615055,47.799192],[26.615203,47.799168],[26.61536,47.79916],[26.615573,47.799184],[26.615854,47.799236],[26.616111,47.799297],[26.61621,47.799307],[26.616297,47.7993],[26.616523,47.799233],[26.616717,47.799126],[26.616855,47.799028],[26.616996,47.798881],[26.617073,47.798774],[26.617235,47.798604],[26.617838,47.798062],[26.618331,47.79767],[26.618656,47.797429],[26.61887,47.797316],[26.61913,47.79725],[26.619208,47.797216],[26.619737,47.796923],[26.62033,47.796657],[26.620404,47.796602],[26.620482,47.796491],[26.620735,47.796366],[26.62127,47.796063],[26.621496,47.795949],[26.621694,47.795877],[26.621844,47.795846],[26.622297,47.795582],[26.622474,47.795465],[26.622559,47.795399],[26.622854,47.795214],[26.623155,47.795039],[26.624097,47.794541],[26.624285,47.794498],[26.624466,47.794427],[26.625714,47.793881],[26.626721,47.793361],[26.626973,47.79324],[26.62723,47.793134],[26.628638,47.792456],[26.628857,47.792341],[26.628933,47.792257],[26.629063,47.792035],[26.629328,47.791767],[26.629727,47.791485],[26.630087,47.791297],[26.630732,47.790917],[26.632004,47.790325],[26.632507,47.790182],[26.634505,47.789303],[26.634933,47.789132],[26.635501,47.788924],[26.635818,47.788832],[26.636368,47.78855],[26.637035,47.788291],[26.637418,47.788155],[26.637392,47.788107],[26.636996,47.788246],[26.636329,47.788525],[26.635981,47.788697],[26.63579,47.788801],[26.635477,47.788891],[26.634907,47.7891],[26.634479,47.789272],[26.632482,47.79015],[26.631979,47.790293],[26.630699,47.790889],[26.630054,47.791269],[26.629691,47.791458],[26.629286,47.791744],[26.629015,47.792018],[26.628885,47.792241],[26.628817,47.792317],[26.628606,47.792427],[26.627201,47.793104],[26.626943,47.79321],[26.626689,47.793332],[26.625683,47.793852],[26.624438,47.794396],[26.624265,47.794464],[26.624071,47.794509],[26.623121,47.795011],[26.622818,47.795188],[26.622521,47.795374],[26.622435,47.795441],[26.62226,47.795556],[26.621817,47.795814],[26.621673,47.795843],[26.621467,47.795919],[26.621237,47.796034],[26.620703,47.796337],[26.620591,47.796387],[26.62044,47.796468],[26.620357,47.796584],[26.620297,47.796628],[26.619705,47.796895],[26.619177,47.797187],[26.619106,47.797218],[26.618845,47.797284],[26.618619,47.797403],[26.618291,47.797646],[26.617797,47.79804],[26.617374,47.798415],[26.617191,47.798583],[26.617027,47.798756],[26.616949,47.798864],[26.616813,47.799006],[26.616681,47.7991],[26.616494,47.799202],[26.616334,47.799252],[26.616211,47.79927],[26.616124,47.799262],[26.61587,47.799201],[26.615585,47.799149],[26.615362,47.799124],[26.615195,47.799132],[26.615037,47.799158],[26.61384,47.799551],[26.610952,47.800039],[26.610745,47.800087],[26.610044,47.800289],[26.609689,47.800332],[26.608694,47.800682],[26.608325,47.800793],[26.608067,47.800892],[26.60754,47.801128],[26.607002,47.801348],[26.606786,47.801441],[26.6067,47.801491],[26.606296,47.80182],[26.606144,47.801925],[26.605734,47.802182],[26.605302,47.802436],[26.605144,47.802572],[26.604734,47.803027],[26.604616,47.803216],[26.604582,47.803251],[26.604514,47.803272],[26.604347,47.803284],[26.604242,47.803267],[26.603992,47.803109],[26.603631,47.802996],[26.601897,47.80252],[26.601197,47.802312],[26.600849,47.802257],[26.600715,47.802247],[26.600595,47.802248],[26.600501,47.802254],[26.600395,47.802272],[26.600132,47.80235],[26.599798,47.802465],[26.599507,47.802579],[26.599248,47.802695],[26.598978,47.802793],[26.598505,47.802903],[26.598087,47.80297],[26.597654,47.803067],[26.59674,47.80335],[26.596649,47.803367],[26.596508,47.803365],[26.596507,47.803401],[26.596655,47.803402],[26.596758,47.803384],[26.597674,47.803101],[26.598102,47.803005],[26.59852,47.802938],[26.598998,47.802826],[26.599276,47.802725],[26.599535,47.802609],[26.599824,47.802496],[26.600155,47.802382],[26.600412,47.802306],[26.600598,47.802284],[26.60084,47.802292],[26.60118,47.802347],[26.601876,47.802553],[26.603609,47.803029],[26.603962,47.80314],[26.604216,47.803299],[26.604343,47.803321],[26.604529,47.803307],[26.604618,47.80328],[26.604664,47.803233],[26.604782,47.803044],[26.605188,47.802593],[26.605341,47.802461],[26.60577,47.802209],[26.606182,47.801951],[26.606336,47.801844],[26.606738,47.801516],[26.606818,47.80147],[26.607569,47.801159],[26.608112,47.800916],[26.60835,47.800825],[26.608718,47.800714]]]}},{"type":"Feature","properties":{"nr":null},"geometry":{"type":"Polygon","coordinates":[[[26.60565,47.802231],[26.606144,47.801925],[26.606296,47.80182],[26.6067,47.801491],[26.606786,47.801441],[26.607588,47.801107],[26.607199,47.80016],[26.607039,47.800198],[26.605088,47.80086],[26.60565,47.802231]]]}},{"type":"Feature","properties":{"nr":null},"geometry":{"type":"Polygon","coordinates":[[[26.607588,47.801107],[26.608067,47.800892],[26.608325,47.800793],[26.608694,47.800682],[26.609022,47.800567],[26.608705,47.799795],[26.607199,47.80016],[26.607588,47.801107]]]}},{"type":"Feature","properties":{"nr":null},"geometry":{"type":"Polygon","coordinates":[[[26.609368,47.799634],[26.608705,47.799795],[26.609022,47.800567],[26.609689,47.800332],[26.609748,47.800322],[26.609368,47.799634]]]}},{"type":"Feature","properties":{"nr":null},"geometry":{"type":"Polygon","coordinates":[[[26.609933,47.799498],[26.609368,47.799634],[26.609748,47.800322],[26.610044,47.800289],[26.610325,47.800208],[26.609933,47.799498]]]}},{"type":"Feature","properties":{"nr":null},"geometry":{"type":"Polygon","coordinates":[[[26.61137,47.799969],[26.611029,47.799349],[26.610236,47.799424],[26.609933,47.799498],[26.610325,47.800208],[26.610745,47.800087],[26.610952,47.800039],[26.61137,47.799969]]]}},{"type":"Feature","properties":{"nr":null},"geometry":{"type":"Polygon","coordinates":[[[26.630509,47.804182],[26.629715,47.80249],[26.629547,47.802555],[26.63008,47.803692],[26.630447,47.804204],[26.630509,47.804182]]]}},{"type":"Feature","properties":{"nr":null},"geometry":{"type":"Polygon","coordinates":[[[26.635302,47.801235],[26.635059,47.800546],[26.634913,47.800598],[26.635155,47.801288],[26.635302,47.801235]]]}},{"type":"Feature","properties":{"nr":null},"geometry":{"type":"Polygon","coordinates":[[[26.63549,47.801175],[26.635245,47.800479],[26.635059,47.800546],[26.635302,47.801235],[26.63549,47.801175]]]}},{"type":"Feature","properties":{"nr":null},"geometry":{"type":"Polygon","coordinates":[[[26.631227,47.803855],[26.630454,47.802208],[26.630185,47.802306],[26.630977,47.803995],[26.631227,47.803855]]]}},{"type":"Feature","properties":{"nr":null},"geometry":{"type":"Polygon","coordinates":[[[26.636148,47.801152],[26.635834,47.800259],[26.635747,47.800291],[26.636002,47.801014],[26.636042,47.801002],[26.636148,47.801152]]]}},{"type":"Feature","properties":{"nr":null},"geometry":{"type":"Polygon","coordinates":[[[26.633226,47.802737],[26.632615,47.801436],[26.630719,47.802113],[26.631472,47.803718],[26.633226,47.802737]]]}},{"type":"Feature","properties":{"nr":null},"geometry":{"type":"Polygon","coordinates":[[[26.633823,47.802403],[26.633371,47.801159],[26.63315,47.801241],[26.633615,47.80252],[26.633823,47.802403]]]}},{"type":"Feature","properties":{"nr":null},"geometry":{"type":"Polygon","coordinates":[[[26.633906,47.802357],[26.633459,47.801126],[26.633371,47.801159],[26.633823,47.802403],[26.633906,47.802357]]]}},{"type":"Feature","properties":{"nr":null},"geometry":{"type":"Polygon","coordinates":[[[26.633982,47.802315],[26.63354,47.801096],[26.633459,47.801126],[26.633906,47.802357],[26.633982,47.802315]]]}},{"type":"Feature","properties":{"nr":null},"geometry":{"type":"Polygon","coordinates":[[[26.634037,47.802284],[26.633598,47.801074],[26.63354,47.801096],[26.633982,47.802315],[26.634037,47.802284]]]}},{"type":"Feature","properties":{"nr":null},"geometry":{"type":"Polygon","coordinates":[[[26.634084,47.802258],[26.633647,47.801056],[26.633598,47.801074],[26.634037,47.802284],[26.634084,47.802258]]]}},{"type":"Feature","properties":{"nr":null},"geometry":{"type":"Polygon","coordinates":[[[26.634493,47.802029],[26.634082,47.800895],[26.633647,47.801056],[26.634084,47.802258],[26.634493,47.802029]]]}},{"type":"Feature","properties":{"nr":null},"geometry":{"type":"Polygon","coordinates":[[[26.634941,47.801778],[26.634559,47.800725],[26.634264,47.80083],[26.634665,47.801933],[26.634941,47.801778]]]}},{"type":"Feature","properties":{"nr":null},"geometry":{"type":"Polygon","coordinates":[[[26.636639,47.801327],[26.636214,47.800117],[26.635834,47.800259],[26.636148,47.801152],[26.636339,47.801424],[26.636639,47.801327]]]}},{"type":"Feature","properties":{"nr":null},"geometry":{"type":"Polygon","coordinates":[[[26.636728,47.801298],[26.636301,47.800084],[26.636214,47.800117],[26.636639,47.801327],[26.636728,47.801298]]]}},{"type":"Feature","properties":{"nr":null},"geometry":{"type":"Polygon","coordinates":[[[26.634665,47.801933],[26.634264,47.80083],[26.634082,47.800895],[26.634493,47.802029],[26.634665,47.801933]]]}},{"type":"Feature","properties":{"nr":null},"geometry":{"type":"Polygon","coordinates":[[[26.633336,47.802675],[26.632855,47.801351],[26.632615,47.801436],[26.633226,47.802737],[26.633336,47.802675]]]}},{"type":"Feature","properties":{"nr":null},"geometry":{"type":"Polygon","coordinates":[[[26.633493,47.802588],[26.633022,47.801289],[26.632855,47.801351],[26.633336,47.802675],[26.633493,47.802588]]]}},{"type":"Feature","properties":{"nr":null},"geometry":{"type":"Polygon","coordinates":[[[26.63008,47.803692],[26.629547,47.802555],[26.629485,47.80258],[26.629867,47.803395],[26.63008,47.803692]]]}},{"type":"Feature","properties":{"nr":null},"geometry":{"type":"Polygon","coordinates":[[[26.635707,47.801106],[26.635458,47.800399],[26.635245,47.800479],[26.63549,47.801175],[26.635707,47.801106]]]}},{"type":"Feature","properties":{"nr":null},"geometry":{"type":"Polygon","coordinates":[[[26.637489,47.801049],[26.637051,47.799804],[26.637001,47.799823],[26.637438,47.801066],[26.637489,47.801049]]]}},{"type":"Feature","properties":{"nr":null},"geometry":{"type":"Polygon","coordinates":[[[26.637294,47.801113],[26.63686,47.799876],[26.636812,47.799894],[26.637246,47.801128],[26.637294,47.801113]]]}},{"type":"Feature","properties":{"nr":null},"geometry":{"type":"Polygon","coordinates":[[[26.630673,47.804121],[26.629878,47.802426],[26.629715,47.80249],[26.630509,47.804182],[26.630673,47.804121]]]}},{"type":"Feature","properties":{"nr":null},"geometry":{"type":"Polygon","coordinates":[[[26.607564,47.806728],[26.60944,47.80538],[26.610289,47.804804],[26.610168,47.804544],[26.609824,47.804483],[26.609451,47.804631],[26.609293,47.80476],[26.608981,47.805193],[26.608372,47.80569],[26.607907,47.80583],[26.607638,47.806108],[26.607209,47.806454],[26.607564,47.806728]]]}},{"type":"Feature","properties":{"nr":null},"geometry":{"type":"Polygon","coordinates":[[[26.60265,47.807752],[26.602953,47.807698],[26.603976,47.807919],[26.604153,47.808141],[26.604172,47.808222],[26.604239,47.808175],[26.604591,47.80798],[26.604955,47.807893],[26.605368,47.808192],[26.606922,47.807129],[26.604753,47.803091],[26.604664,47.803233],[26.604618,47.80328],[26.604519,47.803308],[26.604391,47.803412],[26.604349,47.803843],[26.604395,47.804463],[26.604654,47.805009],[26.604498,47.805386],[26.60432,47.805656],[26.60435,47.80587],[26.604272,47.806033],[26.60415,47.806162],[26.603931,47.806152],[26.603855,47.806097],[26.60388,47.805862],[26.603981,47.80519],[26.603977,47.804878],[26.604115,47.804463],[26.604195,47.803286],[26.603962,47.80314],[26.603609,47.803029],[26.602707,47.802781],[26.60265,47.807752]]]}},{"type":"Feature","properties":{"nr":null},"geometry":{"type":"Polygon","coordinates":[[[26.607529,47.806701],[26.607209,47.806454],[26.605155,47.802629],[26.604782,47.803044],[26.604753,47.803091],[26.606922,47.807129],[26.607529,47.806701]]]}},{"type":"Feature","properties":{"nr":null},"geometry":{"type":"Polygon","coordinates":[[[26.605581,47.80232],[26.605341,47.802461],[26.605155,47.802629],[26.607209,47.806454],[26.607619,47.806123],[26.605581,47.80232]]]}},{"type":"Feature","properties":{"nr":null},"geometry":{"type":"Polygon","coordinates":[[[26.607619,47.806123],[26.607729,47.806014],[26.605708,47.802245],[26.605581,47.80232],[26.607619,47.806123]]]}},{"type":"Feature","properties":{"nr":null},"geometry":{"type":"Polygon","coordinates":[[[26.605805,47.802187],[26.605708,47.802245],[26.607729,47.806014],[26.607811,47.805929],[26.605805,47.802187]]]}},{"type":"Feature","properties":{"nr":null},"geometry":{"type":"Polygon","coordinates":[[[26.638895,47.800552],[26.637641,47.800999],[26.636339,47.801424],[26.636042,47.801002],[26.635313,47.801231],[26.636947,47.804263],[26.637091,47.804207],[26.637274,47.804106],[26.638556,47.80389],[26.639138,47.803773],[26.639524,47.803754],[26.640646,47.803626],[26.642287,47.803076],[26.641552,47.800903],[26.641263,47.800289],[26.641066,47.799699],[26.638895,47.800552]]]}},{"type":"Feature","properties":{"nr":null},"geometry":{"type":"Polygon","coordinates":[[[26.630447,47.804204],[26.629574,47.802986],[26.629329,47.802645],[26.629269,47.802692],[26.629297,47.802683],[26.630401,47.804222],[26.630447,47.804204]]]}},{"type":"Feature","properties":{"nr":null},"geometry":{"type":"Polygon","coordinates":[[[26.636002,47.801014],[26.635747,47.800291],[26.635458,47.800399],[26.635707,47.801106],[26.636002,47.801014]]]}},{"type":"Feature","properties":{"nr":null},"geometry":{"type":"Polygon","coordinates":[[[26.630731,47.804099],[26.629936,47.802403],[26.629878,47.802426],[26.630673,47.804121],[26.630731,47.804099]]]}},{"type":"Feature","properties":{"nr":null},"geometry":{"type":"Polygon","coordinates":[[[26.630813,47.804069],[26.630017,47.802372],[26.629936,47.802403],[26.630731,47.804099],[26.630813,47.804069]]]}},{"type":"Feature","properties":{"nr":null},"geometry":{"type":"Polygon","coordinates":[[[26.629867,47.803395],[26.629485,47.80258],[26.629399,47.802613],[26.629574,47.802986],[26.629867,47.803395]]]}},{"type":"Feature","properties":{"nr":null},"geometry":{"type":"Polygon","coordinates":[[[26.607811,47.805929],[26.607877,47.805861],[26.605882,47.802138],[26.605805,47.802187],[26.607811,47.805929]]]}},{"type":"Feature","properties":{"nr":null},"geometry":{"type":"Polygon","coordinates":[[[26.605882,47.802138],[26.607877,47.805861],[26.607907,47.80583],[26.607945,47.805819],[26.60595,47.802096],[26.605882,47.802138]]]}},{"type":"Feature","properties":{"nr":null},"geometry":{"type":"Polygon","coordinates":[[[26.60595,47.802096],[26.607945,47.805819],[26.608122,47.805765],[26.606103,47.802],[26.60595,47.802096]]]}},{"type":"Feature","properties":{"nr":null},"geometry":{"type":"Polygon","coordinates":[[[26.606103,47.802],[26.608122,47.805765],[26.608342,47.805699],[26.606292,47.801874],[26.606103,47.802]]]}},{"type":"Feature","properties":{"nr":null},"geometry":{"type":"Polygon","coordinates":[[[26.60658,47.801645],[26.608634,47.805476],[26.608981,47.805193],[26.60909,47.805041],[26.607109,47.801346],[26.606818,47.80147],[26.606738,47.801516],[26.60658,47.801645]]]}},{"type":"Feature","properties":{"nr":null},"geometry":{"type":"Polygon","coordinates":[[[26.60909,47.805041],[26.609226,47.804853],[26.607304,47.801267],[26.607109,47.801346],[26.60909,47.805041]]]}},{"type":"Feature","properties":{"nr":null},"geometry":{"type":"Polygon","coordinates":[[[26.609226,47.804853],[26.609293,47.80476],[26.609377,47.804692],[26.607499,47.801187],[26.607304,47.801267],[26.609226,47.804853]]]}},{"type":"Feature","properties":{"nr":null},"geometry":{"type":"Polygon","coordinates":[[[26.609451,47.804631],[26.607586,47.801151],[26.607499,47.801187],[26.609377,47.804692],[26.609451,47.804631]]]}},{"type":"Feature","properties":{"nr":null},"geometry":{"type":"Polygon","coordinates":[[[26.607905,47.801008],[26.607586,47.801151],[26.609451,47.804631],[26.609778,47.804502],[26.607905,47.801008]]]}},{"type":"Feature","properties":{"nr":null},"geometry":{"type":"Polygon","coordinates":[[[26.608112,47.800916],[26.608071,47.800933],[26.60999,47.804512],[26.610045,47.804522],[26.608112,47.800916]]]}},{"type":"Feature","properties":{"nr":null},"geometry":{"type":"Polygon","coordinates":[[[26.608315,47.800838],[26.608112,47.800916],[26.610045,47.804522],[26.610168,47.804544],[26.6103,47.804541],[26.608315,47.800838]]]}},{"type":"Feature","properties":{"nr":null},"geometry":{"type":"Polygon","coordinates":[[[26.608667,47.800729],[26.608315,47.800838],[26.6103,47.804541],[26.610707,47.804535],[26.608667,47.800729]]]}},{"type":"Feature","properties":{"nr":null},"geometry":{"type":"Polygon","coordinates":[[[26.608859,47.800665],[26.608667,47.800729],[26.610707,47.804535],[26.610921,47.804511],[26.608859,47.800665]]]}},{"type":"Feature","properties":{"nr":null},"geometry":{"type":"Polygon","coordinates":[[[26.608919,47.800643],[26.608859,47.800665],[26.610921,47.804511],[26.610988,47.804503],[26.608919,47.800643]]]}},{"type":"Feature","properties":{"nr":null},"geometry":{"type":"Polygon","coordinates":[[[26.611145,47.804483],[26.60906,47.800594],[26.608919,47.800643],[26.610988,47.804503],[26.611145,47.804483]]]}},{"type":"Feature","properties":{"nr":null},"geometry":{"type":"Polygon","coordinates":[[[26.611145,47.804483],[26.611244,47.804466],[26.609151,47.800562],[26.60906,47.800594],[26.611145,47.804483]]]}},{"type":"Feature","properties":{"nr":null},"geometry":{"type":"Polygon","coordinates":[[[26.63093,47.804021],[26.630134,47.802326],[26.630017,47.802372],[26.630813,47.804069],[26.63093,47.804021]]]}},{"type":"Feature","properties":{"nr":null},"geometry":{"type":"Polygon","coordinates":[[[26.629574,47.802986],[26.629399,47.802613],[26.629339,47.802636],[26.629329,47.802645],[26.629574,47.802986]]]}},{"type":"Feature","properties":{"nr":null},"geometry":{"type":"Polygon","coordinates":[[[26.637925,47.800898],[26.637484,47.799643],[26.637263,47.799725],[26.637703,47.800977],[26.637925,47.800898]]]}},{"type":"Feature","properties":{"nr":null},"geometry":{"type":"Polygon","coordinates":[[[26.639274,47.800403],[26.638685,47.799211],[26.638217,47.799379],[26.638811,47.800582],[26.639274,47.800403]]]}},{"type":"Feature","properties":{"nr":null},"geometry":{"type":"Polygon","coordinates":[[[26.639544,47.800297],[26.638959,47.799111],[26.638685,47.799211],[26.639274,47.800403],[26.639544,47.800297]]]}},{"type":"Feature","properties":{"nr":null},"geometry":{"type":"Polygon","coordinates":[[[26.638065,47.799434],[26.637484,47.799643],[26.637925,47.800898],[26.638658,47.800636],[26.638065,47.799434]]]}},{"type":"Feature","properties":{"nr":null},"geometry":{"type":"Polygon","coordinates":[[[26.64033,47.799988],[26.639753,47.798819],[26.639449,47.798931],[26.640029,47.800106],[26.64033,47.799988]]]}},{"type":"Feature","properties":{"nr":null},"geometry":{"type":"Polygon","coordinates":[[[26.638217,47.799379],[26.638065,47.799434],[26.638658,47.800636],[26.638811,47.800582],[26.638217,47.799379]]]}},{"type":"Feature","properties":{"nr":null},"geometry":{"type":"Polygon","coordinates":[[[26.610954,47.800077],[26.610764,47.800121],[26.610397,47.800225],[26.612442,47.804039],[26.612993,47.803881],[26.610954,47.800077]]]}},{"type":"Feature","properties":{"nr":null},"geometry":{"type":"Polygon","coordinates":[[[26.611014,47.800066],[26.613051,47.803866],[26.613095,47.803854],[26.611061,47.800058],[26.611014,47.800066]]]}},{"type":"Feature","properties":{"nr":null},"geometry":{"type":"Polygon","coordinates":[[[26.613858,47.799585],[26.611061,47.800058],[26.613095,47.803854],[26.614596,47.803446],[26.615273,47.803697],[26.615534,47.803771],[26.613858,47.799585]]]}},{"type":"Feature","properties":{"nr":null},"geometry":{"type":"Polygon","coordinates":[[[26.615829,47.803846],[26.614092,47.799508],[26.613858,47.799585],[26.615534,47.803771],[26.615829,47.803846]]]}},{"type":"Feature","properties":{"nr":null},"geometry":{"type":"Polygon","coordinates":[[[26.614092,47.799508],[26.615829,47.803846],[26.615953,47.803882],[26.614189,47.799476],[26.614092,47.799508]]]}},{"type":"Feature","properties":{"nr":null},"geometry":{"type":"Polygon","coordinates":[[[26.614726,47.7993],[26.615688,47.801702],[26.616136,47.801577],[26.615173,47.799172],[26.615055,47.799192],[26.614726,47.7993]]]}},{"type":"Feature","properties":{"nr":null},"geometry":{"type":"Polygon","coordinates":[[[26.615553,47.799182],[26.616474,47.801482],[26.616725,47.801412],[26.615854,47.799236],[26.615553,47.799182]]]}},{"type":"Feature","properties":{"nr":null},"geometry":{"type":"Polygon","coordinates":[[[26.616474,47.801482],[26.615553,47.799182],[26.61536,47.79916],[26.615173,47.799172],[26.616136,47.801577],[26.616474,47.801482]]]}},{"type":"Feature","properties":{"nr":null},"geometry":{"type":"Polygon","coordinates":[[[26.615953,47.803882],[26.616151,47.80394],[26.616385,47.804029],[26.616728,47.804244],[26.617109,47.804729],[26.617475,47.804828],[26.617636,47.804851],[26.6188,47.804761],[26.619487,47.804596],[26.619701,47.804575],[26.620117,47.804124],[26.620251,47.804035],[26.620168,47.803904],[26.619928,47.803668],[26.619709,47.803345],[26.619558,47.803054],[26.619488,47.802933],[26.619445,47.802875],[26.619361,47.802809],[26.61927,47.802756],[26.619165,47.802711],[26.618868,47.802619],[26.618338,47.802405],[26.618125,47.802261],[26.617872,47.801806],[26.61779,47.801641],[26.61769,47.801484],[26.617594,47.801358],[26.616793,47.801583],[26.616725,47.801412],[26.615688,47.801702],[26.614726,47.7993],[26.614189,47.799476],[26.615953,47.803882]]]}},{"type":"Feature","properties":{"nr":null},"geometry":{"type":"Polygon","coordinates":[[[26.612174,47.808166],[26.610432,47.804539],[26.610168,47.804544],[26.611674,47.807685],[26.611951,47.80824],[26.612174,47.808166]]]}},{"type":"Feature","properties":{"nr":null},"geometry":{"type":"Polygon","coordinates":[[[26.612752,47.807975],[26.612846,47.807944],[26.612328,47.806857],[26.611183,47.804479],[26.61108,47.804491],[26.612752,47.807975]]]}},{"type":"Feature","properties":{"nr":null},"geometry":{"type":"Polygon","coordinates":[[[26.612619,47.808019],[26.612752,47.807975],[26.61108,47.804491],[26.610934,47.80451],[26.612619,47.808019]]]}},{"type":"Feature","properties":{"nr":null},"geometry":{"type":"Polygon","coordinates":[[[26.613165,47.807837],[26.612583,47.806771],[26.611421,47.804401],[26.611383,47.804417],[26.613075,47.807867],[26.613165,47.807837]]]}},{"type":"Feature","properties":{"nr":null},"geometry":{"type":"Polygon","coordinates":[[[26.611383,47.804417],[26.611257,47.804463],[26.611183,47.804479],[26.612846,47.807944],[26.613075,47.807867],[26.611383,47.804417]]]}},{"type":"Feature","properties":{"nr":null},"geometry":{"type":"Polygon","coordinates":[[[26.613535,47.807719],[26.61173,47.804279],[26.611545,47.804352],[26.613168,47.807448],[26.613353,47.807776],[26.613535,47.807719]]]}},{"type":"Feature","properties":{"nr":null},"geometry":{"type":"Polygon","coordinates":[[[26.612418,47.804046],[26.614232,47.807502],[26.614324,47.807474],[26.612512,47.804019],[26.612418,47.804046]]]}},{"type":"Feature","properties":{"nr":null},"geometry":{"type":"Polygon","coordinates":[[[26.613535,47.807719],[26.613685,47.807673],[26.611877,47.804227],[26.61173,47.804279],[26.613535,47.807719]]]}},{"type":"Feature","properties":{"nr":null},"geometry":{"type":"Polygon","coordinates":[[[26.611877,47.804227],[26.613685,47.807673],[26.613811,47.807634],[26.612,47.804183],[26.611877,47.804227]]]}},{"type":"Feature","properties":{"nr":null},"geometry":{"type":"Polygon","coordinates":[[[26.612,47.804183],[26.613811,47.807634],[26.613996,47.807576],[26.612182,47.804119],[26.612,47.804183]]]}},{"type":"Feature","properties":{"nr":null},"geometry":{"type":"Polygon","coordinates":[[[26.612512,47.804019],[26.614324,47.807474],[26.614457,47.807432],[26.612659,47.803976],[26.612512,47.804019]]]}},{"type":"Feature","properties":{"nr":null},"geometry":{"type":"Polygon","coordinates":[[[26.612182,47.804119],[26.613996,47.807576],[26.614232,47.807502],[26.612418,47.804046],[26.612182,47.804119]]]}},{"type":"Feature","properties":{"nr":null},"geometry":{"type":"Polygon","coordinates":[[[26.613077,47.807273],[26.611545,47.804352],[26.611421,47.804401],[26.612583,47.806771],[26.612888,47.807334],[26.613077,47.807273]]]}},{"type":"Feature","properties":{"nr":null},"geometry":{"type":"Polygon","coordinates":[[[26.612871,47.803914],[26.612659,47.803976],[26.613979,47.806523],[26.614457,47.807432],[26.614667,47.807367],[26.612871,47.803914]]]}},{"type":"Feature","properties":{"nr":null},"geometry":{"type":"Polygon","coordinates":[[[26.614667,47.807367],[26.614817,47.80732],[26.613024,47.803873],[26.612871,47.803914],[26.614667,47.807367]]]}},{"type":"Feature","properties":{"nr":null},"geometry":{"type":"Polygon","coordinates":[[[26.613024,47.803873],[26.614817,47.80732],[26.615033,47.807253],[26.613244,47.803813],[26.613024,47.803873]]]}},{"type":"Feature","properties":{"nr":null},"geometry":{"type":"Polygon","coordinates":[[[26.613244,47.803813],[26.615033,47.807253],[26.615138,47.80722],[26.613351,47.803784],[26.613244,47.803813]]]}},{"type":"Feature","properties":{"nr":null},"geometry":{"type":"Polygon","coordinates":[[[26.613351,47.803784],[26.615138,47.80722],[26.615303,47.807168],[26.613519,47.803738],[26.613351,47.803784]]]}},{"type":"Feature","properties":{"nr":null},"geometry":{"type":"Polygon","coordinates":[[[26.613519,47.803738],[26.615303,47.807168],[26.615575,47.807084],[26.613796,47.803663],[26.613519,47.803738]]]}},{"type":"Feature","properties":{"nr":null},"geometry":{"type":"Polygon","coordinates":[[[26.613796,47.803663],[26.615575,47.807084],[26.615729,47.807036],[26.613953,47.803621],[26.613796,47.803663]]]}},{"type":"Feature","properties":{"nr":null},"geometry":{"type":"Polygon","coordinates":[[[26.613953,47.803621],[26.615729,47.807036],[26.616002,47.806951],[26.614231,47.803545],[26.613953,47.803621]]]}},{"type":"Feature","properties":{"nr":null},"geometry":{"type":"Polygon","coordinates":[[[26.614231,47.803545],[26.616002,47.806951],[26.616321,47.806851],[26.614524,47.803466],[26.614231,47.803545]]]}},{"type":"Feature","properties":{"nr":null},"geometry":{"type":"Polygon","coordinates":[[[26.616392,47.806829],[26.614596,47.803446],[26.614524,47.803466],[26.616321,47.806851],[26.616392,47.806829]]]}},{"type":"Feature","properties":{"nr":null},"geometry":{"type":"Polygon","coordinates":[[[26.616392,47.806829],[26.616804,47.806693],[26.615273,47.803697],[26.614596,47.803446],[26.616392,47.806829]]]}},{"type":"Feature","properties":{"nr":null},"geometry":{"type":"Polygon","coordinates":[[[26.616804,47.806693],[26.61693,47.806653],[26.615445,47.803745],[26.615273,47.803697],[26.616804,47.806693]]]}},{"type":"Feature","properties":{"nr":null},"geometry":{"type":"Polygon","coordinates":[[[26.615445,47.803745],[26.61693,47.806653],[26.616976,47.806638],[26.615508,47.803763],[26.615445,47.803745]]]}},{"type":"Feature","properties":{"nr":null},"geometry":{"type":"Polygon","coordinates":[[[26.616976,47.806638],[26.617123,47.806592],[26.615704,47.803815],[26.615508,47.803763],[26.616976,47.806638]]]}},{"type":"Feature","properties":{"nr":null},"geometry":{"type":"Polygon","coordinates":[[[26.615704,47.803815],[26.617123,47.806592],[26.617224,47.806559],[26.61584,47.803849],[26.615704,47.803815]]]}},{"type":"Feature","properties":{"nr":null},"geometry":{"type":"Polygon","coordinates":[[[26.61584,47.803849],[26.617224,47.806559],[26.617256,47.806549],[26.615883,47.803862],[26.61584,47.803849]]]}},{"type":"Feature","properties":{"nr":null},"geometry":{"type":"Polygon","coordinates":[[[26.615972,47.803888],[26.617321,47.806528],[26.617614,47.806434],[26.616385,47.804029],[26.616151,47.80394],[26.615972,47.803888]]]}},{"type":"Feature","properties":{"nr":null},"geometry":{"type":"Polygon","coordinates":[[[26.617818,47.806369],[26.617043,47.804851],[26.616839,47.804917],[26.617614,47.806434],[26.617818,47.806369]]]}},{"type":"Feature","properties":{"nr":null},"geometry":{"type":"Polygon","coordinates":[[[26.617861,47.806356],[26.616883,47.804442],[26.616728,47.804244],[26.616385,47.804029],[26.616839,47.804917],[26.617043,47.804851],[26.617818,47.806369],[26.617861,47.806356]]]}},{"type":"Feature","properties":{"nr":null},"geometry":{"type":"Polygon","coordinates":[[[26.616883,47.804442],[26.617861,47.806356],[26.618091,47.806282],[26.617325,47.804783],[26.617109,47.804729],[26.616883,47.804442]]]}},{"type":"Feature","properties":{"nr":null},"geometry":{"type":"Polygon","coordinates":[[[26.618307,47.804799],[26.618834,47.80583],[26.619441,47.804867],[26.619701,47.804575],[26.619487,47.804596],[26.6188,47.804761],[26.618307,47.804799]]]}},{"type":"Feature","properties":{"nr":null},"geometry":{"type":"Polygon","coordinates":[[[26.620159,47.804146],[26.620314,47.804044],[26.620215,47.803886],[26.619974,47.80365],[26.619758,47.803332],[26.619608,47.803042],[26.619537,47.802919],[26.61949,47.802855],[26.619399,47.802783],[26.619302,47.802727],[26.619191,47.802679],[26.618893,47.802587],[26.618371,47.802376],[26.618171,47.802241],[26.617922,47.801794],[26.61784,47.801629],[26.617738,47.801468],[26.617309,47.800904],[26.617195,47.800715],[26.617057,47.800559],[26.617021,47.800493],[26.616771,47.799721],[26.616705,47.799555],[26.616523,47.799233],[26.616474,47.799249],[26.616654,47.799566],[26.616719,47.799729],[26.616969,47.800503],[26.617008,47.800574],[26.617147,47.800731],[26.61726,47.800919],[26.61769,47.801484],[26.61779,47.801641],[26.617872,47.801806],[26.618125,47.802261],[26.618338,47.802405],[26.618868,47.802619],[26.619165,47.802711],[26.61927,47.802756],[26.619361,47.802809],[26.619445,47.802875],[26.619488,47.802933],[26.619558,47.803054],[26.619709,47.803345],[26.619928,47.803668],[26.620168,47.803904],[26.620251,47.804035],[26.620117,47.804124],[26.619761,47.804507],[26.619441,47.804867],[26.619036,47.805501],[26.618668,47.806097],[26.618765,47.806067],[26.618755,47.806051],[26.619085,47.805515],[26.619488,47.804883],[26.619806,47.804526],[26.620159,47.804146]]]}},{"type":"Feature","properties":{"nr":null},"geometry":{"type":"Polygon","coordinates":[[[26.618765,47.806067],[26.619836,47.805693],[26.619488,47.804883],[26.619085,47.805515],[26.618755,47.806051],[26.618765,47.806067]]]}},{"type":"Feature","properties":{"nr":null},"geometry":{"type":"Polygon","coordinates":[[[26.620252,47.805557],[26.619806,47.804526],[26.619488,47.804883],[26.619836,47.805693],[26.620252,47.805557]]]}},{"type":"Feature","properties":{"nr":null},"geometry":{"type":"Polygon","coordinates":[[[26.621983,47.805009],[26.62218,47.804946],[26.621669,47.803645],[26.621476,47.803718],[26.621983,47.805009]]]}},{"type":"Feature","properties":{"nr":null},"geometry":{"type":"Polygon","coordinates":[[[26.621669,47.803645],[26.62218,47.804946],[26.622505,47.804841],[26.621978,47.803508],[26.621669,47.803645]]]}},{"type":"Feature","properties":{"nr":null},"geometry":{"type":"Polygon","coordinates":[[[26.626463,47.799065],[26.626395,47.799103],[26.628174,47.802896],[26.628247,47.802869],[26.626463,47.799065]]]}},{"type":"Feature","properties":{"nr":null},"geometry":{"type":"Polygon","coordinates":[[[26.624529,47.804169],[26.624725,47.804101],[26.623272,47.800482],[26.623097,47.800605],[26.624529,47.804169]]]}},{"type":"Feature","properties":{"nr":null},"geometry":{"type":"Polygon","coordinates":[[[26.623441,47.804539],[26.622476,47.802109],[26.62241,47.802522],[26.623219,47.804611],[26.623441,47.804539]]]}},{"type":"Feature","properties":{"nr":null},"geometry":{"type":"Polygon","coordinates":[[[26.623441,47.804539],[26.623655,47.804468],[26.622421,47.801364],[26.622409,47.801388],[26.622398,47.80151],[26.622459,47.801786],[26.622476,47.802109],[26.623441,47.804539]]]}},{"type":"Feature","properties":{"nr":null},"geometry":{"type":"Polygon","coordinates":[[[26.622421,47.801364],[26.623655,47.804468],[26.623927,47.804378],[26.622593,47.801057],[26.622501,47.801198],[26.622421,47.801364]]]}},{"type":"Feature","properties":{"nr":null},"geometry":{"type":"Polygon","coordinates":[[[26.622593,47.801057],[26.623927,47.804378],[26.624227,47.804274],[26.622831,47.8008],[26.622677,47.800928],[26.622593,47.801057]]]}},{"type":"Feature","properties":{"nr":null},"geometry":{"type":"Polygon","coordinates":[[[26.624725,47.804101],[26.625301,47.803901],[26.623785,47.800125],[26.623659,47.800221],[26.623272,47.800482],[26.624725,47.804101]]]}},{"type":"Feature","properties":{"nr":null},"geometry":{"type":"Polygon","coordinates":[[[26.624227,47.804274],[26.624335,47.804236],[26.622926,47.800726],[26.622831,47.8008],[26.624227,47.804274]]]}},{"type":"Feature","properties":{"nr":null},"geometry":{"type":"Polygon","coordinates":[[[26.624335,47.804236],[26.624529,47.804169],[26.623097,47.800605],[26.622926,47.800726],[26.624335,47.804236]]]}},{"type":"Feature","properties":{"nr":null},"geometry":{"type":"Polygon","coordinates":[[[26.628856,47.798021],[26.630705,47.801964],[26.63092,47.801884],[26.629069,47.797937],[26.628856,47.798021]]]}},{"type":"Feature","properties":{"nr":null},"geometry":{"type":"Polygon","coordinates":[[[26.625301,47.803901],[26.626014,47.803653],[26.624431,47.799711],[26.623991,47.799965],[26.623785,47.800125],[26.625301,47.803901]]]}},{"type":"Feature","properties":{"nr":null},"geometry":{"type":"Polygon","coordinates":[[[26.627709,47.803064],[26.62591,47.799231],[26.625077,47.799423],[26.624431,47.799711],[26.626014,47.803653],[26.627709,47.803064]]]}},{"type":"Feature","properties":{"nr":null},"geometry":{"type":"Polygon","coordinates":[[[26.626023,47.799205],[26.627817,47.803027],[26.628174,47.802896],[26.626395,47.799103],[26.626023,47.799205]]]}},{"type":"Feature","properties":{"nr":null},"geometry":{"type":"Polygon","coordinates":[[[26.626023,47.799205],[26.62591,47.799231],[26.627709,47.803064],[26.627817,47.803027],[26.626023,47.799205]]]}},{"type":"Feature","properties":{"nr":null},"geometry":{"type":"Polygon","coordinates":[[[26.623219,47.804611],[26.62241,47.802522],[26.62226,47.803005],[26.621978,47.803508],[26.622505,47.804841],[26.623219,47.804611]]]}},{"type":"Feature","properties":{"nr":null},"geometry":{"type":"Polygon","coordinates":[[[26.626704,47.798931],[26.626575,47.799003],[26.628367,47.802824],[26.628506,47.802773],[26.626704,47.798931]]]}},{"type":"Feature","properties":{"nr":null},"geometry":{"type":"Polygon","coordinates":[[[26.630705,47.801964],[26.628856,47.798021],[26.628725,47.798073],[26.630573,47.802012],[26.630705,47.801964]]]}},{"type":"Feature","properties":{"nr":null},"geometry":{"type":"Polygon","coordinates":[[[26.626575,47.799003],[26.626463,47.799065],[26.628247,47.802869],[26.628367,47.802824],[26.626575,47.799003]]]}},{"type":"Feature","properties":{"nr":null},"geometry":{"type":"Polygon","coordinates":[[[26.627009,47.798761],[26.626704,47.798931],[26.628506,47.802773],[26.628834,47.802652],[26.627009,47.798761]]]}},{"type":"Feature","properties":{"nr":null},"geometry":{"type":"Polygon","coordinates":[[[26.629089,47.802559],[26.627258,47.798654],[26.627066,47.79873],[26.627009,47.798761],[26.628834,47.802652],[26.629089,47.802559]]]}},{"type":"Feature","properties":{"nr":null},"geometry":{"type":"Polygon","coordinates":[[[26.629332,47.802469],[26.627498,47.798559],[26.627258,47.798654],[26.629089,47.802559],[26.629332,47.802469]]]}},{"type":"Feature","properties":{"nr":null},"geometry":{"type":"Polygon","coordinates":[[[26.629873,47.80227],[26.628033,47.798347],[26.627975,47.79837],[26.629815,47.802291],[26.629873,47.80227]]]}},{"type":"Feature","properties":{"nr":null},"geometry":{"type":"Polygon","coordinates":[[[26.629418,47.802438],[26.627583,47.798525],[26.627498,47.798559],[26.629332,47.802469],[26.629418,47.802438]]]}},{"type":"Feature","properties":{"nr":null},"geometry":{"type":"Polygon","coordinates":[[[26.629481,47.802414],[26.627645,47.798501],[26.627583,47.798525],[26.629418,47.802438],[26.629481,47.802414]]]}},{"type":"Feature","properties":{"nr":null},"geometry":{"type":"Polygon","coordinates":[[[26.629651,47.802352],[26.627813,47.798434],[26.627645,47.798501],[26.629481,47.802414],[26.629651,47.802352]]]}},{"type":"Feature","properties":{"nr":null},"geometry":{"type":"Polygon","coordinates":[[[26.629815,47.802291],[26.627975,47.79837],[26.627813,47.798434],[26.629651,47.802352],[26.629815,47.802291]]]}},{"type":"Feature","properties":{"nr":null},"geometry":{"type":"Polygon","coordinates":[[[26.630073,47.802196],[26.628231,47.798269],[26.628114,47.798315],[26.629955,47.80224],[26.630073,47.802196]]]}},{"type":"Feature","properties":{"nr":null},"geometry":{"type":"Polygon","coordinates":[[[26.634207,47.800674],[26.634188,47.800621],[26.632489,47.795943],[26.632323,47.796053],[26.634025,47.800741],[26.634207,47.800674]]]}},{"type":"Feature","properties":{"nr":null},"geometry":{"type":"Polygon","coordinates":[[[26.630124,47.802177],[26.628281,47.798249],[26.628231,47.798269],[26.630073,47.802196],[26.630124,47.802177]]]}},{"type":"Feature","properties":{"nr":null},"geometry":{"type":"Polygon","coordinates":[[[26.63092,47.801884],[26.631247,47.801764],[26.629392,47.797809],[26.629069,47.797937],[26.63092,47.801884]]]}},{"type":"Feature","properties":{"nr":null},"geometry":{"type":"Polygon","coordinates":[[[26.631389,47.800946],[26.630911,47.801048],[26.631247,47.801764],[26.631695,47.801599],[26.631389,47.800946]]]}},{"type":"Feature","properties":{"nr":null},"geometry":{"type":"Polygon","coordinates":[[[26.631389,47.800946],[26.631068,47.800262],[26.63059,47.800364],[26.630911,47.801048],[26.631389,47.800946]]]}},{"type":"Feature","properties":{"nr":null},"geometry":{"type":"Polygon","coordinates":[[[26.631119,47.800251],[26.631068,47.800262],[26.631695,47.801599],[26.631743,47.801581],[26.631119,47.800251]]]}},{"type":"Feature","properties":{"nr":null},"geometry":{"type":"Polygon","coordinates":[[[26.63569,47.800128],[26.63385,47.794894],[26.633795,47.794932],[26.635629,47.80015],[26.63569,47.800128]]]}},{"type":"Feature","properties":{"nr":null},"geometry":{"type":"Polygon","coordinates":[[[26.637703,47.800977],[26.637263,47.799725],[26.637051,47.799804],[26.637489,47.801049],[26.637703,47.800977]]]}},{"type":"Feature","properties":{"nr":null},"geometry":{"type":"Polygon","coordinates":[[[26.615883,47.803862],[26.617256,47.806549],[26.617288,47.806539],[26.615927,47.803875],[26.615883,47.803862]]]}},{"type":"Feature","properties":{"nr":null},"geometry":{"type":"Polygon","coordinates":[[[26.611014,47.800066],[26.610954,47.800077],[26.612993,47.803881],[26.613051,47.803866],[26.611014,47.800066]]]}},{"type":"Feature","properties":{"nr":null},"geometry":{"type":"Polygon","coordinates":[[[26.615927,47.803875],[26.617288,47.806539],[26.617321,47.806528],[26.615972,47.803888],[26.615927,47.803875]]]}},{"type":"Feature","properties":{"nr":null},"geometry":{"type":"Polygon","coordinates":[[[26.637195,47.801145],[26.636762,47.799912],[26.636671,47.799946],[26.637104,47.801175],[26.637195,47.801145]]]}},{"type":"Feature","properties":{"nr":null},"geometry":{"type":"Polygon","coordinates":[[[26.634501,47.800565],[26.634481,47.800513],[26.634188,47.800621],[26.634207,47.800674],[26.634501,47.800565]]]}},{"type":"Feature","properties":{"nr":null},"geometry":{"type":"Polygon","coordinates":[[[26.634881,47.801386],[26.634631,47.800699],[26.634559,47.800725],[26.634941,47.801778],[26.634964,47.801766],[26.634929,47.801458],[26.634881,47.801386]]]}},{"type":"Feature","properties":{"nr":null},"geometry":{"type":"Polygon","coordinates":[[[26.637104,47.801175],[26.636671,47.799946],[26.63645,47.800029],[26.636879,47.801249],[26.637104,47.801175]]]}},{"type":"Feature","properties":{"nr":null},"geometry":{"type":"Polygon","coordinates":[[[26.635155,47.801288],[26.634913,47.800598],[26.634631,47.800699],[26.634881,47.801386],[26.635155,47.801288]]]}},{"type":"Feature","properties":{"nr":null},"geometry":{"type":"Polygon","coordinates":[[[26.635629,47.80015],[26.633795,47.794932],[26.633591,47.795086],[26.6354,47.800234],[26.635629,47.80015]]]}},{"type":"Feature","properties":{"nr":null},"geometry":{"type":"Polygon","coordinates":[[[26.636879,47.801249],[26.63645,47.800029],[26.636338,47.800071],[26.636765,47.801286],[26.636879,47.801249]]]}},{"type":"Feature","properties":{"nr":null},"geometry":{"type":"Polygon","coordinates":[[[26.636765,47.801286],[26.636338,47.800071],[26.636301,47.800084],[26.636728,47.801298],[26.636765,47.801286]]]}},{"type":"Feature","properties":{"nr":null},"geometry":{"type":"Polygon","coordinates":[[[26.633314,47.801003],[26.63325,47.800825],[26.633029,47.800907],[26.633093,47.801084],[26.633314,47.801003]]]}},{"type":"Feature","properties":{"nr":null},"geometry":{"type":"Polygon","coordinates":[[[26.629339,47.802636],[26.630249,47.802281],[26.632855,47.801351],[26.634016,47.800919],[26.635245,47.800479],[26.637484,47.799643],[26.637429,47.799487],[26.629179,47.802525],[26.629269,47.802692],[26.629339,47.802636]]]}},{"type":"Feature","properties":{"nr":null},"geometry":{"type":"Polygon","coordinates":[[[26.615854,47.799236],[26.616793,47.801583],[26.617594,47.801358],[26.61726,47.800919],[26.617147,47.800731],[26.617008,47.800574],[26.616969,47.800503],[26.616719,47.799729],[26.616654,47.799566],[26.616474,47.799249],[26.616297,47.7993],[26.61621,47.799307],[26.616111,47.799297],[26.615854,47.799236]]]}},{"type":"Feature","properties":{"nr":null},"geometry":{"type":"Polygon","coordinates":[[[26.619806,47.804526],[26.620252,47.805557],[26.621133,47.805279],[26.620536,47.803897],[26.620159,47.804146],[26.619806,47.804526]]]}},{"type":"Feature","properties":{"nr":null},"geometry":{"type":"Polygon","coordinates":[[[26.621133,47.805279],[26.621983,47.805009],[26.621476,47.803718],[26.620595,47.803858],[26.620536,47.803897],[26.621133,47.805279]]]}},{"type":"Feature","properties":{"nr":null},"geometry":{"type":"Polygon","coordinates":[[[26.639544,47.800297],[26.640029,47.800106],[26.639449,47.798931],[26.638959,47.799111],[26.639544,47.800297]]]}},{"type":"Feature","properties":{"nr":null},"geometry":{"type":"Polygon","coordinates":[[[26.626714,47.802804],[26.626829,47.80278],[26.626763,47.802606],[26.626648,47.80263],[26.626714,47.802804]]]}},{"type":"Feature","properties":{"nr":null},"geometry":{"type":"Polygon","coordinates":[[[26.651783,47.803541],[26.652099,47.803355],[26.650135,47.80169],[26.649597,47.801688],[26.651783,47.803541]]]}},{"type":"Feature","properties":{"nr":null},"geometry":{"type":"Polygon","coordinates":[[[26.648272,47.805521],[26.644791,47.802268],[26.644666,47.802322],[26.648154,47.805582],[26.648272,47.805521]]]}},{"type":"Feature","properties":{"nr":null},"geometry":{"type":"Polygon","coordinates":[[[26.647626,47.805966],[26.647504,47.806046],[26.64918,47.807342],[26.6493,47.80727],[26.647626,47.805966]]]}},{"type":"Feature","properties":{"nr":null},"geometry":{"type":"Polygon","coordinates":[[[26.650289,47.804317],[26.650585,47.804164],[26.647955,47.801851],[26.647658,47.802004],[26.650289,47.804317]]]}},{"type":"Feature","properties":{"nr":null},"geometry":{"type":"Polygon","coordinates":[[[26.653593,47.807369],[26.649967,47.804573],[26.649735,47.804709],[26.653334,47.807484],[26.653593,47.807369]]]}},{"type":"Feature","properties":{"nr":null},"geometry":{"type":"Polygon","coordinates":[[[26.646303,47.802518],[26.646147,47.802489],[26.648971,47.805106],[26.649049,47.805062],[26.646303,47.802518]]]}},{"type":"Feature","properties":{"nr":null},"geometry":{"type":"Polygon","coordinates":[[[26.646463,47.802547],[26.646303,47.802518],[26.649049,47.805062],[26.649128,47.805017],[26.646463,47.802547]]]}},{"type":"Feature","properties":{"nr":null},"geometry":{"type":"Polygon","coordinates":[[[26.646628,47.802577],[26.646463,47.802547],[26.649128,47.805017],[26.64921,47.80497],[26.646628,47.802577]]]}},{"type":"Feature","properties":{"nr":null},"geometry":{"type":"Polygon","coordinates":[[[26.649295,47.804921],[26.646799,47.802608],[26.646628,47.802577],[26.64921,47.80497],[26.649295,47.804921]]]}},{"type":"Feature","properties":{"nr":null},"geometry":{"type":"Polygon","coordinates":[[[26.649368,47.804873],[26.646528,47.802241],[26.646446,47.802282],[26.649296,47.804922],[26.649368,47.804873]]]}},{"type":"Feature","properties":{"nr":null},"geometry":{"type":"Polygon","coordinates":[[[26.649538,47.804832],[26.653057,47.807545],[26.65332,47.807473],[26.649735,47.804709],[26.649538,47.804832]]]}},{"type":"Feature","properties":{"nr":null},"geometry":{"type":"Polygon","coordinates":[[[26.644146,47.805027],[26.645075,47.806041],[26.646066,47.806977],[26.646093,47.806959],[26.644146,47.805027]]]}},{"type":"Feature","properties":{"nr":null},"geometry":{"type":"Polygon","coordinates":[[[26.644081,47.804909],[26.644048,47.804921],[26.644146,47.805027],[26.646093,47.806959],[26.646126,47.806937],[26.644081,47.804909]]]}},{"type":"Feature","properties":{"nr":null},"geometry":{"type":"Polygon","coordinates":[[[26.644121,47.804894],[26.644081,47.804909],[26.646126,47.806937],[26.646159,47.806915],[26.644121,47.804894]]]}},{"type":"Feature","properties":{"nr":null},"geometry":{"type":"Polygon","coordinates":[[[26.644161,47.804879],[26.644121,47.804894],[26.646159,47.806915],[26.646192,47.806894],[26.644161,47.804879]]]}},{"type":"Feature","properties":{"nr":null},"geometry":{"type":"Polygon","coordinates":[[[26.64816,47.805588],[26.644666,47.802322],[26.644553,47.802374],[26.648057,47.80565],[26.64816,47.805588]]]}},{"type":"Feature","properties":{"nr":null},"geometry":{"type":"Polygon","coordinates":[[[26.647626,47.805966],[26.651403,47.808909],[26.651468,47.808799],[26.647742,47.805896],[26.647626,47.805966]]]}},{"type":"Feature","properties":{"nr":null},"geometry":{"type":"Polygon","coordinates":[[[26.647991,47.805735],[26.647874,47.805809],[26.651546,47.80867],[26.651613,47.808557],[26.647991,47.805735]]]}},{"type":"Feature","properties":{"nr":null},"geometry":{"type":"Polygon","coordinates":[[[26.648272,47.805521],[26.648378,47.805448],[26.644914,47.802211],[26.644791,47.802268],[26.648272,47.805521]]]}},{"type":"Feature","properties":{"nr":null},"geometry":{"type":"Polygon","coordinates":[[[26.644369,47.819886],[26.644797,47.819154],[26.645087,47.81862],[26.645809,47.817823],[26.646917,47.816993],[26.64795,47.816174],[26.648889,47.815409],[26.64993,47.814417],[26.650205,47.814094],[26.650337,47.813893],[26.650484,47.81361],[26.650758,47.813031],[26.65083,47.812858],[26.650926,47.8127],[26.651036,47.812434],[26.65112,47.812279],[26.651115,47.812111],[26.651168,47.81191],[26.651161,47.811831],[26.651239,47.811749],[26.651259,47.811622],[26.651259,47.811315],[26.651314,47.811057],[26.651324,47.810909],[26.651526,47.809957],[26.651755,47.80897],[26.651854,47.808673],[26.652346,47.808152],[26.652442,47.808031],[26.652681,47.807808],[26.653094,47.807657],[26.653729,47.807405],[26.654219,47.807248],[26.654749,47.807124],[26.655444,47.806893],[26.655921,47.806798],[26.656144,47.806766],[26.656258,47.806717],[26.656493,47.806501],[26.656603,47.806385],[26.656639,47.806266],[26.656591,47.806169],[26.656476,47.806058],[26.6564,47.805967],[26.656398,47.805905],[26.656455,47.805844],[26.656541,47.805806],[26.656695,47.805764],[26.656788,47.805723],[26.656954,47.805608],[26.657085,47.805456],[26.657127,47.805384],[26.657174,47.805323],[26.657252,47.805242],[26.657738,47.804954],[26.657934,47.80486],[26.657888,47.804827],[26.657697,47.804918],[26.657377,47.805102],[26.657045,47.805321],[26.656938,47.805487],[26.656839,47.805606],[26.656742,47.805689],[26.656664,47.805724],[26.65651,47.805766],[26.656407,47.805811],[26.656331,47.805893],[26.656334,47.805979],[26.656419,47.806082],[26.65653,47.80619],[26.65657,47.806269],[26.65654,47.806367],[26.656438,47.806475],[26.656211,47.806684],[26.656118,47.806724],[26.655905,47.806754],[26.65542,47.806851],[26.654724,47.807082],[26.654494,47.807131],[26.654193,47.807207],[26.653699,47.807365],[26.653061,47.807618],[26.652635,47.807774],[26.652386,47.808007],[26.652289,47.808129],[26.651792,47.808655],[26.65174,47.808795],[26.65169,47.808962],[26.65146,47.80995],[26.651257,47.810905],[26.651248,47.811052],[26.651192,47.811312],[26.651192,47.81162],[26.651174,47.811734],[26.651093,47.811819],[26.651101,47.811907],[26.651048,47.812107],[26.651053,47.812271],[26.650973,47.81242],[26.650862,47.812686],[26.650767,47.812844],[26.650694,47.813018],[26.650421,47.813596],[26.650275,47.813877],[26.650145,47.814074],[26.649874,47.814392],[26.648836,47.815381],[26.647899,47.816145],[26.646867,47.816963],[26.645756,47.817796],[26.645027,47.818601],[26.644735,47.819138],[26.644315,47.819856],[26.644151,47.820113],[26.644219,47.820121],[26.644369,47.819886]]]}},{"type":"Feature","properties":{"nr":null},"geometry":{"type":"Polygon","coordinates":[[[26.639933,47.805286],[26.638549,47.804241],[26.637665,47.804325],[26.639167,47.80555],[26.639933,47.805286]]]}},{"type":"Feature","properties":{"nr":null},"geometry":{"type":"Polygon","coordinates":[[[26.623009,47.807133],[26.621719,47.80528],[26.62147,47.805365],[26.622763,47.807209],[26.623009,47.807133]]]}},{"type":"Feature","properties":{"nr":null},"geometry":{"type":"Polygon","coordinates":[[[26.620664,47.807935],[26.619351,47.806058],[26.618831,47.806228],[26.620145,47.808108],[26.620664,47.807935]]]}},{"type":"Feature","properties":{"nr":null},"geometry":{"type":"Polygon","coordinates":[[[26.61151,47.808574],[26.608594,47.806021],[26.608458,47.80611],[26.611386,47.808669],[26.61151,47.808574]]]}},{"type":"Feature","properties":{"nr":null},"geometry":{"type":"Polygon","coordinates":[[[26.611386,47.808669],[26.608458,47.80611],[26.608324,47.806198],[26.611261,47.808765],[26.611386,47.808669]]]}},{"type":"Feature","properties":{"nr":null},"geometry":{"type":"Polygon","coordinates":[[[26.623997,47.80678],[26.62275,47.804982],[26.622491,47.805055],[26.623751,47.806873],[26.623997,47.80678]]]}},{"type":"Feature","properties":{"nr":null},"geometry":{"type":"Polygon","coordinates":[[[26.611781,47.808402],[26.608875,47.80585],[26.608614,47.806039],[26.61151,47.808574],[26.611781,47.808402]]]}},{"type":"Feature","properties":{"nr":null},"geometry":{"type":"Polygon","coordinates":[[[26.628785,47.804964],[26.628334,47.805132],[26.629972,47.807554],[26.630394,47.807344],[26.628785,47.804964]]]}},{"type":"Feature","properties":{"nr":null},"geometry":{"type":"Polygon","coordinates":[[[26.620892,47.805574],[26.620792,47.805609],[26.622082,47.807458],[26.622181,47.807423],[26.620892,47.805574]]]}},{"type":"Feature","properties":{"nr":null},"geometry":{"type":"Polygon","coordinates":[[[26.626009,47.807785],[26.626696,47.808826],[26.627401,47.808719],[26.626855,47.807705],[26.625813,47.806125],[26.625125,47.80638],[26.626009,47.807785]]]}},{"type":"Feature","properties":{"nr":null},"geometry":{"type":"Polygon","coordinates":[[[26.642374,47.804332],[26.642194,47.804414],[26.645533,47.807304],[26.645692,47.807203],[26.642374,47.804332]]]}},{"type":"Feature","properties":{"nr":null},"geometry":{"type":"Polygon","coordinates":[[[26.611091,47.83391],[26.611388,47.833852],[26.611293,47.833702],[26.611192,47.833562],[26.611082,47.833452],[26.610951,47.833348],[26.610773,47.833257],[26.608809,47.832551],[26.608489,47.832415],[26.607972,47.832214],[26.607678,47.832088],[26.607542,47.832018],[26.607256,47.831833],[26.607118,47.831763],[26.607035,47.831692],[26.606963,47.831609],[26.606757,47.831407],[26.606717,47.831347],[26.606702,47.831281],[26.606707,47.831253],[26.606751,47.831187],[26.606846,47.831121],[26.606954,47.831078],[26.607599,47.830933],[26.608216,47.830749],[26.608429,47.830606],[26.608422,47.830565],[26.608532,47.830474],[26.60873,47.830267],[26.608842,47.830137],[26.608908,47.830089],[26.608972,47.829954],[26.609063,47.829685],[26.609069,47.829618],[26.609064,47.829399],[26.609027,47.829222],[26.608916,47.828914],[26.60886,47.828787],[26.60868,47.828437],[26.608382,47.827797],[26.608342,47.827644],[26.608366,47.827553],[26.608411,47.827479],[26.608493,47.827406],[26.608615,47.827319],[26.611716,47.825426],[26.611925,47.825286],[26.611916,47.825138],[26.611049,47.823938],[26.609554,47.821901],[26.608939,47.821009],[26.60867,47.820601],[26.607832,47.819413],[26.606686,47.817867],[26.606539,47.817693],[26.6065,47.817638],[26.606501,47.817599],[26.605413,47.81606],[26.6052,47.815734],[26.604975,47.815425],[26.604672,47.815043],[26.604325,47.814537],[26.604287,47.814458],[26.60428,47.814414],[26.604296,47.814287],[26.604315,47.814242],[26.604369,47.814171],[26.604521,47.814033],[26.605431,47.813359],[26.605414,47.813344],[26.605602,47.813207],[26.605994,47.812945],[26.606343,47.812679],[26.606717,47.812407],[26.607145,47.812069],[26.607237,47.812011],[26.60756,47.811764],[26.607919,47.811507],[26.608775,47.810807],[26.60985,47.810021],[26.611634,47.808687],[26.611802,47.80855],[26.612046,47.808407],[26.612274,47.80832],[26.612687,47.808194],[26.613456,47.807936],[26.614165,47.807717],[26.61744,47.806654],[26.618454,47.806298],[26.618756,47.806199],[26.618838,47.806186],[26.61994,47.805831],[26.623435,47.8047],[26.625857,47.803907],[26.628199,47.803048],[26.628974,47.802797],[26.629269,47.802692],[26.629187,47.802538],[26.628102,47.802941],[26.625445,47.803897],[26.623356,47.80458],[26.622504,47.804874],[26.621999,47.805029],[26.621983,47.805008],[26.620252,47.805558],[26.619835,47.805693],[26.619619,47.805775],[26.614929,47.807303],[26.613733,47.807672],[26.613164,47.807836],[26.612846,47.807944],[26.612149,47.808202],[26.61196,47.808253],[26.611853,47.808294],[26.611899,47.808339],[26.611781,47.808402],[26.61151,47.808574],[26.611013,47.808955],[26.610702,47.809167],[26.610575,47.809264],[26.61032,47.809429],[26.609375,47.810139],[26.608906,47.810507],[26.60867,47.810674],[26.608487,47.81082],[26.608089,47.811098],[26.607906,47.811248],[26.606835,47.812035],[26.6056,47.812969],[26.605068,47.813357],[26.60487,47.813538],[26.604785,47.813603],[26.60436,47.813879],[26.603914,47.814202],[26.603928,47.814384],[26.603969,47.814421],[26.604494,47.815139],[26.60461,47.815272],[26.60497,47.815761],[26.606372,47.817788],[26.606518,47.817981],[26.608203,47.820331],[26.608942,47.821314],[26.609377,47.82193],[26.60939,47.822009],[26.609711,47.822448],[26.609829,47.822583],[26.610613,47.823669],[26.610621,47.823733],[26.611509,47.824916],[26.611563,47.824993],[26.611582,47.825044],[26.611592,47.825119],[26.611587,47.82519],[26.61156,47.825259],[26.611429,47.8254],[26.609233,47.826744],[26.608975,47.826905],[26.608942,47.826936],[26.608937,47.826933],[26.608698,47.827077],[26.607939,47.827562],[26.608081,47.827675],[26.608167,47.827826],[26.608214,47.827917],[26.608227,47.827963],[26.608278,47.828074],[26.608328,47.828144],[26.608607,47.828727],[26.608621,47.828743],[26.60879,47.829138],[26.608814,47.829207],[26.608852,47.829379],[26.608845,47.829644],[26.608861,47.829699],[26.608838,47.8298],[26.608786,47.829935],[26.608716,47.830078],[26.608517,47.830311],[26.608367,47.83044],[26.608249,47.83051],[26.607805,47.830713],[26.607643,47.830772],[26.607105,47.830909],[26.606295,47.831094],[26.606329,47.831221],[26.606606,47.831525],[26.606639,47.831523],[26.606715,47.831609],[26.60695,47.831838],[26.60727,47.832034],[26.607449,47.832131],[26.608306,47.832486],[26.610656,47.833371],[26.610812,47.833459],[26.610895,47.833529],[26.610992,47.833644],[26.611045,47.833759],[26.611091,47.83391]]]}},{"type":"Feature","properties":{"nr":null},"geometry":{"type":"Polygon","coordinates":[[[26.629736,47.805776],[26.630543,47.807313],[26.630616,47.807277],[26.629831,47.805773],[26.629736,47.805776]]]}},{"type":"Feature","properties":{"nr":null},"geometry":{"type":"Polygon","coordinates":[[[26.621756,47.805274],[26.623059,47.80712],[26.623305,47.807031],[26.622002,47.805185],[26.621756,47.805274]]]}},{"type":"Feature","properties":{"nr":null},"geometry":{"type":"Polygon","coordinates":[[[26.628228,47.805139],[26.627036,47.803509],[26.626452,47.803714],[26.627654,47.805357],[26.628228,47.805139]]]}},{"type":"Feature","properties":{"nr":null},"geometry":{"type":"Polygon","coordinates":[[[26.628226,47.805136],[26.628436,47.80506],[26.627247,47.803435],[26.627035,47.803509],[26.628226,47.805136]]]}},{"type":"Feature","properties":{"nr":null},"geometry":{"type":"Polygon","coordinates":[[[26.628436,47.80506],[26.628646,47.804984],[26.627458,47.80336],[26.627247,47.803435],[26.628436,47.80506]]]}},{"type":"Feature","properties":{"nr":null},"geometry":{"type":"Polygon","coordinates":[[[26.628974,47.802797],[26.630114,47.804471],[26.630267,47.804416],[26.630183,47.804302],[26.630401,47.804222],[26.629297,47.802683],[26.628974,47.802797]]]}},{"type":"Feature","properties":{"nr":null},"geometry":{"type":"Polygon","coordinates":[[[26.610231,47.804844],[26.60944,47.80538],[26.611392,47.807093],[26.610231,47.804844]]]}},{"type":"Feature","properties":{"nr":null},"geometry":{"type":"Polygon","coordinates":[[[26.611392,47.807093],[26.611237,47.806791],[26.609546,47.805308],[26.60944,47.80538],[26.611392,47.807093]]]}},{"type":"Feature","properties":{"nr":null},"geometry":{"type":"Polygon","coordinates":[[[26.611237,47.806791],[26.610231,47.804844],[26.609546,47.805308],[26.611237,47.806791]]]}},{"type":"Feature","properties":{"nr":null},"geometry":{"type":"Polygon","coordinates":[[[26.630054,47.804492],[26.629838,47.804569],[26.631198,47.806862],[26.63142,47.806796],[26.630054,47.804492]]]}},{"type":"Feature","properties":{"nr":null},"geometry":{"type":"Polygon","coordinates":[[[26.623303,47.804781],[26.624587,47.806536],[26.624682,47.806497],[26.623401,47.804746],[26.623303,47.804781]]]}},{"type":"Feature","properties":{"nr":null},"geometry":{"type":"Polygon","coordinates":[[[26.640442,47.805514],[26.643641,47.808291],[26.643705,47.808256],[26.640508,47.80548],[26.640442,47.805514]]]}},{"type":"Feature","properties":{"nr":null},"geometry":{"type":"Polygon","coordinates":[[[26.626579,47.80585],[26.628255,47.808365],[26.628329,47.808318],[26.626662,47.805817],[26.626579,47.80585]]]}},{"type":"Feature","properties":{"nr":null},"geometry":{"type":"Polygon","coordinates":[[[26.640962,47.805246],[26.644077,47.808032],[26.644193,47.807942],[26.641098,47.805175],[26.640962,47.805246]]]}},{"type":"Feature","properties":{"nr":null},"geometry":{"type":"Polygon","coordinates":[[[26.627654,47.805357],[26.626452,47.803714],[26.625877,47.803919],[26.627098,47.805588],[26.627654,47.805357]]]}},{"type":"Feature","properties":{"nr":null},"geometry":{"type":"Polygon","coordinates":[[[26.625877,47.803919],[26.625311,47.804122],[26.62655,47.805815],[26.627098,47.805588],[26.625877,47.803919]]]}},{"type":"Feature","properties":{"nr":null},"geometry":{"type":"Polygon","coordinates":[[[26.637185,47.804442],[26.638681,47.805718],[26.638755,47.805693],[26.637266,47.804422],[26.637185,47.804442]]]}},{"type":"Feature","properties":{"nr":null},"geometry":{"type":"Polygon","coordinates":[[[26.625813,47.806125],[26.626855,47.807705],[26.627401,47.808719],[26.627618,47.808622],[26.626029,47.806048],[26.625813,47.806125]]]}}]}