{"type": "FeatureCollection", "features": [{"type": "Feature", "properties": {"nrcad": null, "nr": null, "utr": "", "src": "OCPI 2017 S2"}, "geometry": {"type": "Polygon", "coordinates": [[[26.103725397789795, 44.50080025157027], [26.103804475413693, 44.50001298970665], [26.103400529194037, 44.49999220308226], [26.10338860932752, 44.500027168763815], [26.103629954807204, 44.50079533595287], [26.103725397789795, 44.50080025157027]]]}}, {"type": "Feature", "properties": {"nrcad": "263548", "nr": "263548", "utr": "", "src": "OCPI 2017 S2"}, "geometry": {"type": "Polygon", "coordinates": [[[26.105258104583523, 44.50032358240966], [26.10500875153112, 44.5002333605741], [26.104992428201868, 44.500393014177625], [26.105168864253198, 44.50045937131995], [26.105258104583523, 44.50032358240966]]]}}, {"type": "Feature", "properties": {"nrcad": null, "nr": null, "utr": "", "src": "OCPI 2017 S2"}, "geometry": {"type": "Polygon", "coordinates": [[[26.102116225999737, 44.500717408497216], [26.102680272000672, 44.50074644390774], [26.102692173240012, 44.50071771566271], [26.10139377391105, 44.500437038052226], [26.101381270395606, 44.500561453759374], [26.102116225999737, 44.500717408497216]]]}}, {"type": "Feature", "properties": {"nrcad": "262178", "nr": "262178", "utr": "", "src": "OCPI 2017 S2"}, "geometry": {"type": "Polygon", "coordinates": [[[26.10316652427914, 44.50077147676989], [26.10295455890733, 44.50007953231088], [26.10294551635639, 44.50006106226593], [26.102925885046403, 44.50003995075463], [26.102898811799236, 44.50002359219205], [26.102854890693873, 44.500011358584686], [26.10161931668644, 44.4999004977641], [26.101461791204066, 44.4998923439576], [26.1014442724358, 44.49993447434237], [26.101393799229275, 44.500437046805104], [26.102692173240012, 44.50071771566271], [26.102680272000672, 44.50074644390774], [26.10316652427914, 44.50077147676989]]]}}, {"type": "Feature", "properties": {"nrcad": "262181", "nr": "262181", "utr": "", "src": "OCPI 2017 S2"}, "geometry": {"type": "Polygon", "coordinates": [[[26.103725526170876, 44.500817689212255], [26.104761565366356, 44.50087101193798], [26.10497809216845, 44.5005332410405], [26.105023095276334, 44.500093149833745], [26.10380462189881, 44.50003045237134], [26.103725526170876, 44.500817689212255]]]}}, {"type": "Feature", "properties": {"nrcad": null, "nr": null, "utr": "", "src": "OCPI 2017 S2"}, "geometry": {"type": "Polygon", "coordinates": [[[26.10520598629515, 44.49998552803697], [26.105152369273867, 44.500124279724766], [26.10545527750603, 44.50018427875597], [26.10550889259499, 44.500045526939125], [26.10520598629515, 44.49998552803697]]]}}, {"type": "Feature", "properties": {"nrcad": "256542", "nr": "256542", "utr": "", "src": "OCPI 2017 S2"}, "geometry": {"type": "Polygon", "coordinates": [[[26.10545527750603, 44.50018427875597], [26.105152369273867, 44.500124279724766], [26.10509801987523, 44.50026492502152], [26.105307829042005, 44.500341804549386], [26.105406412225907, 44.50031076161401], [26.10545527750603, 44.50018427875597]]]}}, {"type": "Feature", "properties": {"nrcad": "256561", "nr": "256561", "utr": "", "src": "OCPI 2017 S2"}, "geometry": {"type": "Polygon", "coordinates": [[[26.10120323635409, 44.50007748636961], [26.101372416331877, 44.50011241852393], [26.10146584315662, 44.49988648389618], [26.101293852678637, 44.499858316937015], [26.10120323635409, 44.50007748636961]]]}}, {"type": "Feature", "properties": {"nrcad": "262180", "nr": "262180", "utr": "", "src": "OCPI 2017 S2"}, "geometry": {"type": "Polygon", "coordinates": [[[26.103629954807204, 44.50079533595287], [26.10338860932752, 44.500027168763815], [26.103400529194037, 44.49999220308226], [26.10161931668644, 44.4999004977641], [26.102854890693873, 44.500011358584686], [26.102898811799236, 44.50002359219205], [26.102925885046403, 44.50003995075463], [26.10294551635639, 44.50006106226593], [26.10295455890733, 44.50007953231088], [26.10316652427914, 44.50077147676989], [26.103629954807204, 44.50079533595287]]]}}]}