{"type":"FeatureCollection","name":"zona_531_955","features":[{"type":"Feature","properties":{"nr":null},"geometry":{"type":"Polygon","coordinates":[[[26.6200226,47.7476122],[26.620515,47.7480245],[26.6207148,47.748304],[26.6216898,47.7500073],[26.621769,47.7502242],[26.6217821,47.7505618],[26.6218302,47.7506711],[26.6219713,47.7507507],[26.6221985,47.7507466],[26.6223131,47.7507041],[26.6224878,47.7504495],[26.6225571,47.7502745],[26.6226444,47.7502363],[26.6231509,47.7497747],[26.6232068,47.7497793],[26.623218,47.7497238],[26.6240512,47.7487144],[26.6243791,47.7483608],[26.6245837,47.7482804],[26.6249483,47.748238],[26.6261232,47.7482212],[26.6264105,47.748295],[26.6264791,47.7483717],[26.6264709,47.7484784],[26.6259637,47.7492575],[26.625712,47.7497559],[26.6256142,47.7501195],[26.6256421,47.7503052],[26.6257307,47.7504872],[26.6264653,47.7512984],[26.6265603,47.7514161],[26.6265264,47.7514397],[26.6268853,47.751773],[26.6273532,47.7523078],[26.6274096,47.7524121],[26.6276105,47.7522852],[26.6274551,47.752205],[26.6270624,47.7517662],[26.6271063,47.751748],[26.6258702,47.7503532],[26.6258273,47.7502656],[26.6258047,47.7501607],[26.6258219,47.7500157],[26.6261028,47.7493751],[26.6263323,47.7490117],[26.6266327,47.7486392],[26.6267149,47.7484763],[26.6266352,47.7482535],[26.6264506,47.7481452],[26.6262732,47.7480996],[26.6259121,47.7480778],[26.6248172,47.7481123],[26.6245407,47.748144],[26.624267,47.7482474],[26.6239666,47.7485407],[26.6231991,47.7494934],[26.6225353,47.7500653],[26.622182,47.7504438],[26.6220259,47.7503781],[26.621927,47.7500454],[26.6218119,47.749788],[26.6218327,47.7497327],[26.6217693,47.7497299],[26.6217626,47.7496394],[26.6216141,47.7493505],[26.6213633,47.7490531],[26.6208684,47.7482185],[26.6206553,47.747942],[26.620116,47.7474716],[26.6197199,47.7473762],[26.6187272,47.7473148],[26.6152761,47.7481754],[26.6147517,47.7482529],[26.6145827,47.7482399],[26.6142062,47.74805],[26.6135323,47.7475206],[26.6126274,47.7466735],[26.6121763,47.746342],[26.6106669,47.7453681],[26.6106195,47.7451232],[26.6072631,47.7459548],[26.6067621,47.7460619],[26.6063383,47.7460813],[26.6060794,47.7460035],[26.6055045,47.7457314],[26.6053075,47.7455523],[26.6048409,47.7450166],[26.6039282,47.7439047],[26.6037598,47.7437425],[26.6035907,47.7437108],[26.6032601,47.7437688],[26.6022475,47.7442296],[26.601997,47.7443086],[26.6013342,47.7443744],[26.5996681,47.7444513],[26.598858,47.7446383],[26.5985534,47.7446755],[26.5986044,47.7447897],[26.5982616,47.7450041],[26.5973895,47.7449273],[26.5970183,47.7449872],[26.5953412,47.7453733],[26.5891882,47.7453943],[26.5891624,47.7453664],[26.5891116,47.7453938],[26.5874665,47.7454032],[26.5863597,47.7454701],[26.5863457,47.745446],[26.5853602,47.7455308],[26.5853497,47.7455107],[26.5787691,47.7459872],[26.578507,47.7459854],[26.5780904,47.7459168],[26.5771456,47.7456224],[26.5763896,47.7454289],[26.5758622,47.7453547],[26.5755522,47.7453658],[26.5754987,47.745391],[26.5744725,47.7465159],[26.57437,47.7467067],[26.5743122,47.7470016],[26.5743249,47.7478245],[26.5742822,47.7481022],[26.5741914,47.7482736],[26.5728106,47.7494997],[26.572622,47.7499419],[26.5724974,47.7509817],[26.5722561,47.751653],[26.5723584,47.7519213],[26.5723467,47.7519979],[26.5712584,47.7534748],[26.5711301,47.7536997],[26.5704986,47.7551503],[26.569999,47.7561073],[26.5686792,47.7584408],[26.5682702,47.7590254],[26.5679773,47.7593006],[26.5672438,47.7598549],[26.5670468,47.7600762],[26.565233,47.7611869],[26.5628092,47.7625702],[26.5607907,47.7643675],[26.5582978,47.7663337],[26.5586029,47.7662861],[26.5590636,47.7659299],[26.5603733,47.7649115],[26.5629764,47.7626992],[26.5634554,47.7623939],[26.5652063,47.7614287],[26.5672979,47.7601322],[26.5680713,47.7595275],[26.5684717,47.7591378],[26.5688283,47.7586155],[26.570483,47.7556128],[26.5713659,47.7536135],[26.5715276,47.75336],[26.5725422,47.7520339],[26.572431,47.7516276],[26.5726523,47.7510267],[26.572794,47.7498899],[26.5729204,47.7496522],[26.5730614,47.7494708],[26.5741638,47.7485205],[26.5744095,47.7482465],[26.5744443,47.7481816],[26.5744809,47.7478949],[26.5744957,47.7468446],[26.5745697,47.7466698],[26.5756315,47.7455486],[26.5759137,47.7455035],[26.576426,47.7455822],[26.5782655,47.7460947],[26.5785429,47.7461427],[26.5800101,47.7460551],[26.5814528,47.7459178],[26.5875789,47.7455246],[26.595237,47.7455068],[26.5955645,47.7454859],[26.5957447,47.7454107],[26.5968446,47.7451531],[26.5973784,47.7450648],[26.5977363,47.7450735],[26.5981132,47.7451387],[26.5982701,47.7451676],[26.5983805,47.7452389],[26.5985072,47.7451501],[26.5987993,47.74484],[26.5990582,47.7447101],[26.5998134,47.7445657],[26.601415,47.7445078],[26.6020974,47.7444419],[26.6023505,47.7443686],[26.6029297,47.7440691],[26.6033685,47.7438768],[26.603491,47.7438549],[26.6036746,47.7438766],[26.6047582,47.7451811],[26.605274,47.745731],[26.6051871,47.745747],[26.6063548,47.7462119],[26.6069169,47.746175],[26.6101575,47.7453885],[26.6104771,47.7454475],[26.6119915,47.7463981],[26.6120577,47.7464877],[26.6138762,47.7480974],[26.61404,47.7482081],[26.6145042,47.7483983],[26.6149234,47.748413],[26.6155754,47.7482208],[26.6186388,47.7474567],[26.6190112,47.7474384],[26.6196006,47.7474758],[26.6198356,47.7475198],[26.6200226,47.7476122]]]}},{"type":"Feature","properties":{"nr":null},"geometry":{"type":"Polygon","coordinates":[[[26.5829461,47.7763903],[26.579557,47.7769526],[26.5779242,47.7771564],[26.5777209,47.7772148],[26.5760415,47.7774832],[26.5694142,47.7783985],[26.5670798,47.778969],[26.5660919,47.779242],[26.5599296,47.7820866],[26.5592488,47.7824456],[26.5528299,47.786319],[26.5505065,47.7877614],[26.5481755,47.7891189],[26.5449127,47.7909407],[26.5444274,47.7911824],[26.5437411,47.7914141],[26.5386389,47.7928759],[26.5378372,47.7930676],[26.5351834,47.7933963],[26.5307369,47.793856],[26.5303101,47.7938664],[26.5299732,47.793816],[26.5297929,47.7939727],[26.5299222,47.7941369],[26.5299271,47.7942674],[26.5298869,47.7943591],[26.5293929,47.7948861],[26.5251287,47.7997426],[26.5247316,47.800273],[26.5239915,47.801585],[26.5236041,47.8021779],[26.52267,47.8033301],[26.5223565,47.8036314],[26.5207178,47.8046554],[26.5190827,47.8058975],[26.51912,47.8059159],[26.5181941,47.8066525],[26.5178734,47.8068688],[26.5174855,47.8070649],[26.5169267,47.8072453],[26.5136953,47.8079023],[26.5115957,47.8085615],[26.510804,47.8088488],[26.5109309,47.8089446],[26.5116402,47.8086875],[26.5137225,47.8080316],[26.5144031,47.8078715],[26.5169836,47.8073627],[26.5176081,47.8071643],[26.5179455,47.8069952],[26.5183129,47.8067517],[26.5209625,47.8046677],[26.5224391,47.8037721],[26.5227226,47.8035311],[26.523742,47.8022907],[26.5241414,47.8016884],[26.5248533,47.8004116],[26.5253266,47.7997737],[26.5297104,47.7947832],[26.5300939,47.794454],[26.5305771,47.7941777],[26.5310018,47.7940225],[26.531578,47.7938915],[26.5363729,47.7933888],[26.5377388,47.7932168],[26.5381911,47.7931277],[26.5438248,47.7915289],[26.5445313,47.7912898],[26.5450318,47.7910398],[26.5500548,47.7882232],[26.5594041,47.7825513],[26.5604553,47.7820159],[26.5659452,47.7794726],[26.56641,47.7793127],[26.5684901,47.7787729],[26.5697119,47.7785004],[26.5781418,47.7773345],[26.5814703,47.776825],[26.5815622,47.776842],[26.5834521,47.7765439],[26.5848093,47.7762944],[26.5888881,47.7747235],[26.5929666,47.7729118],[26.5990597,47.7701042],[26.5991599,47.7700288],[26.6009538,47.7691882],[26.6009734,47.7692151],[26.6029624,47.7682857],[26.6043908,47.7675803],[26.607527,47.7661067],[26.611246,47.7644317],[26.6123005,47.7639253],[26.6121622,47.7637111],[26.6068293,47.7661375],[26.6032056,47.7678856],[26.5988238,47.7699309],[26.5988475,47.7699533],[26.5987939,47.7699762],[26.5987746,47.7699545],[26.5928557,47.772648],[26.5890865,47.7744009],[26.5847306,47.7760839],[26.5838263,47.7762998],[26.5833561,47.7763749],[26.5833235,47.7763467],[26.5829461,47.7763903]]]}},{"type":"Feature","properties":{"nr":null},"geometry":{"type":"Polygon","coordinates":[[[26.6021409,47.7921288],[26.6092066,47.7883328],[26.6088903,47.7878229],[26.5989141,47.7927516],[26.5992345,47.7932488],[26.6021409,47.7921288]]]}},{"type":"Feature","properties":{"nr":null},"geometry":{"type":"Polygon","coordinates":[[[26.5986454,47.7921899],[26.5988509,47.7926689],[26.5989141,47.7927516],[26.6088903,47.7878229],[26.6084321,47.7871452],[26.5986454,47.7921899]]]}},{"type":"Feature","properties":{"nr":null},"geometry":{"type":"Polygon","coordinates":[[[26.5987433,47.791536],[26.5986454,47.7921899],[26.6084321,47.7871452],[26.6079636,47.7864816],[26.5987433,47.791536]]]}},{"type":"Feature","properties":{"nr":null},"geometry":{"type":"Polygon","coordinates":[[[26.5987837,47.7912969],[26.5987433,47.791536],[26.6079636,47.7864816],[26.6078558,47.7863325],[26.5987837,47.7912969]]]}},{"type":"Feature","properties":{"nr":null},"geometry":{"type":"Polygon","coordinates":[[[26.6075796,47.7859689],[26.5990812,47.790766],[26.5989685,47.7909669],[26.5988089,47.7911474],[26.5987837,47.7912969],[26.6078558,47.7863325],[26.6075796,47.7859689]]]}},{"type":"Feature","properties":{"nr":null},"geometry":{"type":"Polygon","coordinates":[[[26.6073438,47.7856755],[26.6072967,47.7856227],[26.5990089,47.7903009],[26.5990047,47.7903827],[26.6073438,47.7856755]]]}},{"type":"Feature","properties":{"nr":null},"geometry":{"type":"Polygon","coordinates":[[[26.5990131,47.7902187],[26.5990089,47.7903009],[26.6072967,47.7856227],[26.6072492,47.7855696],[26.5990131,47.7902187]]]}},{"type":"Feature","properties":{"nr":null},"geometry":{"type":"Polygon","coordinates":[[[26.5991101,47.7900315],[26.5990131,47.7902187],[26.6072492,47.7855696],[26.6071705,47.7854816],[26.5991101,47.7900315]]]}},{"type":"Feature","properties":{"nr":null},"geometry":{"type":"Polygon","coordinates":[[[26.6071705,47.7854816],[26.6069228,47.7851933],[26.606597,47.7847173],[26.6030893,47.7866975],[26.6033127,47.7869901],[26.6033594,47.7871086],[26.6033617,47.7872114],[26.6033135,47.7873074],[26.6031372,47.7874768],[26.6024414,47.7879808],[26.6023309,47.7880215],[26.6018977,47.7876305],[26.6018038,47.7876396],[26.6016704,47.7877124],[26.6011914,47.7881085],[26.5999158,47.7890431],[26.5996932,47.789265],[26.599199,47.7898721],[26.5991101,47.7900315],[26.6071705,47.7854816]]]}},{"type":"Feature","properties":{"nr":null},"geometry":{"type":"Polygon","coordinates":[[[26.6073859,47.7857235],[26.6073438,47.7856755],[26.5990047,47.7903827],[26.5990024,47.7904558],[26.6073859,47.7857235]]]}},{"type":"Feature","properties":{"nr":null},"geometry":{"type":"Polygon","coordinates":[[[26.6074249,47.7857729],[26.5990003,47.7905283],[26.5990012,47.7905989],[26.6074637,47.785822],[26.6074249,47.7857729]]]}},{"type":"Feature","properties":{"nr":null},"geometry":{"type":"Polygon","coordinates":[[[26.5990003,47.7905283],[26.6074249,47.7857729],[26.6073859,47.7857235],[26.5990024,47.7904558],[26.5990003,47.7905283]]]}},{"type":"Feature","properties":{"nr":null},"geometry":{"type":"Polygon","coordinates":[[[26.5990012,47.7905989],[26.5990279,47.7906546],[26.6075024,47.7858711],[26.6074637,47.785822],[26.5990012,47.7905989]]]}},{"type":"Feature","properties":{"nr":null},"geometry":{"type":"Polygon","coordinates":[[[26.5990279,47.7906546],[26.5990812,47.790766],[26.6075796,47.7859689],[26.6075024,47.7858711],[26.5990279,47.7906546]]]}}]}