{
  "type": "FeatureCollection",
  "name": "zona_com_baluseni",
  "features": [
    {
      "type": "Feature",
      "properties": {
        "nrcad": "CF55210",
        "EntityHandle": "CF55210",
        "NR_CAD": "CF55210",
        "area": 117691,
        "utr": "ID6",
        "localitate": "Zaicesti",
        "uat": "com-baluseni",
        "sursa": "puz-hcl42-2024"
      },
      "geometry": {
        "type": "Polygon",
        "coordinates": [
          [
            [
              27.4831184,
              47.1342145
            ],
            [
              27.4833925,
              47.1340272
            ],
            [
              27.4828173,
              47.133669
            ],
            [
              27.4829493,
              47.1335562
            ],
            [
              27.4830362,
              47.1334853
            ],
            [
              27.4831591,
              47.1333899
            ],
            [
              27.4833352,
              47.1332531
            ],
            [
              27.4834241,
              47.1331857
            ],
            [
              27.4834989,
              47.1331338
            ],
            [
              27.4835147,
              47.1331167
            ],
            [
              27.4834956,
              47.1331049
            ],
            [
              27.4835724,
              47.1330181
            ],
            [
              27.4835939,
              47.1330313
            ],
            [
              27.4839003,
              47.1327009
            ],
            [
              27.4842401,
              47.1324959
            ],
            [
              27.4842066,
              47.1324709
            ],
            [
              27.4841508,
              47.1325035
            ],
            [
              27.4838568,
              47.1326792
            ],
            [
              27.4837239,
              47.1327753
            ],
            [
              27.4835695,
              47.1329141
            ],
            [
              27.4834287,
              47.1329649
            ],
            [
              27.483331,
              47.1329951
            ],
            [
              27.4832237,
              47.1330799
            ],
            [
              27.4830545,
              47.1331854
            ],
            [
              27.482971,
              47.1332467
            ],
            [
              27.4829908,
              47.1332883
            ],
            [
              27.4828891,
              47.1333443
            ],
            [
              27.4827246,
              47.1334052
            ],
            [
              27.4826252,
              47.1334792
            ],
            [
              27.4824624,
              47.1335917
            ],
            [
              27.4822593,
              47.1337168
            ],
            [
              27.4819639,
              47.1338929
            ],
            [
              27.4816968,
              47.1340859
            ],
            [
              27.4817846,
              47.1342898
            ],
            [
              27.4817096,
              47.1344582
            ],
            [
              27.4814692,
              47.134641
            ],
            [
              27.4811756,
              47.134822
            ],
            [
              27.4808228,
              47.1349963
            ],
            [
              27.4802079,
              47.1351328
            ],
            [
              27.480943,
              47.1355795
            ],
            [
              27.4807681,
              47.1356882
            ],
            [
              27.4831184,
              47.1342145
            ]
          ]
        ]
      }
    },
    {
      "type": "Feature",
      "properties": {
        "nrcad": "CF50194",
        "EntityHandle": "CF50194",
        "NR_CAD": "CF50194",
        "area": 4300,
        "utr": "ID6",
        "localitate": "Zaicesti",
        "uat": "com-baluseni",
        "sursa": "puz-hcl42-2024"
      },
      "geometry": {
        "type": "Polygon",
        "coordinates": [
          [
            [
              27.4844178,
              47.1379057
            ],
            [
              27.4856783,
              47.137567
            ],
            [
              27.4861358,
              47.1373167
            ],
            [
              27.4865199,
              47.1370323
            ],
            [
              27.4872718,
              47.1363939
            ],
            [
              27.4865779,
              47.1360138
            ],
            [
              27.486617,
              47.1359891
            ],
            [
              27.4867901,
              47.1360839
            ],
            [
              27.4892837,
              47.1345058
            ],
            [
              27.4891302,
              47.1343982
            ],
            [
              27.4844178,
              47.1379057
            ]
          ]
        ]
      }
    },
    {
      "type": "Feature",
      "properties": {
        "nrcad": "CF55118",
        "EntityHandle": "CF55118",
        "NR_CAD": "CF55118",
        "area": 4325,
        "utr": "ID5",
        "localitate": "Zaicesti",
        "uat": "com-baluseni",
        "sursa": "puz-hcl42-2024"
      },
      "geometry": {
        "type": "Polygon",
        "coordinates": [
          [
            [
              27.4891302,
              47.1343982
            ],
            [
              27.4888119,
              47.1341859
            ],
            [
              27.4875797,
              47.1349657
            ],
            [
              27.487898,
              47.135178
            ],
            [
              27.4866166,
              47.1359889
            ],
            [
              27.4865776,
              47.1360136
            ],
            [
              27.4863644,
              47.1358968
            ],
            [
              27.4862925,
              47.1358328
            ],
            [
              27.4860313,
              47.1360282
            ],
            [
              27.4891302,
              47.1343982
            ]
          ]
        ]
      }
    }
  ]
}