{"type":"FeatureCollection","name":"zona_535_954","features":[{"type":"Feature","properties":{"nr":null},"geometry":{"type":"Polygon","coordinates":[[[26.7526922,47.7120336],[26.7526662,47.7120127],[26.7524264,47.7122096],[26.7502811,47.7143217],[26.7500705,47.7144908],[26.7499285,47.7146725],[26.7491448,47.7152077],[26.7486818,47.7155721],[26.7481311,47.7159223],[26.7473026,47.7163562],[26.7466674,47.7165757],[26.7462718,47.7167588],[26.7455233,47.7172299],[26.743919,47.7180357],[26.7429901,47.7185415],[26.7430103,47.7185645],[26.7431811,47.718483],[26.7441658,47.7179476],[26.7452072,47.7174328],[26.7462975,47.7167797],[26.7466878,47.7165989],[26.7473237,47.7163792],[26.7475118,47.7162861],[26.748157,47.7159429],[26.7487124,47.7155897],[26.7491741,47.715226],[26.7499608,47.7146886],[26.7501041,47.7145056],[26.7503128,47.7143382],[26.7524588,47.7122253],[26.7526922,47.7120336]]]}},{"type":"Feature","properties":{"nr":null},"geometry":{"type":"Polygon","coordinates":[[[26.7505213,47.714083],[26.7506775,47.7139264],[26.7470249,47.70997],[26.7468175,47.7100712],[26.7505213,47.714083]]]}},{"type":"Feature","properties":{"nr":null},"geometry":{"type":"Polygon","coordinates":[[[26.750315,47.7142884],[26.7503664,47.7142379],[26.7466113,47.7101705],[26.7465434,47.7102032],[26.750315,47.7142884]]]}},{"type":"Feature","properties":{"nr":null},"geometry":{"type":"Polygon","coordinates":[[[26.7464745,47.7102371],[26.7502605,47.7143379],[26.7502811,47.7143217],[26.750315,47.7142884],[26.7465434,47.7102032],[26.7464745,47.7102371]]]}},{"type":"Feature","properties":{"nr":null},"geometry":{"type":"Polygon","coordinates":[[[26.7463745,47.7102867],[26.750176,47.7144043],[26.7502605,47.7143379],[26.7464745,47.7102371],[26.7463745,47.7102867]]]}},{"type":"Feature","properties":{"nr":null},"geometry":{"type":"Polygon","coordinates":[[[26.7462763,47.7103353],[26.750093,47.7144717],[26.750176,47.7144043],[26.7463745,47.7102867],[26.7462763,47.7103353]]]}},{"type":"Feature","properties":{"nr":null},"geometry":{"type":"Polygon","coordinates":[[[26.7459922,47.7104958],[26.7498809,47.7147079],[26.7499285,47.7146725],[26.750093,47.7144717],[26.7462749,47.710336],[26.7459922,47.7104958]]]}},{"type":"Feature","properties":{"nr":null},"geometry":{"type":"Polygon","coordinates":[[[26.7469952,47.7033168],[26.7509597,47.7081239],[26.7510616,47.7080775],[26.7471285,47.7032556],[26.7469952,47.7033168]]]}},{"type":"Feature","properties":{"nr":null},"geometry":{"type":"Polygon","coordinates":[[[26.7509597,47.7081239],[26.7469952,47.7033168],[26.7469193,47.7033517],[26.7508836,47.7081586],[26.7509597,47.7081239]]]}},{"type":"Feature","properties":{"nr":null},"geometry":{"type":"Polygon","coordinates":[[[26.7469193,47.7033517],[26.7468433,47.7033866],[26.7508075,47.7081933],[26.7508836,47.7081586],[26.7469193,47.7033517]]]}},{"type":"Feature","properties":{"nr":null},"geometry":{"type":"Polygon","coordinates":[[[26.7467927,47.7034098],[26.7507567,47.7082164],[26.7508075,47.7081933],[26.7468433,47.7033866],[26.7467927,47.7034098]]]}},{"type":"Feature","properties":{"nr":null},"geometry":{"type":"Polygon","coordinates":[[[26.7467417,47.7034332],[26.7507056,47.7082397],[26.7507567,47.7082164],[26.7467927,47.7034098],[26.7467417,47.7034332]]]}},{"type":"Feature","properties":{"nr":null},"geometry":{"type":"Polygon","coordinates":[[[26.7497246,47.7087097],[26.7504365,47.7083669],[26.7464754,47.7035638],[26.7460137,47.7037819],[26.7497246,47.7087097]]]}},{"type":"Feature","properties":{"nr":null},"geometry":{"type":"Polygon","coordinates":[[[26.7466048,47.703496],[26.749218,47.7023224],[26.7499551,47.7019163],[26.7509707,47.7010525],[26.75117,47.7009655],[26.7518597,47.7008732],[26.7520387,47.700814],[26.7526653,47.7003396],[26.7532864,47.7000795],[26.753957,47.6998914],[26.7541423,47.6998754],[26.7543125,47.6999406],[26.7543635,47.6999312],[26.7541815,47.6998492],[26.7539432,47.6998663],[26.7532684,47.7000556],[26.7526374,47.7003204],[26.7520135,47.7007929],[26.7518477,47.7008476],[26.7510796,47.700964],[26.7508495,47.7010936],[26.7499232,47.7019001],[26.7491943,47.7023006],[26.7458964,47.7037986],[26.7459191,47.7038215],[26.7462358,47.7036892],[26.7466048,47.703496]]]}},{"type":"Feature","properties":{"nr":null},"geometry":{"type":"Polygon","coordinates":[[[26.7467417,47.7034332],[26.7464754,47.7035638],[26.7504365,47.7083669],[26.7507056,47.7082397],[26.7467417,47.7034332]]]}},{"type":"Feature","properties":{"nr":null},"geometry":{"type":"Polygon","coordinates":[[[26.7410233,47.7230339],[26.7429492,47.7254633],[26.7434928,47.7251426],[26.748317,47.7230879],[26.7497011,47.722264],[26.7493344,47.7216872],[26.7492346,47.7213157],[26.7488492,47.7209638],[26.7486659,47.7206669],[26.7492852,47.720989],[26.7502259,47.721411],[26.7504641,47.7218571],[26.7509879,47.7217265],[26.7516228,47.7214275],[26.7514537,47.721302],[26.7512222,47.7209912],[26.7506817,47.7206092],[26.7494455,47.7194247],[26.7450867,47.7211916],[26.7426399,47.72235],[26.7427684,47.7224868],[26.7427234,47.7225061],[26.742589,47.722363],[26.7410233,47.7230339]]]}},{"type":"Feature","properties":{"nr":null},"geometry":{"type":"Polygon","coordinates":[[[26.7408097,47.7282102],[26.739836,47.7290056],[26.7372951,47.7319768],[26.7366857,47.7324093],[26.7357248,47.7328396],[26.7352869,47.7329889],[26.7340409,47.7332571],[26.7205354,47.7360142],[26.7166005,47.7368575],[26.7152522,47.7371271],[26.7144812,47.7372415],[26.7146848,47.7373932],[26.7159807,47.737181],[26.7211532,47.7361157],[26.7253777,47.7352],[26.7346248,47.7333242],[26.7353068,47.7331639],[26.7359055,47.7329694],[26.7365623,47.7326918],[26.7368119,47.7325515],[26.7372369,47.7322666],[26.7377223,47.7318482],[26.739088,47.7302566],[26.7397085,47.7294712],[26.7401569,47.729021],[26.7405551,47.7286738],[26.7413594,47.7281186],[26.7453613,47.7255454],[26.7458309,47.7252767],[26.7462048,47.7251678],[26.7464305,47.7251369],[26.7467771,47.7251406],[26.7474215,47.7252845],[26.7475829,47.7253648],[26.7478768,47.7256257],[26.7481037,47.7260027],[26.7488758,47.727676],[26.7493489,47.7291538],[26.7494731,47.7294583],[26.7495587,47.7295869],[26.7495299,47.7296534],[26.7496445,47.7297699],[26.7505096,47.7302718],[26.7510749,47.7305183],[26.7518495,47.7306324],[26.752235,47.7305779],[26.7527929,47.7304085],[26.752624,47.7302095],[26.7520807,47.7304258],[26.751646,47.730452],[26.7516466,47.7304736],[26.7512524,47.7304234],[26.7509032,47.7303093],[26.7505001,47.7300584],[26.7500542,47.7298637],[26.7498504,47.7297045],[26.749766,47.7296189],[26.7495819,47.7292811],[26.7494491,47.7287019],[26.7492292,47.7279858],[26.7487453,47.7268422],[26.7483217,47.7259403],[26.7480019,47.7254334],[26.7477979,47.7252312],[26.7476503,47.7251439],[26.7473933,47.725059],[26.7469526,47.7249933],[26.7463987,47.7249868],[26.7460025,47.7250511],[26.7457114,47.7251459],[26.7408097,47.7282102]]]}}]}