{"type":"FeatureCollection","name":"zona_533_953","features":[{"type":"Feature","properties":{"nr":null},"geometry":{"type":"Polygon","coordinates":[[[26.6563471,47.7013761],[26.6564972,47.7010231],[26.6533328,47.6999186],[26.6532318,47.7002662],[26.6563471,47.7013761]]]}},{"type":"Feature","properties":{"nr":null},"geometry":{"type":"Polygon","coordinates":[[[26.6852078,47.7067752],[26.6843326,47.7073893],[26.6843568,47.7074021],[26.6840727,47.7076482],[26.6844457,47.7078529],[26.6848986,47.7081671],[26.6887467,47.7058847],[26.6900282,47.7054065],[26.691086,47.7051331],[26.6911776,47.7048515],[26.6913299,47.7041145],[26.6912559,47.7039685],[26.6881001,47.7002422],[26.6881025,47.700106],[26.6877282,47.6996144],[26.6871215,47.6986166],[26.6870339,47.6988078],[26.6869402,47.6992786],[26.6869938,47.6993642],[26.6871577,47.6994992],[26.6874316,47.7000601],[26.687426,47.7002836],[26.687301,47.7004692],[26.6873306,47.7007595],[26.6872555,47.7009161],[26.6869171,47.7012283],[26.686869,47.7014323],[26.687,47.7016744],[26.6870052,47.701916],[26.6870841,47.7020379],[26.6876743,47.7026118],[26.6879419,47.7027473],[26.6886194,47.7028718],[26.6888358,47.7030259],[26.6893537,47.703262],[26.6894646,47.7034583],[26.689461,47.703615],[26.6895578,47.7037885],[26.6893825,47.7040174],[26.6892958,47.7042086],[26.6892264,47.7044884],[26.6892252,47.7046794],[26.6891155,47.7049195],[26.6889282,47.7050508],[26.6879781,47.7049951],[26.6877323,47.7050124],[26.6871019,47.7051204],[26.6866889,47.7052634],[26.6863801,47.705446],[26.6861841,47.7056632],[26.6860775,47.7058663],[26.6857032,47.7062502],[26.6855756,47.7062428],[26.6855409,47.7063767],[26.685797,47.7066226],[26.6855443,47.7067298],[26.6854874,47.7069037],[26.6852078,47.7067752]]]}},{"type":"Feature","properties":{"nr":null},"geometry":{"type":"Polygon","coordinates":[[[26.693777,47.7011584],[26.691904,47.699899],[26.6916344,47.700094],[26.693505,47.7013517],[26.693777,47.7011584]]]}},{"type":"Feature","properties":{"nr":null},"geometry":{"type":"Polygon","coordinates":[[[26.6841693,47.7013649],[26.6843335,47.7015057],[26.68711,47.6999215],[26.6870141,47.6997593],[26.6841693,47.7013649]]]}},{"type":"Feature","properties":{"nr":null},"geometry":{"type":"Polygon","coordinates":[[[26.661049,47.7003342],[26.6639204,47.7014815],[26.6612042,47.6999774],[26.661049,47.7003342]]]}},{"type":"Feature","properties":{"nr":null},"geometry":{"type":"Polygon","coordinates":[[[26.6615762,47.6993244],[26.661515,47.6994519],[26.6651529,47.7015809],[26.6652769,47.7014902],[26.6615762,47.6993244]]]}},{"type":"Feature","properties":{"nr":null},"geometry":{"type":"Polygon","coordinates":[[[26.684215,47.7011632],[26.6869961,47.6995937],[26.6869913,47.6995495],[26.6841809,47.7011356],[26.684215,47.7011632]]]}},{"type":"Feature","properties":{"nr":null},"geometry":{"type":"Polygon","coordinates":[[[26.6612419,47.69991],[26.6644991,47.7017137],[26.6648855,47.7018687],[26.6649253,47.701826],[26.6612946,47.6998156],[26.6612419,47.69991]]]}},{"type":"Feature","properties":{"nr":null},"geometry":{"type":"Polygon","coordinates":[[[26.6844688,47.7016495],[26.6871126,47.700141],[26.68711,47.6999215],[26.6843335,47.7015057],[26.6844688,47.7016495]]]}},{"type":"Feature","properties":{"nr":null},"geometry":{"type":"Polygon","coordinates":[[[26.6580639,47.70136],[26.6592228,47.7019403],[26.6592483,47.7019203],[26.6587728,47.7016846],[26.6587543,47.7016262],[26.6600372,47.700103],[26.6601256,47.7000866],[26.6605203,47.700235],[26.6593843,47.699798],[26.659896,47.6999975],[26.6599211,47.7000589],[26.6586526,47.7015636],[26.6585588,47.7015786],[26.65808,47.7013412],[26.6580639,47.70136]]]}},{"type":"Feature","properties":{"nr":null},"geometry":{"type":"Polygon","coordinates":[[[26.6586602,47.6995771],[26.6574651,47.7009929],[26.6573973,47.7010024],[26.6569469,47.7008007],[26.6580639,47.70136],[26.65808,47.7013412],[26.6575918,47.7010993],[26.6575727,47.7010471],[26.6587764,47.6996212],[26.6588671,47.6996044],[26.6593843,47.699798],[26.6583465,47.6993987],[26.658636,47.6995161],[26.6586602,47.6995771]]]}},{"type":"Feature","properties":{"nr":null},"geometry":{"type":"Polygon","coordinates":[[[26.6598612,47.7259192],[26.6600176,47.725844],[26.6593904,47.7252019],[26.6592515,47.724998],[26.6590453,47.7241033],[26.6590131,47.7239249],[26.6590298,47.7238174],[26.6593104,47.7231741],[26.6592926,47.7230295],[26.6591864,47.7229099],[26.6590553,47.7228157],[26.6579941,47.7224071],[26.6577926,47.7223033],[26.6557955,47.7202827],[26.655689,47.720093],[26.6555706,47.7196677],[26.6553602,47.7194095],[26.6535741,47.7181647],[26.6532279,47.7179499],[26.6529015,47.7178347],[26.6525508,47.7178204],[26.6516457,47.7179162],[26.6515361,47.7178984],[26.6514625,47.7178338],[26.6514527,47.7177365],[26.6515358,47.717627],[26.6521194,47.7173064],[26.6522238,47.7171548],[26.6522219,47.7168251],[26.6524265,47.7163644],[26.6525462,47.7159925],[26.6525284,47.7158222],[26.6519578,47.7150808],[26.6515643,47.7143717],[26.6514808,47.7142834],[26.6512074,47.7141233],[26.6505333,47.7138463],[26.6505088,47.7138113],[26.6505309,47.7137559],[26.65101,47.7133931],[26.6511597,47.7132274],[26.6513538,47.7128583],[26.6544602,47.7059972],[26.654963,47.7049278],[26.6550179,47.7048885],[26.6553426,47.7042378],[26.6553043,47.7042166],[26.655399,47.7040351],[26.6553735,47.7040224],[26.6560074,47.702576],[26.6590208,47.6958519],[26.6590231,47.695598],[26.6588183,47.6954001],[26.6580424,47.6948517],[26.6563548,47.6935545],[26.6562922,47.6934886],[26.6563317,47.693465],[26.656246,47.6933661],[26.6561632,47.6931734],[26.6561527,47.6930505],[26.6562609,47.6927865],[26.6564201,47.6925321],[26.6567457,47.692199],[26.6571142,47.6920739],[26.6572631,47.6919287],[26.6587773,47.6908512],[26.6594467,47.6905785],[26.6595509,47.6904946],[26.6597254,47.6903213],[26.6600669,47.6898428],[26.6598372,47.6898201],[26.6598077,47.6898315],[26.6597207,47.6900718],[26.6594329,47.6904112],[26.6587688,47.6907354],[26.6571416,47.6918676],[26.6567225,47.6920348],[26.6564045,47.6923392],[26.6560448,47.6929113],[26.6559868,47.6930666],[26.6559849,47.6932184],[26.6561177,47.6934913],[26.6562033,47.6935998],[26.6569016,47.694154],[26.6587054,47.6954941],[26.6588384,47.6956597],[26.6588274,47.6958069],[26.6552853,47.7037759],[26.6527316,47.7093766],[26.6520425,47.7108148],[26.6511317,47.7128949],[26.6509614,47.7132025],[26.6507757,47.7133894],[26.650215,47.7137807],[26.6504492,47.7139204],[26.6504517,47.7139629],[26.6513361,47.7143398],[26.6514789,47.7145549],[26.6517301,47.7150715],[26.6522133,47.7156458],[26.6523591,47.7159088],[26.6523692,47.7160192],[26.6520797,47.716744],[26.6520132,47.7171435],[26.6519579,47.7172254],[26.6518111,47.7173281],[26.651303,47.7176102],[26.6512801,47.7177845],[26.6513665,47.7179563],[26.6515153,47.7180356],[26.6517626,47.7180352],[26.6524542,47.717928],[26.6528525,47.717942],[26.653022,47.7179879],[26.6533965,47.7182133],[26.6549786,47.7192898],[26.6553146,47.7195633],[26.6554072,47.7197564],[26.6554335,47.7199424],[26.65558,47.720279],[26.6572677,47.7220422],[26.6575319,47.7222848],[26.6576622,47.7223941],[26.6578975,47.7225203],[26.6588807,47.72292],[26.6590006,47.7229991],[26.6590903,47.7231752],[26.6588675,47.7236397],[26.6588127,47.7236585],[26.6587918,47.7239115],[26.6591147,47.7252237],[26.6592812,47.7253192],[26.6598612,47.7259192]]]}},{"type":"Feature","properties":{"nr":null},"geometry":{"type":"Polygon","coordinates":[[[26.6617781,47.6988988],[26.6654484,47.7011978],[26.6655397,47.7010926],[26.661834,47.6987714],[26.6617781,47.6988988]]]}},{"type":"Feature","properties":{"nr":null},"geometry":{"type":"Polygon","coordinates":[[[26.6616671,47.6991466],[26.6653522,47.7013382],[26.66539,47.7012885],[26.6616958,47.6990916],[26.6616671,47.6991466]]]}},{"type":"Feature","properties":{"nr":null},"geometry":{"type":"Polygon","coordinates":[[[26.6765185,47.7015131],[26.6812985,47.7064692],[26.6816909,47.7069114],[26.6817476,47.7068998],[26.678074,47.7030593],[26.6835579,47.7008897],[26.6835302,47.7008571],[26.6824688,47.7012778],[26.681907,47.7014958],[26.680723,47.7019558],[26.6780486,47.703031],[26.6765704,47.7014923],[26.6770965,47.7012579],[26.6821636,47.6992424],[26.6861705,47.6970192],[26.6861063,47.6969528],[26.6819918,47.6992311],[26.6765222,47.7014138],[26.6764643,47.7013941],[26.6751177,47.7000118],[26.6805471,47.6978671],[26.6805094,47.6978369],[26.675089,47.6999863],[26.673669,47.6985229],[26.6736102,47.6985039],[26.6655993,47.7016831],[26.6650474,47.7019153],[26.6649594,47.7019827],[26.6650202,47.7019997],[26.6651106,47.7019242],[26.6656205,47.7017064],[26.6736256,47.6985406],[26.6763996,47.7013932],[26.6764139,47.7014672],[26.6695036,47.7041931],[26.6692163,47.7040202],[26.6654768,47.7021465],[26.66506,47.7019727],[26.6650204,47.7019997],[26.6657865,47.7023442],[26.6671207,47.7030427],[26.6691756,47.7040476],[26.6694189,47.7042364],[26.6688662,47.7046804],[26.6681431,47.7053861],[26.6682033,47.7054182],[26.6691133,47.7045543],[26.6694422,47.7043031],[26.6738152,47.70682],[26.6738737,47.7067743],[26.671726,47.7055728],[26.6695618,47.7042602],[26.6765185,47.7015131]],[[26.6823374,47.7013288],[26.681907,47.7014958],[26.6817752,47.701547],[26.6802925,47.6999967],[26.6808465,47.6997699],[26.6823374,47.7013288]],[[26.6702298,47.6998911],[26.6716471,47.7013554],[26.6712041,47.7015316],[26.6697859,47.7000662],[26.6702298,47.6998911]]]}},{"type":"Feature","properties":{"nr":null},"geometry":{"type":"Polygon","coordinates":[[[26.6612946,47.6998156],[26.6649355,47.7018314],[26.6650093,47.7017577],[26.6613403,47.6997047],[26.6612946,47.6998156]]]}},{"type":"Feature","properties":{"nr":null},"geometry":{"type":"Polygon","coordinates":[[[26.6751177,47.7000118],[26.6764643,47.7013941],[26.6765222,47.7014138],[26.6769224,47.7012551],[26.6755506,47.699839],[26.6751177,47.7000118]]]}},{"type":"Feature","properties":{"nr":null},"geometry":{"type":"Polygon","coordinates":[[[26.6776499,47.7009665],[26.6762937,47.6995427],[26.6760508,47.6996413],[26.6774055,47.7010635],[26.6776499,47.7009665]]]}},{"type":"Feature","properties":{"nr":null},"geometry":{"type":"Polygon","coordinates":[[[26.6612419,47.69991],[26.6612042,47.6999774],[26.6639204,47.7014815],[26.6644991,47.7017137],[26.6612419,47.69991]]]}},{"type":"Feature","properties":{"nr":null},"geometry":{"type":"Polygon","coordinates":[[[26.6615005,47.6994434],[26.6614247,47.6995642],[26.6650379,47.7016788],[26.665138,47.7015722],[26.6615005,47.6994434]]]}},{"type":"Feature","properties":{"nr":null},"geometry":{"type":"Polygon","coordinates":[[[26.6616958,47.6990916],[26.66539,47.7012885],[26.6654193,47.7012431],[26.6617297,47.6990126],[26.6616958,47.6990916]]]}},{"type":"Feature","properties":{"nr":null},"geometry":{"type":"Polygon","coordinates":[[[26.6838174,47.7009465],[26.683862,47.7009862],[26.6868907,47.6992677],[26.686869,47.6992154],[26.6838174,47.7009465]]]}},{"type":"Feature","properties":{"nr":null},"geometry":{"type":"Polygon","coordinates":[[[26.6617297,47.6990126],[26.6654193,47.7012431],[26.6654484,47.7011978],[26.6617635,47.6989337],[26.6617297,47.6990126]]]}},{"type":"Feature","properties":{"nr":null},"geometry":{"type":"Polygon","coordinates":[[[26.6823374,47.7013288],[26.6808465,47.6997699],[26.6802925,47.6999967],[26.6817752,47.701547],[26.6823374,47.7013288]]]}},{"type":"Feature","properties":{"nr":null},"geometry":{"type":"Polygon","coordinates":[[[26.6817752,47.701547],[26.6802925,47.6999967],[26.6791701,47.7004432],[26.6806469,47.7019873],[26.6817752,47.701547]]]}},{"type":"Feature","properties":{"nr":null},"geometry":{"type":"Polygon","coordinates":[[[26.6828952,47.7011083],[26.6813943,47.6995433],[26.6808465,47.6997699],[26.6823374,47.7013288],[26.6828952,47.7011083]]]}},{"type":"Feature","properties":{"nr":null},"geometry":{"type":"Polygon","coordinates":[[[26.6720902,47.7011792],[26.6706745,47.6997159],[26.6702298,47.6998911],[26.6716471,47.7013554],[26.6720902,47.7011792]]]}},{"type":"Feature","properties":{"nr":null},"geometry":{"type":"Polygon","coordinates":[[[26.6702298,47.6998911],[26.6697859,47.7000662],[26.6712041,47.7015316],[26.6716471,47.7013554],[26.6702298,47.6998911]]]}},{"type":"Feature","properties":{"nr":null},"geometry":{"type":"Polygon","coordinates":[[[26.6928993,47.7032146],[26.6952978,47.7012349],[26.6962619,47.7005116],[26.6966237,47.7001904],[26.6969309,47.6998392],[26.6976564,47.6986955],[26.6982399,47.6976864],[26.6980074,47.697629],[26.6975384,47.6984989],[26.6969165,47.6994758],[26.6966745,47.6998269],[26.6963288,47.7001802],[26.6941246,47.701968],[26.6938548,47.7021062],[26.6930448,47.7027337],[26.6927165,47.703042],[26.6925328,47.7033781],[26.6922395,47.7040848],[26.6919506,47.7045618],[26.6919592,47.7049246],[26.6918074,47.7053235],[26.6921129,47.7053783],[26.6923762,47.7046731],[26.6925342,47.7040991],[26.6927726,47.7034971],[26.6928993,47.7032146]]]}},{"type":"Feature","properties":{"nr":null},"geometry":{"type":"Polygon","coordinates":[[[26.6760508,47.6996413],[26.6756164,47.6998131],[26.6769714,47.7012356],[26.6774055,47.7010635],[26.6760508,47.6996413]]]}}]}