{
  "type": "FeatureCollection",
  "name": "zona_baluseni_zaicesti_puz",
  "features": [
    {
      "type": "Feature",
      "properties": {
        "nrcad": "TR-PUZ-2023",
        "EntityHandle": "TR-PUZ-2023",
        "NR_CAD": "TR-PUZ-2023",
        "area": 52350,
        "utr": "ID",
        "localitate": "Zaicesti",
        "uat": "com-baluseni",
        "sursa": "topo-puz-5632-2023"
      },
      "geometry": {
        "type": "Polygon",
        "coordinates": [
          [
            [
              27.4840985,
              47.135222
            ],
            [
              27.4850223,
              47.135784
            ],
            [
              27.4853156,
              47.1355826
            ],
            [
              27.485831,
              47.1359035
            ],
            [
              27.4860313,
              47.1360282
            ],
            [
              27.4862925,
              47.1358328
            ],
            [
              27.4863644,
              47.1358968
            ],
            [
              27.4872718,
              47.1363939
            ],
            [
              27.4868051,
              47.1367902
            ],
            [
              27.4862557,
              47.1364132
            ],
            [
              27.4856188,
              47.1368433
            ],
            [
              27.4862186,
              47.1372554
            ],
            [
              27.4861358,
              47.1373167
            ],
            [
              27.4856783,
              47.137567
            ],
            [
              27.4854502,
              47.1376283
            ],
            [
              27.4844178,
              47.1379057
            ],
            [
              27.4836548,
              47.1374422
            ],
            [
              27.4830436,
              47.1370708
            ],
            [
              27.4839536,
              47.1364486
            ],
            [
              27.4825769,
              47.1355608
            ],
            [
              27.4840985,
              47.135222
            ]
          ]
        ]
      }
    }
  ]
}