{"type":"FeatureCollection","name":"zona_534_956","features":[{"type":"Feature","properties":{"nr":null},"geometry":{"type":"Polygon","coordinates":[[[26.720061,47.802631],[26.718408,47.800315],[26.718357,47.800334],[26.718198,47.800426],[26.719778,47.802641],[26.720061,47.802631]]]}},{"type":"Feature","properties":{"nr":null},"geometry":{"type":"Polygon","coordinates":[[[26.718345,47.800308],[26.71839,47.800292],[26.716985,47.798326],[26.716855,47.798416],[26.718248,47.800365],[26.718345,47.800308]]]}},{"type":"Feature","properties":{"nr":null},"geometry":{"type":"Polygon","coordinates":[[[26.708657,47.804846],[26.706999,47.802483],[26.706908,47.802537],[26.708568,47.804904],[26.708657,47.804846]]]}},{"type":"Feature","properties":{"nr":null},"geometry":{"type":"Polygon","coordinates":[[[26.707051,47.802412],[26.70293,47.797566],[26.702832,47.797654],[26.703037,47.797926],[26.706919,47.80249],[26.707051,47.802412]]]}},{"type":"Feature","properties":{"nr":null},"geometry":{"type":"Polygon","coordinates":[[[26.702594,47.797868],[26.70251,47.798093],[26.706498,47.802697],[26.706747,47.802563],[26.702594,47.797868]]]}},{"type":"Feature","properties":{"nr":null},"geometry":{"type":"Polygon","coordinates":[[[26.70782,47.805361],[26.705985,47.802936],[26.70577,47.803016],[26.707634,47.805469],[26.70782,47.805361]]]}},{"type":"Feature","properties":{"nr":null},"geometry":{"type":"Polygon","coordinates":[[[26.748965,47.803731],[26.749053,47.803347],[26.745066,47.801332],[26.744995,47.801459],[26.744835,47.801655],[26.744793,47.801727],[26.744774,47.801838],[26.744801,47.802023],[26.748843,47.804065],[26.748965,47.803731]]]}},{"type":"Feature","properties":{"nr":null},"geometry":{"type":"Polygon","coordinates":[[[26.70293,47.797566],[26.707051,47.802412],[26.7072,47.802354],[26.703037,47.797461],[26.70293,47.797566]]]}},{"type":"Feature","properties":{"nr":null},"geometry":{"type":"Polygon","coordinates":[[[26.705928,47.802918],[26.703055,47.799539],[26.703317,47.800077],[26.705778,47.802971],[26.705928,47.802918]]]}},{"type":"Feature","properties":{"nr":null},"geometry":{"type":"Polygon","coordinates":[[[26.710176,47.807011],[26.708673,47.804869],[26.708583,47.804928],[26.710077,47.807057],[26.710176,47.807011]]]}},{"type":"Feature","properties":{"nr":null},"geometry":{"type":"Polygon","coordinates":[[[26.74432,47.80539],[26.747715,47.807106],[26.74785,47.806809],[26.744654,47.805195],[26.74432,47.80539]]]}},{"type":"Feature","properties":{"nr":null},"geometry":{"type":"Polygon","coordinates":[[[26.705064,47.803234],[26.7048,47.803329],[26.706947,47.806146],[26.707118,47.805932],[26.705064,47.803234]]]}},{"type":"Feature","properties":{"nr":null},"geometry":{"type":"Polygon","coordinates":[[[26.742038,47.800383],[26.741366,47.800623],[26.743738,47.801997],[26.74437,47.801696],[26.742038,47.800383]]]}},{"type":"Feature","properties":{"nr":null},"geometry":{"type":"Polygon","coordinates":[[[26.744682,47.805178],[26.744654,47.805195],[26.74785,47.806809],[26.74792,47.806655],[26.744776,47.805067],[26.744682,47.805178]]]}},{"type":"Feature","properties":{"nr":null},"geometry":{"type":"Polygon","coordinates":[[[26.715553,47.801304],[26.71562,47.801274],[26.715507,47.801104],[26.715439,47.801134],[26.715553,47.801304]]]}},{"type":"Feature","properties":{"nr":null},"geometry":{"type":"Polygon","coordinates":[[[26.725581,47.808302],[26.719923,47.805553],[26.71923,47.80577],[26.725283,47.80871],[26.725581,47.808302]]]}},{"type":"Feature","properties":{"nr":null},"geometry":{"type":"Polygon","coordinates":[[[26.737374,47.803658],[26.737753,47.802917],[26.734246,47.80175],[26.733958,47.80252],[26.737374,47.803658]]]}},{"type":"Feature","properties":{"nr":null},"geometry":{"type":"Polygon","coordinates":[[[26.746815,47.797729],[26.746726,47.797657],[26.742916,47.799936],[26.74297,47.800029],[26.746815,47.797729]]]}},{"type":"Feature","properties":{"nr":null},"geometry":{"type":"Polygon","coordinates":[[[26.737957,47.802523],[26.738163,47.802291],[26.738008,47.801631],[26.734703,47.800525],[26.734399,47.801332],[26.737957,47.802523]]]}},{"type":"Feature","properties":{"nr":null},"geometry":{"type":"Polygon","coordinates":[[[26.718625,47.799313],[26.718349,47.799452],[26.72058,47.802607],[26.720878,47.802497],[26.718625,47.799313]]]}},{"type":"Feature","properties":{"nr":null},"geometry":{"type":"Polygon","coordinates":[[[26.706124,47.802842],[26.70636,47.80275],[26.702777,47.798613],[26.702944,47.799171],[26.706124,47.802842]]]}},{"type":"Feature","properties":{"nr":null},"geometry":{"type":"Polygon","coordinates":[[[26.725133,47.800268],[26.723766,47.799203],[26.723349,47.79929],[26.722883,47.799286],[26.724813,47.800789],[26.725069,47.800666],[26.725182,47.800425],[26.725133,47.800268]]]}},{"type":"Feature","properties":{"nr":null},"geometry":{"type":"Polygon","coordinates":[[[26.706705,47.807403],[26.706895,47.807317],[26.706639,47.807061],[26.705035,47.805535],[26.704857,47.805638],[26.706445,47.807143],[26.706705,47.807403]]]}},{"type":"Feature","properties":{"nr":null},"geometry":{"type":"Polygon","coordinates":[[[26.713884,47.801429],[26.713565,47.801583],[26.71512,47.803888],[26.715474,47.803774],[26.713884,47.801429]]]}},{"type":"Feature","properties":{"nr":null},"geometry":{"type":"Polygon","coordinates":[[[26.719097,47.802512],[26.717794,47.800694],[26.717649,47.800741],[26.718971,47.802586],[26.719097,47.802512]]]}},{"type":"Feature","properties":{"nr":null},"geometry":{"type":"Polygon","coordinates":[[[26.719196,47.80012],[26.719947,47.801182],[26.720308,47.801079],[26.719522,47.800026],[26.719196,47.80012]]]}},{"type":"Feature","properties":{"nr":null},"geometry":{"type":"Polygon","coordinates":[[[26.715167,47.801261],[26.716503,47.803269],[26.7168,47.803174],[26.715439,47.801134],[26.715167,47.801261]]]}},{"type":"Feature","properties":{"nr":null},"geometry":{"type":"Polygon","coordinates":[[[26.715178,47.803974],[26.713565,47.801583],[26.712547,47.800117],[26.71221,47.800244],[26.713239,47.801763],[26.714776,47.804151],[26.715178,47.803974]]]}},{"type":"Feature","properties":{"nr":null},"geometry":{"type":"Polygon","coordinates":[[[26.733925,47.802592],[26.734018,47.802353],[26.732604,47.801999],[26.732511,47.802238],[26.733925,47.802592]]]}},{"type":"Feature","properties":{"nr":null},"geometry":{"type":"Polygon","coordinates":[[[26.728844,47.801319],[26.732511,47.802238],[26.732604,47.801999],[26.728889,47.801068],[26.728844,47.801319]]]}},{"type":"Feature","properties":{"nr":null},"geometry":{"type":"Polygon","coordinates":[[[26.735297,47.799049],[26.734979,47.799828],[26.737799,47.800794],[26.737556,47.799822],[26.735297,47.799049]]]}},{"type":"Feature","properties":{"nr":null},"geometry":{"type":"Polygon","coordinates":[[[26.712513,47.80008],[26.710826,47.797702],[26.710653,47.797757],[26.712345,47.800143],[26.712513,47.80008]]]}},{"type":"Feature","properties":{"nr":null},"geometry":{"type":"Polygon","coordinates":[[[26.710761,47.80101],[26.711026,47.800863],[26.706947,47.796061],[26.706717,47.796244],[26.710761,47.80101]]]}},{"type":"Feature","properties":{"nr":null},"geometry":{"type":"Polygon","coordinates":[[[26.705645,47.805339],[26.706584,47.806365],[26.706697,47.806369],[26.706776,47.80635],[26.706883,47.806241],[26.705107,47.804299],[26.705645,47.805339]]]}},{"type":"Feature","properties":{"nr":null},"geometry":{"type":"Polygon","coordinates":[[[26.719507,47.799987],[26.718139,47.798076],[26.717829,47.798209],[26.719172,47.800086],[26.719507,47.799987]]]}},{"type":"Feature","properties":{"nr":null},"geometry":{"type":"Polygon","coordinates":[[[26.706636,47.807769],[26.706761,47.807631],[26.704701,47.805732],[26.704514,47.805813],[26.706636,47.807769]]]}},{"type":"Feature","properties":{"nr":null},"geometry":{"type":"Polygon","coordinates":[[[26.734274,47.801414],[26.729032,47.8001],[26.728889,47.801068],[26.733975,47.802342],[26.734274,47.801414]]]}},{"type":"Feature","properties":{"nr":null},"geometry":{"type":"Polygon","coordinates":[[[26.734441,47.800909],[26.729111,47.799533],[26.729032,47.8001],[26.734274,47.801414],[26.734441,47.800909]]]}},{"type":"Feature","properties":{"nr":null},"geometry":{"type":"Polygon","coordinates":[[[26.711698,47.802187],[26.711786,47.802135],[26.710877,47.801001],[26.710787,47.801051],[26.711698,47.802187]]]}},{"type":"Feature","properties":{"nr":null},"geometry":{"type":"Polygon","coordinates":[[[26.717406,47.800768],[26.717766,47.800655],[26.717233,47.79991],[26.716872,47.800022],[26.717406,47.800768]]]}},{"type":"Feature","properties":{"nr":null},"geometry":{"type":"Polygon","coordinates":[[[26.718865,47.800199],[26.718412,47.800314],[26.719728,47.802164],[26.720128,47.80198],[26.718865,47.800199]]]}},{"type":"Feature","properties":{"nr":null},"geometry":{"type":"Polygon","coordinates":[[[26.747398,47.8078],[26.743822,47.805843],[26.743711,47.805949],[26.747334,47.807932],[26.747398,47.8078]]]}},{"type":"Feature","properties":{"nr":null},"geometry":{"type":"Polygon","coordinates":[[[26.711766,47.802194],[26.711724,47.802219],[26.713687,47.804668],[26.713733,47.804648],[26.711766,47.802194]]]}},{"type":"Feature","properties":{"nr":null},"geometry":{"type":"Polygon","coordinates":[[[26.747464,47.807667],[26.743932,47.805734],[26.743822,47.805843],[26.747398,47.8078],[26.747464,47.807667]]]}},{"type":"Feature","properties":{"nr":null},"geometry":{"type":"Polygon","coordinates":[[[26.712571,47.805174],[26.711178,47.803085],[26.710957,47.80321],[26.712333,47.805284],[26.712571,47.805174]]]}},{"type":"Feature","properties":{"nr":null},"geometry":{"type":"Polygon","coordinates":[[[26.71435,47.799477],[26.714116,47.799578],[26.715194,47.801195],[26.71543,47.801096],[26.71435,47.799477]]]}},{"type":"Feature","properties":{"nr":null},"geometry":{"type":"Polygon","coordinates":[[[26.718226,47.799271],[26.717776,47.799433],[26.718379,47.800277],[26.718849,47.800159],[26.718226,47.799271]]]}},{"type":"Feature","properties":{"nr":null},"geometry":{"type":"Polygon","coordinates":[[[26.733809,47.802956],[26.728857,47.801708],[26.728834,47.802049],[26.733722,47.803281],[26.733809,47.802956]]]}},{"type":"Feature","properties":{"nr":null},"geometry":{"type":"Polygon","coordinates":[[[26.706135,47.808314],[26.70635,47.808071],[26.704094,47.805963],[26.703751,47.806086],[26.706135,47.808314]]]}},{"type":"Feature","properties":{"nr":null},"geometry":{"type":"Polygon","coordinates":[[[26.733722,47.803281],[26.728834,47.802049],[26.728832,47.802327],[26.730439,47.802747],[26.733601,47.803544],[26.733722,47.803281]]]}},{"type":"Feature","properties":{"nr":null},"geometry":{"type":"Polygon","coordinates":[[[26.718668,47.805941],[26.718321,47.806055],[26.724822,47.809213],[26.724938,47.808987],[26.718668,47.805941]]]}},{"type":"Feature","properties":{"nr":null},"geometry":{"type":"Polygon","coordinates":[[[26.724777,47.809457],[26.724892,47.809247],[26.718321,47.806055],[26.717958,47.80615],[26.724777,47.809457]]]}},{"type":"Feature","properties":{"nr":null},"geometry":{"type":"Polygon","coordinates":[[[26.712449,47.801989],[26.712285,47.802021],[26.71402,47.804394],[26.714144,47.804308],[26.712449,47.801989]]]}},{"type":"Feature","properties":{"nr":null},"geometry":{"type":"Polygon","coordinates":[[[26.73357,47.803677],[26.733406,47.803972],[26.736845,47.805149],[26.736976,47.804843],[26.73357,47.803677]]]}},{"type":"Feature","properties":{"nr":null},"geometry":{"type":"Polygon","coordinates":[[[26.722251,47.799388],[26.721686,47.799571],[26.721377,47.79964],[26.723624,47.80139],[26.72435,47.801023],[26.722251,47.799388]]]}},{"type":"Feature","properties":{"nr":null},"geometry":{"type":"Polygon","coordinates":[[[26.708543,47.795291],[26.70834,47.795353],[26.709941,47.797134],[26.710455,47.797826],[26.712161,47.800229],[26.712345,47.800143],[26.710653,47.797757],[26.710141,47.797067],[26.708543,47.795291]]]}},{"type":"Feature","properties":{"nr":null},"geometry":{"type":"Polygon","coordinates":[[[26.732611,47.80552],[26.73232,47.806242],[26.736157,47.807131],[26.736396,47.806401],[26.732611,47.80552]]]}},{"type":"Feature","properties":{"nr":null},"geometry":{"type":"Polygon","coordinates":[[[26.722883,47.799286],[26.722331,47.799363],[26.722251,47.799388],[26.72435,47.801023],[26.724813,47.800789],[26.722883,47.799286]]]}},{"type":"Feature","properties":{"nr":null},"geometry":{"type":"Polygon","coordinates":[[[26.714099,47.801371],[26.715668,47.803633],[26.716055,47.803497],[26.714545,47.801319],[26.714099,47.801371]]]}},{"type":"Feature","properties":{"nr":null},"geometry":{"type":"Polygon","coordinates":[[[26.712728,47.805103],[26.712844,47.805051],[26.711341,47.802797],[26.711274,47.802922],[26.712728,47.805103]]]}},{"type":"Feature","properties":{"nr":null},"geometry":{"type":"Polygon","coordinates":[[[26.704137,47.796865],[26.708358,47.801828],[26.708468,47.801795],[26.704247,47.796832],[26.704137,47.796865]]]}},{"type":"Feature","properties":{"nr":null},"geometry":{"type":"Polygon","coordinates":[[[26.716463,47.800931],[26.71787,47.803102],[26.718199,47.802993],[26.716868,47.800939],[26.716463,47.800931]]]}},{"type":"Feature","properties":{"nr":null},"geometry":{"type":"Polygon","coordinates":[[[26.716433,47.800885],[26.716616,47.800889],[26.714572,47.79773],[26.714426,47.797788],[26.716433,47.800885]]]}},{"type":"Feature","properties":{"nr":null},"geometry":{"type":"Polygon","coordinates":[[[26.713098,47.799928],[26.714075,47.801337],[26.714697,47.801268],[26.713628,47.799739],[26.713098,47.799928]]]}},{"type":"Feature","properties":{"nr":null},"geometry":{"type":"Polygon","coordinates":[[[26.743932,47.805734],[26.747464,47.807667],[26.747648,47.807249],[26.744285,47.805408],[26.743932,47.805734]]]}},{"type":"Feature","properties":{"nr":null},"geometry":{"type":"Polygon","coordinates":[[[26.706253,47.796572],[26.706076,47.796672],[26.710089,47.801296],[26.710298,47.801233],[26.706253,47.796572]]]}},{"type":"Feature","properties":{"nr":null},"geometry":{"type":"Polygon","coordinates":[[[26.745395,47.800846],[26.745006,47.801302],[26.749053,47.803347],[26.748734,47.802743],[26.748484,47.802606],[26.747607,47.802352],[26.747061,47.802008],[26.746844,47.80177],[26.746796,47.801573],[26.745395,47.800846]]]}},{"type":"Feature","properties":{"nr":null},"geometry":{"type":"Polygon","coordinates":[[[26.712287,47.802024],[26.712048,47.802065],[26.713856,47.804539],[26.71402,47.804394],[26.712287,47.802024]]]}},{"type":"Feature","properties":{"nr":null},"geometry":{"type":"Polygon","coordinates":[[[26.744791,47.802506],[26.744727,47.804213],[26.748077,47.806283],[26.748643,47.804615],[26.744791,47.802506]]]}},{"type":"Feature","properties":{"nr":null},"geometry":{"type":"Polygon","coordinates":[[[26.737157,47.804314],[26.73732,47.804018],[26.733868,47.802836],[26.733777,47.803156],[26.737157,47.804314]]]}},{"type":"Feature","properties":{"nr":null},"geometry":{"type":"Polygon","coordinates":[[[26.713239,47.801763],[26.71221,47.800244],[26.711952,47.800353],[26.712964,47.801843],[26.713164,47.801793],[26.713239,47.801763]]]}},{"type":"Feature","properties":{"nr":null},"geometry":{"type":"Polygon","coordinates":[[[26.708364,47.801854],[26.709902,47.804032],[26.709925,47.804011],[26.708393,47.801843],[26.708364,47.801854]]]}},{"type":"Feature","properties":{"nr":null},"geometry":{"type":"Polygon","coordinates":[[[26.71326,47.801795],[26.713221,47.801816],[26.713025,47.801876],[26.712918,47.801898],[26.714482,47.804328],[26.714776,47.804151],[26.71326,47.801795]]]}},{"type":"Feature","properties":{"nr":null},"geometry":{"type":"Polygon","coordinates":[[[26.737783,47.800524],[26.742733,47.799285],[26.742401,47.79878],[26.737644,47.79997],[26.737783,47.800524]]]}},{"type":"Feature","properties":{"nr":null},"geometry":{"type":"Polygon","coordinates":[[[26.709929,47.804069],[26.711207,47.805878],[26.711283,47.805822],[26.709998,47.804004],[26.709929,47.804069]]]}},{"type":"Feature","properties":{"nr":null},"geometry":{"type":"Polygon","coordinates":[[[26.71706,47.800869],[26.718398,47.802936],[26.718622,47.802831],[26.717323,47.800825],[26.71706,47.800869]]]}},{"type":"Feature","properties":{"nr":null},"geometry":{"type":"Polygon","coordinates":[[[26.706782,47.80261],[26.706675,47.802661],[26.708348,47.805046],[26.708447,47.804982],[26.706782,47.80261]]]}},{"type":"Feature","properties":{"nr":null},"geometry":{"type":"Polygon","coordinates":[[[26.707758,47.800167],[26.704935,47.79677],[26.70459,47.7968],[26.707496,47.800297],[26.707758,47.800167]]]}},{"type":"Feature","properties":{"nr":null},"geometry":{"type":"Polygon","coordinates":[[[26.748643,47.804615],[26.748843,47.804065],[26.745195,47.802222],[26.745172,47.802715],[26.748643,47.804615]]]}},{"type":"Feature","properties":{"nr":null},"geometry":{"type":"Polygon","coordinates":[[[26.715833,47.798972],[26.717039,47.800836],[26.717231,47.800803],[26.716012,47.798919],[26.715833,47.798972]]]}},{"type":"Feature","properties":{"nr":null},"geometry":{"type":"Polygon","coordinates":[[[26.708463,47.805005],[26.708362,47.80507],[26.709872,47.807222],[26.709975,47.80716],[26.708463,47.805005]]]}},{"type":"Feature","properties":{"nr":null},"geometry":{"type":"Polygon","coordinates":[[[26.717824,47.803031],[26.716463,47.800931],[26.7161,47.800907],[26.717576,47.80303],[26.717824,47.803031]]]}},{"type":"Feature","properties":{"nr":null},"geometry":{"type":"Polygon","coordinates":[[[26.744715,47.804565],[26.74474,47.803873],[26.740149,47.802389],[26.739545,47.802896],[26.744715,47.804565]]]}},{"type":"Feature","properties":{"nr":null},"geometry":{"type":"Polygon","coordinates":[[[26.716434,47.800886],[26.7153,47.799136],[26.715,47.799213],[26.716074,47.800871],[26.716434,47.800886]]]}},{"type":"Feature","properties":{"nr":null},"geometry":{"type":"Polygon","coordinates":[[[26.708468,47.801795],[26.708584,47.801761],[26.704366,47.796816],[26.704261,47.796848],[26.708468,47.801795]]]}},{"type":"Feature","properties":{"nr":null},"geometry":{"type":"Polygon","coordinates":[[[26.706769,47.802545],[26.706902,47.80247],[26.703037,47.797926],[26.702806,47.797619],[26.702692,47.797751],[26.706769,47.802545]]]}},{"type":"Feature","properties":{"nr":null},"geometry":{"type":"Polygon","coordinates":[[[26.711959,47.800294],[26.712161,47.800229],[26.710455,47.797826],[26.710048,47.797277],[26.709927,47.797452],[26.710255,47.797895],[26.711959,47.800294]]]}},{"type":"Feature","properties":{"nr":null},"geometry":{"type":"Polygon","coordinates":[[[26.734499,47.800754],[26.734551,47.800615],[26.729362,47.799276],[26.729244,47.799397],[26.734499,47.800754]]]}},{"type":"Feature","properties":{"nr":null},"geometry":{"type":"Polygon","coordinates":[[[26.717369,47.806338],[26.724548,47.809735],[26.724777,47.809457],[26.717958,47.80615],[26.717369,47.806338]]]}},{"type":"Feature","properties":{"nr":null},"geometry":{"type":"Polygon","coordinates":[[[26.711906,47.800335],[26.709884,47.797506],[26.708124,47.795457],[26.707891,47.795473],[26.709748,47.797638],[26.711736,47.800411],[26.711906,47.800335]]]}},{"type":"Feature","properties":{"nr":null},"geometry":{"type":"Polygon","coordinates":[[[26.707891,47.795473],[26.707776,47.795499],[26.709653,47.797686],[26.711641,47.80046],[26.711736,47.800411],[26.709748,47.797638],[26.707891,47.795473]]]}},{"type":"Feature","properties":{"nr":null},"geometry":{"type":"Polygon","coordinates":[[[26.737857,47.800813],[26.742907,47.799549],[26.742792,47.799375],[26.737808,47.800621],[26.737857,47.800813]]]}},{"type":"Feature","properties":{"nr":null},"geometry":{"type":"Polygon","coordinates":[[[26.742974,47.799651],[26.742907,47.799549],[26.737857,47.800813],[26.737885,47.800924],[26.742974,47.799651]]]}},{"type":"Feature","properties":{"nr":null},"geometry":{"type":"Polygon","coordinates":[[[26.706227,47.796543],[26.710298,47.801233],[26.710478,47.801146],[26.706405,47.796453],[26.706227,47.796543]]]}},{"type":"Feature","properties":{"nr":null},"geometry":{"type":"Polygon","coordinates":[[[26.706947,47.806146],[26.7048,47.803329],[26.70468,47.803382],[26.704855,47.803705],[26.705467,47.804564],[26.706883,47.806241],[26.706947,47.806146]]]}},{"type":"Feature","properties":{"nr":null},"geometry":{"type":"Polygon","coordinates":[[[26.737885,47.800924],[26.737956,47.801199],[26.742927,47.799956],[26.742916,47.799936],[26.743092,47.799831],[26.742974,47.799651],[26.737885,47.800924]]]}},{"type":"Feature","properties":{"nr":null},"geometry":{"type":"Polygon","coordinates":[[[26.737956,47.801199],[26.73823,47.802266],[26.73866,47.802092],[26.739302,47.801858],[26.739528,47.801753],[26.739869,47.801519],[26.740022,47.801398],[26.740182,47.801238],[26.740243,47.801157],[26.740309,47.801099],[26.740436,47.801014],[26.7406,47.800929],[26.74097,47.80076],[26.741387,47.800587],[26.74185,47.800423],[26.741969,47.800374],[26.742234,47.800231],[26.742634,47.800106],[26.74297,47.800029],[26.742927,47.799956],[26.737956,47.801199]]]}},{"type":"Feature","properties":{"nr":null},"geometry":{"type":"Polygon","coordinates":[[[26.706048,47.796639],[26.705858,47.796724],[26.709875,47.801352],[26.710089,47.801296],[26.706048,47.796639]]]}},{"type":"Feature","properties":{"nr":null},"geometry":{"type":"Polygon","coordinates":[[[26.707264,47.795762],[26.707074,47.795916],[26.711187,47.800758],[26.711393,47.800622],[26.707264,47.795762]]]}},{"type":"Feature","properties":{"nr":null},"geometry":{"type":"Polygon","coordinates":[[[26.73423,47.801745],[26.737753,47.802917],[26.737861,47.802709],[26.734305,47.801526],[26.73423,47.801745]]]}},{"type":"Feature","properties":{"nr":null},"geometry":{"type":"Polygon","coordinates":[[[26.731606,47.807277],[26.732064,47.806574],[26.73232,47.806242],[26.732374,47.806108],[26.72758,47.805456],[26.728625,47.803128],[26.728689,47.801657],[26.728683,47.801133],[26.728375,47.800544],[26.728049,47.800534],[26.727721,47.800703],[26.727206,47.80118],[26.726656,47.801823],[26.726529,47.802025],[26.726244,47.802265],[26.725946,47.80263],[26.725269,47.802989],[26.724934,47.803096],[26.724528,47.803542],[26.72431,47.8035],[26.723593,47.803737],[26.723251,47.803946],[26.723011,47.804163],[26.72277,47.804427],[26.722669,47.804501],[26.722202,47.8047],[26.721804,47.804916],[26.72167,47.804935],[26.721342,47.8049],[26.721038,47.804983],[26.720604,47.805408],[26.719923,47.805553],[26.725813,47.808414],[26.729947,47.810029],[26.730685,47.808913],[26.731606,47.807277]]]}},{"type":"Feature","properties":{"nr":null},"geometry":{"type":"Polygon","coordinates":[[[26.70941,47.80449],[26.709453,47.804458],[26.70776,47.802087],[26.707712,47.80211],[26.70941,47.80449]]]}},{"type":"Feature","properties":{"nr":null},"geometry":{"type":"Polygon","coordinates":[[[26.747934,47.806621],[26.748077,47.806283],[26.744727,47.804213],[26.744715,47.804565],[26.744791,47.804928],[26.747934,47.806621]]]}},{"type":"Feature","properties":{"nr":null},"geometry":{"type":"Polygon","coordinates":[[[26.710937,47.806537],[26.711043,47.806471],[26.709576,47.804416],[26.709478,47.804494],[26.710937,47.806537]]]}},{"type":"Feature","properties":{"nr":null},"geometry":{"type":"Polygon","coordinates":[[[26.709453,47.804458],[26.709535,47.804392],[26.707847,47.802027],[26.707743,47.802063],[26.709453,47.804458]]]}},{"type":"Feature","properties":{"nr":null},"geometry":{"type":"Polygon","coordinates":[[[26.736477,47.806151],[26.73292,47.804966],[26.732611,47.80552],[26.736396,47.806401],[26.736477,47.806151]]]}},{"type":"Feature","properties":{"nr":null},"geometry":{"type":"Polygon","coordinates":[[[26.704701,47.805732],[26.707006,47.807856],[26.707189,47.807567],[26.706705,47.807403],[26.706445,47.807143],[26.704857,47.805638],[26.704701,47.805732]]]}},{"type":"Feature","properties":{"nr":null},"geometry":{"type":"Polygon","coordinates":[[[26.715479,47.807532],[26.715976,47.80724],[26.716383,47.806831],[26.716998,47.806474],[26.717311,47.806331],[26.719915,47.805531],[26.720166,47.805474],[26.720742,47.805123],[26.721035,47.804977],[26.721342,47.8049],[26.72167,47.804935],[26.721804,47.804916],[26.722202,47.8047],[26.722669,47.804501],[26.72277,47.804427],[26.723011,47.804163],[26.723251,47.803946],[26.723593,47.803737],[26.7237,47.803702],[26.722443,47.802471],[26.721716,47.802659],[26.719046,47.803295],[26.718301,47.803486],[26.717819,47.803601],[26.718094,47.803967],[26.718186,47.80438],[26.718113,47.804385],[26.718031,47.803979],[26.717736,47.803621],[26.717146,47.803782],[26.716562,47.804025],[26.713893,47.805226],[26.713363,47.805523],[26.715479,47.807532]]]}},{"type":"Feature","properties":{"nr":null},"geometry":{"type":"Polygon","coordinates":[[[26.696119,47.802757],[26.696249,47.803309],[26.696358,47.803687],[26.696421,47.804152],[26.69665,47.804883],[26.696795,47.805225],[26.698109,47.804469],[26.698341,47.804768],[26.698543,47.805105],[26.698552,47.805243],[26.69839,47.80547],[26.697917,47.806629],[26.69811,47.806922],[26.697995,47.807125],[26.697804,47.807314],[26.698039,47.807535],[26.698276,47.807724],[26.698512,47.807616],[26.698749,47.807703],[26.699036,47.808018],[26.699689,47.807765],[26.699885,47.807701],[26.700289,47.807513],[26.702518,47.806577],[26.703519,47.806137],[26.703769,47.806036],[26.704459,47.805796],[26.7047,47.805681],[26.705192,47.805394],[26.705503,47.805265],[26.70457,47.803423],[26.704213,47.802417],[26.703574,47.800933],[26.703176,47.799984],[26.702968,47.799566],[26.702483,47.798373],[26.702023,47.798602],[26.701542,47.798945],[26.701137,47.799049],[26.70045,47.7991],[26.700564,47.799195],[26.700676,47.799444],[26.700737,47.799674],[26.700738,47.799785],[26.697454,47.801816],[26.696119,47.802757]]]}},{"type":"Feature","properties":{"nr":null},"geometry":{"type":"Polygon","coordinates":[[[26.704094,47.805963],[26.705958,47.807705],[26.70612,47.80764],[26.704262,47.805903],[26.704094,47.805963]]]}},{"type":"Feature","properties":{"nr":null},"geometry":{"type":"Polygon","coordinates":[[[26.710379,47.803362],[26.71043,47.803331],[26.709087,47.801624],[26.709029,47.801644],[26.710379,47.803362]]]}},{"type":"Feature","properties":{"nr":null},"geometry":{"type":"Polygon","coordinates":[[[26.712007,47.805839],[26.712068,47.8058],[26.710482,47.80341],[26.710418,47.803447],[26.712007,47.805839]]]}},{"type":"Feature","properties":{"nr":null},"geometry":{"type":"Polygon","coordinates":[[[26.732079,47.784224],[26.733428,47.784521],[26.733804,47.784618],[26.734011,47.78468],[26.734344,47.784806],[26.734514,47.784883],[26.734994,47.785129],[26.735334,47.785319],[26.735498,47.785422],[26.735621,47.785516],[26.735715,47.785618],[26.735796,47.785761],[26.735826,47.785874],[26.735837,47.786029],[26.735824,47.78842],[26.735838,47.788645],[26.735851,47.789483],[26.735911,47.790557],[26.736027,47.792021],[26.736082,47.79235],[26.736154,47.792658],[26.736252,47.793002],[26.736322,47.793194],[26.736393,47.793334],[26.736456,47.793432],[26.736525,47.793512],[26.736625,47.793602],[26.736746,47.793679],[26.736911,47.793755],[26.737265,47.793882],[26.738388,47.794357],[26.738734,47.794469],[26.739059,47.794535],[26.739458,47.794562],[26.741682,47.794612],[26.742251,47.794638],[26.742598,47.79466],[26.742805,47.794702],[26.742979,47.794764],[26.743117,47.794832],[26.743318,47.794973],[26.745482,47.796673],[26.74612,47.797123],[26.746475,47.797424],[26.746726,47.797657],[26.746815,47.797729],[26.746931,47.797871],[26.747027,47.798026],[26.747073,47.798175],[26.747086,47.798329],[26.747039,47.798698],[26.747013,47.799145],[26.747064,47.799952],[26.747071,47.800277],[26.747058,47.800375],[26.746869,47.801006],[26.746823,47.801215],[26.746819,47.801408],[26.746796,47.801573],[26.746844,47.80177],[26.747061,47.802008],[26.747607,47.802352],[26.748484,47.802606],[26.748734,47.802743],[26.749053,47.803347],[26.749125,47.803416],[26.749129,47.803339],[26.749221,47.803115],[26.749076,47.802823],[26.748984,47.802678],[26.748853,47.802545],[26.748767,47.802492],[26.74859,47.802418],[26.747981,47.802278],[26.747716,47.802179],[26.74758,47.802113],[26.747467,47.802041],[26.747338,47.801938],[26.747216,47.801803],[26.747149,47.801697],[26.747106,47.801604],[26.747041,47.801324],[26.74706,47.801178],[26.74716,47.80082],[26.74728,47.800452],[26.747298,47.800282],[26.747287,47.799849],[26.747248,47.799493],[26.747223,47.799364],[26.747245,47.799208],[26.747277,47.798376],[26.747273,47.798226],[26.747256,47.798079],[26.747183,47.797873],[26.746975,47.797654],[26.746622,47.797352],[26.74396,47.795265],[26.743461,47.79485],[26.743264,47.794716],[26.743135,47.794651],[26.742997,47.794595],[26.742784,47.794535],[26.742536,47.794498],[26.742259,47.794486],[26.741345,47.794472],[26.739421,47.794411],[26.738505,47.794244],[26.738163,47.794121],[26.737171,47.793655],[26.736821,47.793506],[26.736694,47.793382],[26.736568,47.793188],[26.736332,47.792541],[26.736212,47.791775],[26.736169,47.791229],[26.735992,47.788535],[26.735996,47.78587],[26.735916,47.785597],[26.735771,47.785446],[26.735521,47.785251],[26.734951,47.784934],[26.7346,47.784757],[26.73431,47.784633],[26.733934,47.784505],[26.73353,47.784404],[26.732135,47.784093],[26.732079,47.784224]]]}},{"type":"Feature","properties":{"nr":null},"geometry":{"type":"Polygon","coordinates":[[[26.729362,47.799276],[26.734551,47.800615],[26.734631,47.800401],[26.729546,47.799089],[26.729362,47.799276]]]}},{"type":"Feature","properties":{"nr":null},"geometry":{"type":"Polygon","coordinates":[[[26.712996,47.805698],[26.712838,47.805782],[26.712734,47.805926],[26.714737,47.807898],[26.714875,47.807808],[26.715058,47.807724],[26.712996,47.805698]]]}},{"type":"Feature","properties":{"nr":null},"geometry":{"type":"Polygon","coordinates":[[[26.733422,47.79357],[26.733361,47.79354],[26.733523,47.793338],[26.733585,47.793368],[26.733746,47.793168],[26.73407,47.792915],[26.734357,47.792626],[26.734475,47.792482],[26.734662,47.791929],[26.734795,47.791666],[26.734617,47.791654],[26.73451,47.791948],[26.734378,47.79245],[26.734274,47.792599],[26.734092,47.792761],[26.733725,47.793043],[26.733126,47.793769],[26.73282,47.794187],[26.732587,47.794405],[26.732268,47.794823],[26.732341,47.794847],[26.732165,47.795074],[26.732089,47.79505],[26.731337,47.795991],[26.731109,47.796308],[26.731013,47.796495],[26.730875,47.7968],[26.730602,47.797298],[26.730407,47.797694],[26.729937,47.798496],[26.729698,47.798756],[26.728936,47.799315],[26.727219,47.800508],[26.72664,47.800886],[26.726186,47.801151],[26.725916,47.801269],[26.725146,47.801539],[26.723028,47.802245],[26.722515,47.802376],[26.722071,47.802472],[26.71933,47.803157],[26.717382,47.803608],[26.717047,47.803734],[26.715344,47.804505],[26.714416,47.804909],[26.713519,47.805338],[26.713249,47.805457],[26.712751,47.805773],[26.712611,47.80595],[26.7125,47.806137],[26.712397,47.806284],[26.712145,47.806502],[26.711835,47.806612],[26.711751,47.806631],[26.711326,47.806889],[26.710549,47.807238],[26.710336,47.807348],[26.710244,47.807443],[26.710187,47.807561],[26.710154,47.807691],[26.710093,47.807849],[26.710016,47.807955],[26.709735,47.808233],[26.709548,47.808506],[26.709421,47.808612],[26.709301,47.808729],[26.709194,47.808811],[26.709024,47.808896],[26.708862,47.809007],[26.708752,47.809112],[26.708646,47.809249],[26.708566,47.809406],[26.708436,47.809583],[26.70829,47.809828],[26.708161,47.810068],[26.707984,47.81051],[26.707823,47.810814],[26.707468,47.811397],[26.707286,47.811614],[26.707027,47.811996],[26.706912,47.812109],[26.706815,47.812232],[26.70668,47.812353],[26.70656,47.812476],[26.706131,47.81288],[26.706062,47.812981],[26.705941,47.81312],[26.705861,47.813188],[26.705774,47.813296],[26.705708,47.813399],[26.705587,47.813524],[26.70561,47.813548],[26.705661,47.813501],[26.705744,47.813412],[26.70581,47.813308],[26.705894,47.813203],[26.705974,47.813135],[26.706097,47.812994],[26.706166,47.812893],[26.706848,47.812247],[26.707131,47.811949],[26.707451,47.811505],[26.707521,47.811378],[26.707861,47.810823],[26.708022,47.810518],[26.708272,47.809953],[26.708434,47.809682],[26.708576,47.809479],[26.708675,47.809313],[26.708832,47.809104],[26.708973,47.808988],[26.70921,47.808865],[26.709557,47.80858],[26.709754,47.808319],[26.709942,47.808121],[26.710073,47.808032],[26.71021,47.80775],[26.710289,47.807487],[26.71037,47.807392],[26.711225,47.80699],[26.711662,47.806749],[26.711976,47.806639],[26.712117,47.806601],[26.712291,47.806483],[26.712455,47.806321],[26.712586,47.806157],[26.712789,47.805823],[26.712868,47.805765],[26.713128,47.805628],[26.713271,47.805518],[26.71364,47.805367],[26.713893,47.805226],[26.716562,47.804025],[26.717146,47.803782],[26.717635,47.803645],[26.718301,47.803486],[26.719046,47.803295],[26.721716,47.802659],[26.722443,47.802471],[26.723155,47.802264],[26.725102,47.801618],[26.725818,47.801365],[26.72613,47.801247],[26.726634,47.800962],[26.726932,47.800782],[26.727322,47.800532],[26.727959,47.800074],[26.728467,47.799752],[26.729027,47.799368],[26.729476,47.799039],[26.72987,47.79871],[26.730042,47.798482],[26.730431,47.797846],[26.730548,47.797688],[26.730745,47.797316],[26.731072,47.79658],[26.731271,47.796276],[26.73163,47.795813],[26.732069,47.795279],[26.73248,47.794728],[26.732668,47.794507],[26.73271,47.794525],[26.732902,47.79423],[26.733422,47.79357]]]}}]}