{"type":"FeatureCollection","name":"zona_535_955","features":[{"type":"Feature","properties":{"nr":null},"geometry":{"type":"Polygon","coordinates":[[[26.75086,47.776313],[26.745626,47.773087],[26.745513,47.773168],[26.75069,47.776359],[26.75086,47.776313]]]}},{"type":"Feature","properties":{"nr":null},"geometry":{"type":"Polygon","coordinates":[[[26.753294,47.7757],[26.747123,47.771896],[26.746979,47.772007],[26.753101,47.77578],[26.753294,47.7757]]]}},{"type":"Feature","properties":{"nr":null},"geometry":{"type":"Polygon","coordinates":[[[26.752776,47.775836],[26.746793,47.772148],[26.746574,47.772315],[26.752345,47.775872],[26.752776,47.775836]]]}},{"type":"Feature","properties":{"nr":null},"geometry":{"type":"Polygon","coordinates":[[[26.752177,47.775887],[26.746488,47.77238],[26.74642,47.772432],[26.752044,47.775898],[26.752177,47.775887]]]}},{"type":"Feature","properties":{"nr":null},"geometry":{"type":"Polygon","coordinates":[[[26.752044,47.775898],[26.74642,47.772432],[26.746292,47.77253],[26.751833,47.775945],[26.751891,47.775911],[26.752044,47.775898]]]}},{"type":"Feature","properties":{"nr":null},"geometry":{"type":"Polygon","coordinates":[[[26.751833,47.775945],[26.746292,47.77253],[26.746249,47.772563],[26.751783,47.775974],[26.751833,47.775945]]]}},{"type":"Feature","properties":{"nr":null},"geometry":{"type":"Polygon","coordinates":[[[26.751783,47.775974],[26.746249,47.772563],[26.746192,47.772606],[26.751718,47.776012],[26.751783,47.775974]]]}},{"type":"Feature","properties":{"nr":null},"geometry":{"type":"Polygon","coordinates":[[[26.751718,47.776012],[26.746192,47.772606],[26.746113,47.772667],[26.751627,47.776065],[26.751718,47.776012]]]}},{"type":"Feature","properties":{"nr":null},"geometry":{"type":"Polygon","coordinates":[[[26.751426,47.776163],[26.745952,47.772789],[26.74575,47.772943],[26.75111,47.776247],[26.751426,47.776163]]]}},{"type":"Feature","properties":{"nr":null},"geometry":{"type":"Polygon","coordinates":[[[26.745669,47.773005],[26.750983,47.77628],[26.75111,47.776247],[26.74575,47.772943],[26.745669,47.773005]]]}},{"type":"Feature","properties":{"nr":null},"geometry":{"type":"Polygon","coordinates":[[[26.745311,47.773278],[26.750424,47.776429],[26.750686,47.77636],[26.745479,47.77315],[26.745311,47.773278]]]}},{"type":"Feature","properties":{"nr":null},"geometry":{"type":"Polygon","coordinates":[[[26.745142,47.773407],[26.750189,47.776518],[26.750304,47.776472],[26.745227,47.773342],[26.745142,47.773407]]]}},{"type":"Feature","properties":{"nr":null},"geometry":{"type":"Polygon","coordinates":[[[26.745035,47.773488],[26.750044,47.776576],[26.750189,47.776518],[26.745142,47.773407],[26.745035,47.773488]]]}},{"type":"Feature","properties":{"nr":null},"geometry":{"type":"Polygon","coordinates":[[[26.746311,47.7665],[26.750674,47.769189],[26.75075,47.769131],[26.746405,47.766453],[26.746311,47.7665]]]}},{"type":"Feature","properties":{"nr":null},"geometry":{"type":"Polygon","coordinates":[[[26.745071,47.766763],[26.749929,47.769757],[26.75,47.769703],[26.745142,47.766707],[26.745071,47.766763]]]}},{"type":"Feature","properties":{"nr":null},"geometry":{"type":"Polygon","coordinates":[[[26.74629,47.76651],[26.750657,47.769202],[26.750674,47.769189],[26.746311,47.7665],[26.74629,47.76651]]]}},{"type":"Feature","properties":{"nr":null},"geometry":{"type":"Polygon","coordinates":[[[26.74626,47.766525],[26.750633,47.76922],[26.750657,47.769202],[26.74629,47.76651],[26.74626,47.766525]]]}},{"type":"Feature","properties":{"nr":null},"geometry":{"type":"Polygon","coordinates":[[[26.746211,47.766549],[26.750593,47.76925],[26.750633,47.76922],[26.74626,47.766525],[26.746211,47.766549]]]}},{"type":"Feature","properties":{"nr":null},"geometry":{"type":"Polygon","coordinates":[[[26.745885,47.76662],[26.750397,47.769401],[26.750494,47.769326],[26.746088,47.76661],[26.746057,47.766625],[26.745966,47.766628],[26.745885,47.76662]]]}},{"type":"Feature","properties":{"nr":null},"geometry":{"type":"Polygon","coordinates":[[[26.750302,47.769473],[26.750397,47.769401],[26.745885,47.76662],[26.745628,47.766592],[26.750302,47.769473]]]}},{"type":"Feature","properties":{"nr":null},"geometry":{"type":"Polygon","coordinates":[[[26.74561,47.76659],[26.750295,47.769478],[26.750302,47.769473],[26.745628,47.766592],[26.74561,47.76659]]]}},{"type":"Feature","properties":{"nr":null},"geometry":{"type":"Polygon","coordinates":[[[26.745368,47.766619],[26.750166,47.769577],[26.750226,47.76953],[26.74547,47.766599],[26.745368,47.766619]]]}},{"type":"Feature","properties":{"nr":null},"geometry":{"type":"Polygon","coordinates":[[[26.745337,47.766627],[26.750146,47.769592],[26.750166,47.769577],[26.745368,47.766619],[26.745337,47.766627]]]}},{"type":"Feature","properties":{"nr":null},"geometry":{"type":"Polygon","coordinates":[[[26.745229,47.76667],[26.750066,47.769652],[26.750146,47.769592],[26.745337,47.766627],[26.745229,47.76667]]]}},{"type":"Feature","properties":{"nr":null},"geometry":{"type":"Polygon","coordinates":[[[26.745194,47.766684],[26.750041,47.769672],[26.750066,47.769652],[26.745229,47.76667],[26.745194,47.766684]]]}},{"type":"Feature","properties":{"nr":null},"geometry":{"type":"Polygon","coordinates":[[[26.745142,47.766707],[26.75,47.769703],[26.750015,47.769692],[26.745159,47.766698],[26.745142,47.766707]]]}},{"type":"Feature","properties":{"nr":null},"geometry":{"type":"Polygon","coordinates":[[[26.745587,47.773068],[26.750855,47.776314],[26.750983,47.77628],[26.745669,47.773005],[26.745587,47.773068]]]}},{"type":"Feature","properties":{"nr":null},"geometry":{"type":"Polygon","coordinates":[[[26.75075,47.769131],[26.751711,47.768398],[26.751607,47.768409],[26.751493,47.768394],[26.751386,47.768352],[26.75127,47.768283],[26.751145,47.768148],[26.750831,47.767551],[26.75077,47.767404],[26.750658,47.767245],[26.750577,47.767109],[26.750111,47.766251],[26.750069,47.76616],[26.750014,47.765928],[26.749978,47.765852],[26.749929,47.765807],[26.74987,47.765788],[26.749783,47.765794],[26.749653,47.76583],[26.749491,47.765896],[26.749217,47.766038],[26.749011,47.766165],[26.748803,47.766267],[26.748577,47.76634],[26.748334,47.766379],[26.747737,47.766425],[26.747425,47.766491],[26.747215,47.766509],[26.747009,47.766497],[26.746661,47.766407],[26.74629,47.766266],[26.746284,47.76628],[26.746415,47.766374],[26.746405,47.766453],[26.75075,47.769131]]]}},{"type":"Feature","properties":{"nr":null},"geometry":{"type":"Polygon","coordinates":[[[26.753101,47.77578],[26.746979,47.772007],[26.74689,47.772074],[26.752968,47.77582],[26.753101,47.77578]]]}},{"type":"Feature","properties":{"nr":null},"geometry":{"type":"Polygon","coordinates":[[[26.74547,47.766599],[26.750226,47.76953],[26.750295,47.769478],[26.74561,47.76659],[26.745549,47.766583],[26.74547,47.766599]]]}},{"type":"Feature","properties":{"nr":null},"geometry":{"type":"Polygon","coordinates":[[[26.753812,47.764244],[26.7539,47.764059],[26.754134,47.763692],[26.754359,47.763462],[26.754541,47.763337],[26.754696,47.763284],[26.754886,47.763266],[26.755299,47.763259],[26.75556,47.763223],[26.756176,47.76312],[26.755727,47.763055],[26.755283,47.762905],[26.755086,47.762781],[26.75466,47.762643],[26.75445,47.762507],[26.754255,47.762205],[26.754095,47.762004],[26.75402,47.761851],[26.753936,47.76171],[26.753647,47.761449],[26.753627,47.761469],[26.75323,47.761707],[26.752425,47.762269],[26.751685,47.762894],[26.75138,47.763162],[26.751222,47.763314],[26.750712,47.763732],[26.750387,47.763974],[26.749726,47.764454],[26.749297,47.764728],[26.748934,47.764972],[26.748705,47.765107],[26.748231,47.765463],[26.747978,47.765673],[26.74777,47.765832],[26.747486,47.766085],[26.747239,47.766268],[26.747055,47.766363],[26.746945,47.766401],[26.746843,47.766416],[26.747024,47.766463],[26.747211,47.766473],[26.747414,47.766456],[26.747723,47.76639],[26.748327,47.766343],[26.748557,47.766307],[26.748776,47.766236],[26.748976,47.766138],[26.749182,47.766011],[26.74946,47.765867],[26.749631,47.765797],[26.749773,47.765759],[26.749879,47.765751],[26.749965,47.765779],[26.750027,47.765838],[26.750066,47.765918],[26.750122,47.766153],[26.750162,47.76624],[26.750627,47.767096],[26.750708,47.767231],[26.750819,47.76739],[26.750882,47.767541],[26.751195,47.768134],[26.751309,47.768257],[26.75142,47.768324],[26.751512,47.76836],[26.751608,47.768373],[26.751698,47.768357],[26.75242,47.767782],[26.75263,47.76759],[26.752812,47.767353],[26.752914,47.767191],[26.753053,47.76691],[26.753277,47.766581],[26.753338,47.766345],[26.753483,47.765925],[26.75348,47.765468],[26.753508,47.765358],[26.753644,47.765068],[26.753724,47.764799],[26.75379,47.764463],[26.753812,47.764244]]]}},{"type":"Feature","properties":{"nr":null},"geometry":{"type":"Polygon","coordinates":[[[26.746088,47.76661],[26.750494,47.769326],[26.750593,47.76925],[26.746211,47.766549],[26.746088,47.76661]]]}},{"type":"Feature","properties":{"nr":null},"geometry":{"type":"Polygon","coordinates":[[[26.740611,47.783631],[26.740611,47.783616],[26.739959,47.784954],[26.740051,47.785748],[26.740184,47.786243],[26.740178,47.78685],[26.740093,47.787535],[26.739756,47.788332],[26.739437,47.788948],[26.739179,47.789149],[26.739707,47.789403],[26.739847,47.789855],[26.739986,47.790025],[26.740412,47.790368],[26.74056,47.790969],[26.74051,47.791198],[26.740381,47.791397],[26.740536,47.791357],[26.740704,47.791296],[26.740829,47.791034],[26.741496,47.790765],[26.741765,47.790719],[26.742158,47.790796],[26.742607,47.790831],[26.742934,47.790774],[26.742996,47.790589],[26.743359,47.790206],[26.743577,47.790123],[26.743858,47.789876],[26.743995,47.789645],[26.744317,47.789425],[26.744642,47.789299],[26.745714,47.789189],[26.745975,47.788998],[26.746264,47.788876],[26.746943,47.788756],[26.747193,47.788608],[26.747396,47.788384],[26.747678,47.788179],[26.748131,47.788054],[26.748709,47.787926],[26.7494,47.787688],[26.749862,47.787591],[26.750426,47.787279],[26.751611,47.786355],[26.751511,47.786395],[26.750834,47.786492],[26.749791,47.786662],[26.749216,47.786691],[26.748696,47.786669],[26.74822,47.786628],[26.747673,47.786549],[26.746618,47.786255],[26.745611,47.785916],[26.744704,47.785649],[26.74325,47.785206],[26.742495,47.784908],[26.741595,47.784487],[26.741479,47.784402],[26.741361,47.784277],[26.741249,47.78412],[26.740976,47.783876],[26.740611,47.783631]]]}},{"type":"Feature","properties":{"nr":null},"geometry":{"type":"Polygon","coordinates":[[[26.752345,47.775872],[26.746574,47.772315],[26.746488,47.77238],[26.752177,47.775887],[26.752345,47.775872]]]}},{"type":"Feature","properties":{"nr":null},"geometry":{"type":"Polygon","coordinates":[[[26.751627,47.776065],[26.746113,47.772667],[26.746083,47.772689],[26.751592,47.776085],[26.751627,47.776065]]]}},{"type":"Feature","properties":{"nr":null},"geometry":{"type":"Polygon","coordinates":[[[26.751592,47.776085],[26.746083,47.772689],[26.745952,47.772789],[26.751426,47.776163],[26.751485,47.776147],[26.751592,47.776085]]]}},{"type":"Feature","properties":{"nr":null},"geometry":{"type":"Polygon","coordinates":[[[26.745159,47.766698],[26.750015,47.769692],[26.750041,47.769672],[26.745194,47.766684],[26.745159,47.766698]]]}},{"type":"Feature","properties":{"nr":null},"geometry":{"type":"Polygon","coordinates":[[[26.744336,47.774003],[26.750623,47.777878],[26.750849,47.777711],[26.744567,47.773839],[26.744336,47.774003]]]}},{"type":"Feature","properties":{"nr":null},"geometry":{"type":"Polygon","coordinates":[[[26.744916,47.773579],[26.749883,47.77664],[26.750044,47.776576],[26.745035,47.773488],[26.744916,47.773579]]]}},{"type":"Feature","properties":{"nr":null},"geometry":{"type":"Polygon","coordinates":[[[26.748402,47.763105],[26.748705,47.763021],[26.74917,47.762392],[26.749321,47.762047],[26.749177,47.761817],[26.749166,47.76161],[26.749308,47.7614],[26.749324,47.761331],[26.749259,47.761263],[26.749123,47.761233],[26.74903,47.761189],[26.748918,47.761079],[26.748862,47.761001],[26.748901,47.760928],[26.748927,47.76085],[26.748934,47.760761],[26.748908,47.760535],[26.74885,47.760426],[26.748734,47.760355],[26.748605,47.76034],[26.748338,47.760359],[26.748218,47.760343],[26.747911,47.760357],[26.747818,47.760336],[26.747768,47.760309],[26.747714,47.760252],[26.747669,47.760073],[26.747666,47.759983],[26.747725,47.759835],[26.74778,47.759798],[26.747937,47.759805],[26.748008,47.759798],[26.748103,47.759839],[26.748219,47.759837],[26.748311,47.759826],[26.748376,47.759804],[26.748566,47.759714],[26.748653,47.759687],[26.748749,47.759669],[26.74882,47.759641],[26.748867,47.759596],[26.748869,47.759525],[26.748803,47.759416],[26.748799,47.759365],[26.748829,47.759342],[26.748903,47.75933],[26.748999,47.759302],[26.749151,47.759239],[26.749566,47.75894],[26.74966,47.758895],[26.749729,47.75889],[26.749773,47.758901],[26.749856,47.758949],[26.749962,47.758954],[26.750055,47.758946],[26.75045,47.758849],[26.750601,47.758796],[26.750807,47.758763],[26.750923,47.758761],[26.75102,47.758735],[26.751039,47.758636],[26.750985,47.758548],[26.750877,47.758465],[26.750689,47.758353],[26.750567,47.758198],[26.750563,47.758076],[26.750586,47.757977],[26.750621,47.757897],[26.750612,47.757784],[26.750503,47.757703],[26.75033,47.757684],[26.750215,47.757626],[26.750159,47.757581],[26.750123,47.757443],[26.750169,47.757354],[26.750278,47.757284],[26.750502,47.757118],[26.750446,47.757094],[26.75023,47.757252],[26.750111,47.757329],[26.750054,47.757439],[26.750097,47.7576],[26.750169,47.757659],[26.750304,47.757726],[26.750469,47.757745],[26.750547,47.757803],[26.750554,47.757892],[26.750521,47.757967],[26.750496,47.758073],[26.750501,47.758209],[26.750567,47.758302],[26.750637,47.758382],[26.75083,47.758497],[26.750928,47.758572],[26.75097,47.758642],[26.750958,47.758703],[26.75091,47.758716],[26.750798,47.758718],[26.750578,47.758753],[26.750422,47.758808],[26.750039,47.758902],[26.74996,47.758909],[26.749883,47.758905],[26.749807,47.758862],[26.749738,47.758844],[26.749636,47.758851],[26.749522,47.758906],[26.749108,47.759205],[26.74897,47.759262],[26.748882,47.759287],[26.748793,47.759301],[26.74873,47.759349],[26.748737,47.759427],[26.748802,47.759533],[26.748801,47.759582],[26.748774,47.759607],[26.748724,47.759627],[26.74863,47.759644],[26.748534,47.759675],[26.74829,47.759783],[26.748122,47.759794],[26.748023,47.759751],[26.747937,47.759759],[26.747752,47.759753],[26.747666,47.759811],[26.747631,47.759884],[26.747599,47.759978],[26.747602,47.760077],[26.747651,47.76027],[26.747718,47.76034],[26.747786,47.760376],[26.7479,47.760402],[26.748215,47.760389],[26.748334,47.760405],[26.748604,47.760385],[26.748704,47.760397],[26.748793,47.760452],[26.748842,47.760545],[26.748859,47.760646],[26.748867,47.760761],[26.748861,47.760844],[26.748837,47.760915],[26.74879,47.761003],[26.748859,47.761102],[26.748982,47.761221],[26.749093,47.761273],[26.749215,47.761301],[26.749254,47.761341],[26.749241,47.761397],[26.749175,47.761478],[26.749109,47.761528],[26.749091,47.761599],[26.749097,47.761654],[26.749072,47.761724],[26.749075,47.761798],[26.749125,47.761853],[26.749204,47.761999],[26.749196,47.762138],[26.749128,47.762247],[26.748987,47.762522],[26.74896,47.76256],[26.748883,47.762608],[26.748845,47.762678],[26.748817,47.762802],[26.748784,47.762876],[26.748744,47.762937],[26.74871,47.762963],[26.748517,47.762974],[26.748368,47.763044],[26.748302,47.763114],[26.748243,47.763198],[26.748182,47.763347],[26.748154,47.763493],[26.748167,47.763591],[26.748148,47.763686],[26.748121,47.763769],[26.748049,47.763823],[26.747954,47.763942],[26.747868,47.764081],[26.747795,47.764173],[26.747681,47.76428],[26.747415,47.764502],[26.747365,47.764524],[26.747259,47.764544],[26.747142,47.76458],[26.7471,47.764636],[26.747056,47.764745],[26.747014,47.764769],[26.746964,47.764833],[26.746945,47.764972],[26.746926,47.765032],[26.746883,47.765087],[26.746855,47.765147],[26.746843,47.765221],[26.746866,47.765282],[26.746919,47.765322],[26.746917,47.765373],[26.746898,47.765433],[26.746845,47.765511],[26.746621,47.765678],[26.746497,47.765744],[26.746413,47.765817],[26.746331,47.76593],[26.746289,47.766022],[26.746164,47.766186],[26.746304,47.766236],[26.746347,47.766199],[26.746842,47.765627],[26.746957,47.765468],[26.747021,47.765318],[26.74693,47.765202],[26.746941,47.765145],[26.747015,47.765045],[26.747054,47.764962],[26.747047,47.764859],[26.747235,47.76461],[26.747423,47.764575],[26.747896,47.764169],[26.748208,47.763778],[26.748261,47.763341],[26.748402,47.763105]]]}},{"type":"Feature","properties":{"nr":null},"geometry":{"type":"Polygon","coordinates":[[[26.746906,47.749789],[26.755697,47.751489],[26.755916,47.751261],[26.747009,47.749537],[26.746906,47.749789]]]}},{"type":"Feature","properties":{"nr":null},"geometry":{"type":"Polygon","coordinates":[[[26.746912,47.74981],[26.755679,47.751504],[26.755697,47.751489],[26.746914,47.749791],[26.746912,47.74981]]]}},{"type":"Feature","properties":{"nr":null},"geometry":{"type":"Polygon","coordinates":[[[26.746896,47.749949],[26.749963,47.750542],[26.755557,47.751608],[26.755679,47.751504],[26.746912,47.74981],[26.746896,47.749949]]]}},{"type":"Feature","properties":{"nr":null},"geometry":{"type":"Polygon","coordinates":[[[26.746898,47.749996],[26.746889,47.750046],[26.755488,47.751708],[26.75553,47.751664],[26.746898,47.749996]]]}},{"type":"Feature","properties":{"nr":null},"geometry":{"type":"Polygon","coordinates":[[[26.746385,47.75073],[26.746332,47.750777],[26.752356,47.751977],[26.752405,47.751929],[26.746385,47.75073]]]}},{"type":"Feature","properties":{"nr":null},"geometry":{"type":"Polygon","coordinates":[[[26.746889,47.750046],[26.746875,47.750132],[26.755363,47.751794],[26.755471,47.751726],[26.755488,47.751708],[26.746889,47.750046]]]}},{"type":"Feature","properties":{"nr":null},"geometry":{"type":"Polygon","coordinates":[[[26.746447,47.750675],[26.746385,47.75073],[26.752405,47.751929],[26.75248,47.751856],[26.746447,47.750675]]]}},{"type":"Feature","properties":{"nr":null},"geometry":{"type":"Polygon","coordinates":[[[26.746852,47.750272],[26.746762,47.750384],[26.753442,47.751692],[26.753551,47.751609],[26.755211,47.751924],[26.755243,47.751896],[26.746858,47.750254],[26.746852,47.750272]]]}},{"type":"Feature","properties":{"nr":null},"geometry":{"type":"Polygon","coordinates":[[[26.746858,47.750254],[26.755243,47.751896],[26.755363,47.751794],[26.746905,47.750138],[26.746858,47.750254]]]}},{"type":"Feature","properties":{"nr":null},"geometry":{"type":"Polygon","coordinates":[[[26.746762,47.750384],[26.746702,47.750459],[26.752829,47.751659],[26.753091,47.751624],[26.746762,47.750384]]]}}]}