{"type":"FeatureCollection","name":"zona_534_953","features":[{"type":"Feature","properties":{"nr":null},"geometry":{"type":"Polygon","coordinates":[[[26.7131959,47.7018553],[26.7138021,47.7019173],[26.7145337,47.7020393],[26.7162813,47.7020385],[26.7179589,47.7022076],[26.7181041,47.7022079],[26.7184298,47.7019552],[26.7166217,47.700606],[26.7162254,47.7001916],[26.7161186,47.699916],[26.7159977,47.699754],[26.7149339,47.6992557],[26.7146394,47.6991882],[26.7147035,47.6992702],[26.7152885,47.6995365],[26.7154293,47.6996978],[26.7155476,47.6997209],[26.7158293,47.6999745],[26.7161175,47.7001617],[26.7153236,47.7004],[26.7142632,47.7007705],[26.7139675,47.7008235],[26.7135589,47.7008462],[26.7132701,47.7008192],[26.712365,47.7005117],[26.7119731,47.7012816],[26.7126652,47.7015064],[26.7130605,47.7019048],[26.7131959,47.7018553]]]}},{"type":"Feature","properties":{"nr":null},"geometry":{"type":"Polygon","coordinates":[[[26.7291213,47.6973445],[26.7290808,47.6973918],[26.7335851,47.7012835],[26.7336437,47.7012518],[26.7291213,47.6973445]]]}},{"type":"Feature","properties":{"nr":null},"geometry":{"type":"Polygon","coordinates":[[[26.7269327,47.7010926],[26.7241175,47.6987606],[26.7240335,47.6988398],[26.7268541,47.7011763],[26.7269327,47.7010926]]]}},{"type":"Feature","properties":{"nr":null},"geometry":{"type":"Polygon","coordinates":[[[26.7280922,47.6995665],[26.7280609,47.6996498],[26.7309337,47.7021929],[26.7310462,47.7021814],[26.7280922,47.6995665]]]}},{"type":"Feature","properties":{"nr":null},"geometry":{"type":"Polygon","coordinates":[[[26.7284178,47.6988528],[26.7284017,47.6989008],[26.7311789,47.7012744],[26.7312302,47.7012566],[26.7284178,47.6988528]]]}},{"type":"Feature","properties":{"nr":null},"geometry":{"type":"Polygon","coordinates":[[[26.7330819,47.70153],[26.7288728,47.6978933],[26.7288272,47.6980031],[26.7329758,47.7015874],[26.7330819,47.70153]]]}},{"type":"Feature","properties":{"nr":null},"geometry":{"type":"Polygon","coordinates":[[[26.7328484,47.7022269],[26.7329367,47.7022491],[26.7371086,47.6999185],[26.7370518,47.6998787],[26.7328484,47.7022269]]]}},{"type":"Feature","properties":{"nr":null},"geometry":{"type":"Polygon","coordinates":[[[26.7256835,47.7019918],[26.7259688,47.7018],[26.7231907,47.6995651],[26.7227738,47.699651],[26.7256835,47.7019918]]]}},{"type":"Feature","properties":{"nr":null},"geometry":{"type":"Polygon","coordinates":[[[26.7269327,47.7010926],[26.7269844,47.7010374],[26.7241729,47.6987085],[26.7241175,47.6987606],[26.7269327,47.7010926]]]}},{"type":"Feature","properties":{"nr":null},"geometry":{"type":"Polygon","coordinates":[[[26.732764,47.7022252],[26.7370173,47.6998492],[26.7367385,47.6996107],[26.7321344,47.7020726],[26.732764,47.7022252]]]}},{"type":"Feature","properties":{"nr":null},"geometry":{"type":"Polygon","coordinates":[[[26.7284017,47.6989008],[26.7283575,47.6989932],[26.7319884,47.7020964],[26.7321319,47.7020889],[26.7284017,47.6989008]]]}},{"type":"Feature","properties":{"nr":null},"geometry":{"type":"Polygon","coordinates":[[[26.7322174,47.7020282],[26.7324157,47.7019222],[26.7284852,47.6986355],[26.7283942,47.6988311],[26.7322174,47.7020282]]]}},{"type":"Feature","properties":{"nr":null},"geometry":{"type":"Polygon","coordinates":[[[26.7425546,47.7012167],[26.7450759,47.7000611],[26.7448459,47.6999566],[26.7421622,47.7011867],[26.7425546,47.7012167]]]}}]}