{"type": "FeatureCollection", "features": [{"type": "Feature", "properties": {"nrcad": null, "nr": null, "utr": "", "src": "OCPI 2017 S2"}, "geometry": {"type": "Polygon", "coordinates": [[[26.089138185457685, 44.503263041877354], [26.08896721437604, 44.50153385805467], [26.08899516148213, 44.50146330962586], [26.088942935490866, 44.50073944196194], [26.083040767374207, 44.49951620637156], [26.08285592077087, 44.499983704325786], [26.08283380358132, 44.50010496464711], [26.082833378962093, 44.500192622975504], [26.082845984786374, 44.50028059713476], [26.083179112615316, 44.50180219840106], [26.084926506104797, 44.50216419243867], [26.08471710359015, 44.50268293337951], [26.083524223202875, 44.50243615533906], [26.08344689587546, 44.50246746256404], [26.08322979503354, 44.503005174285654], [26.082204084653778, 44.50279293049567], [26.082198707536257, 44.50319400770884], [26.0821056817419, 44.50320610610401], [26.08218134875055, 44.503487866673034], [26.082218799105977, 44.50365146363193], [26.08318887500566, 44.50352632428239], [26.083313365824914, 44.50402397898555], [26.08354454705929, 44.503954136297864], [26.083572556069104, 44.5039512641793], [26.0846608829265, 44.50393467573317], [26.08438009581297, 44.50285367503653], [26.085256570276925, 44.50273704864925], [26.08553776746577, 44.50381948512307], [26.086192953099285, 44.50372581347991], [26.08880424165286, 44.503382552203206], [26.088864400279395, 44.50357458897983], [26.08919730150544, 44.5035239494488], [26.089138185457685, 44.503263041877354]]]}}, {"type": "Feature", "properties": {"nrcad": null, "nr": null, "utr": "", "src": "OCPI 2017 S2"}, "geometry": {"type": "Polygon", "coordinates": [[[26.08471710359015, 44.50268293337951], [26.084926506104797, 44.50216419243867], [26.083179112615316, 44.50180219840106], [26.082845984786374, 44.50028059713476], [26.082833378962093, 44.500192622975504], [26.08283380358132, 44.50010496464711], [26.08285592077087, 44.499983704325786], [26.083040767374207, 44.49951620637156], [26.08285966115454, 44.49947851096378], [26.082696349432215, 44.49988354619318], [26.082669392211333, 44.49996279034509], [26.08265001900611, 44.500055838216454], [26.0826445251959, 44.50019186392716], [26.082657533240983, 44.50029144455376], [26.08300460012136, 44.50187719125556], [26.0828852961295, 44.50185251759092], [26.082647606931243, 44.502440742704735], [26.083395345285446, 44.50259545459823], [26.08344689587546, 44.50246746256404], [26.083524223202875, 44.50243615533906], [26.08471710359015, 44.50268293337951]]]}}, {"type": "Feature", "properties": {"nrcad": null, "nr": null, "utr": "", "src": "OCPI 2017 S2"}, "geometry": {"type": "Polygon", "coordinates": [[[26.0787929407709, 44.50179706118474], [26.080115157224895, 44.501626273538854], [26.079858992165132, 44.5006395476477], [26.078523072922184, 44.50081211054489], [26.07861104203144, 44.50114744568384], [26.0787929407709, 44.50179706118474]]]}}, {"type": "Feature", "properties": {"nrcad": "256963", "nr": "256963", "utr": "", "src": "OCPI 2017 S2"}, "geometry": {"type": "Polygon", "coordinates": [[[26.09907224564463, 44.499966691993464], [26.099345696677823, 44.500024551071206], [26.099329207824436, 44.50006425360635], [26.099867906293436, 44.50017759284319], [26.099891233122197, 44.500121109129154], [26.10016455914106, 44.500179056550614], [26.10027741201337, 44.49990638130323], [26.099192310282334, 44.49967651404655], [26.09907224564463, 44.499966691993464]]]}}, {"type": "Feature", "properties": {"nrcad": null, "nr": null, "utr": "", "src": "OCPI 2017 S2"}, "geometry": {"type": "Polygon", "coordinates": [[[26.07985848095096, 44.50063642046211], [26.079792039151524, 44.50037931713227], [26.078454886397846, 44.500550163018104], [26.078521956339383, 44.500810906196676], [26.07985848095096, 44.50063642046211]]]}}]}