{"type":"FeatureCollection","name":"zona_532_953","features":[{"type":"Feature","properties":{"nr":null},"geometry":{"type":"Polygon","coordinates":[[[26.6309828,47.6988848],[26.6345501,47.7025653],[26.6346671,47.7025032],[26.6311516,47.6988569],[26.6309828,47.6988848]]]}},{"type":"Feature","properties":{"nr":null},"geometry":{"type":"Polygon","coordinates":[[[26.6257254,47.7003327],[26.6260756,47.7002998],[26.6250332,47.6983415],[26.6181498,47.6998731],[26.6182741,47.700046],[26.6189192,47.7005691],[26.6195943,47.7008447],[26.6205614,47.7008886],[26.6209417,47.7011265],[26.6212043,47.7011229],[26.6214024,47.7009956],[26.6212027,47.7006797],[26.6219966,47.7004897],[26.6219938,47.7003986],[26.6221101,47.7002591],[26.6222181,47.7003265],[26.6223116,47.7002809],[26.6224189,47.7003237],[26.6227778,47.7002645],[26.6227849,47.7004973],[26.6234122,47.7005981],[26.6237616,47.700502],[26.6242467,47.7005774],[26.6243116,47.7004281],[26.6244969,47.7003923],[26.6246866,47.7005743],[26.62508,47.7005173],[26.6257254,47.7003327]]]}},{"type":"Feature","properties":{"nr":null},"geometry":{"type":"Polygon","coordinates":[[[26.6339742,47.6987473],[26.6337665,47.6987645],[26.6364606,47.7014595],[26.6366033,47.7013772],[26.6339742,47.6987473]]]}},{"type":"Feature","properties":{"nr":null},"geometry":{"type":"Polygon","coordinates":[[[26.6345335,47.7025549],[26.6309775,47.6988856],[26.6308314,47.6989258],[26.6344218,47.7026149],[26.6345335,47.7025549]]]}},{"type":"Feature","properties":{"nr":null},"geometry":{"type":"Polygon","coordinates":[[[26.6337164,47.6976204],[26.6371633,47.7010324],[26.6372159,47.701001],[26.6337785,47.6975984],[26.6337164,47.6976204]]]}},{"type":"Feature","properties":{"nr":null},"geometry":{"type":"Polygon","coordinates":[[[26.6477984,47.7009872],[26.6482989,47.7006181],[26.6466985,47.6997421],[26.6463574,47.6999127],[26.6457892,47.6995817],[26.6456079,47.699764],[26.6477984,47.7009872]]]}},{"type":"Feature","properties":{"nr":null},"geometry":{"type":"Polygon","coordinates":[[[26.6364606,47.7014595],[26.6337399,47.6987389],[26.633615,47.6987432],[26.6363779,47.7015069],[26.6364606,47.7014595]]]}},{"type":"Feature","properties":{"nr":null},"geometry":{"type":"Polygon","coordinates":[[[26.6363779,47.7015069],[26.633615,47.6987432],[26.6334408,47.6987491],[26.6362633,47.7015725],[26.6363779,47.7015069]]]}},{"type":"Feature","properties":{"nr":null},"geometry":{"type":"Polygon","coordinates":[[[26.6394446,47.6997784],[26.6389485,47.7000582],[26.640843,47.7012879],[26.6415004,47.7018644],[26.6418926,47.7017858],[26.6421844,47.7016748],[26.6415521,47.7010799],[26.6394446,47.6997784]]]}},{"type":"Feature","properties":{"nr":null},"geometry":{"type":"Polygon","coordinates":[[[26.6326495,47.7036224],[26.6328027,47.703535],[26.6306724,47.7013149],[26.6289935,47.6996107],[26.628808,47.6996648],[26.6305151,47.7013722],[26.6326495,47.7036224]]]}},{"type":"Feature","properties":{"nr":null},"geometry":{"type":"Polygon","coordinates":[[[26.6300444,47.7008888],[26.6293891,47.7002415],[26.6285941,47.7004793],[26.6280084,47.6998979],[26.6275305,47.7000367],[26.6287993,47.70129],[26.6300444,47.7008888]]]}},{"type":"Feature","properties":{"nr":null},"geometry":{"type":"Polygon","coordinates":[[[26.6135631,47.7014165],[26.6122913,47.6996999],[26.6112536,47.6981935],[26.6036486,47.6987535],[26.6040952,47.7005424],[26.6040674,47.7016581],[26.6027507,47.703064],[26.6028698,47.7031407],[26.6029747,47.7032729],[26.6031197,47.7035694],[26.6041004,47.7033016],[26.6043376,47.702933],[26.6048885,47.7026075],[26.605143,47.7022818],[26.6057755,47.7018875],[26.6059362,47.7017128],[26.6060735,47.7013826],[26.6063304,47.7010864],[26.6064023,47.7009543],[26.6070466,47.7010115],[26.6076491,47.7011408],[26.6077692,47.7011987],[26.6082332,47.7015458],[26.6113069,47.7013397],[26.6113791,47.7016469],[26.6135631,47.7014165]]]}},{"type":"Feature","properties":{"nr":null},"geometry":{"type":"Polygon","coordinates":[[[26.6436464,47.7010503],[26.6428877,47.7005109],[26.6406714,47.6990699],[26.6401798,47.6993639],[26.6423687,47.7007441],[26.6431257,47.7012855],[26.6436464,47.7010503]]]}},{"type":"Feature","properties":{"nr":null},"geometry":{"type":"Polygon","coordinates":[[[26.6344305,47.7026238],[26.6308553,47.6989506],[26.6307481,47.699013],[26.6343217,47.7026845],[26.6344305,47.7026238]]]}},{"type":"Feature","properties":{"nr":null},"geometry":{"type":"Polygon","coordinates":[[[26.6361101,47.7016619],[26.6332062,47.6987571],[26.6330265,47.6987652],[26.6359915,47.701731],[26.6361101,47.7016619]]]}},{"type":"Feature","properties":{"nr":null},"geometry":{"type":"Polygon","coordinates":[[[26.6362633,47.7015725],[26.6334408,47.6987491],[26.6332062,47.6987571],[26.6361101,47.7016619],[26.6362633,47.7015725]]]}},{"type":"Feature","properties":{"nr":null},"geometry":{"type":"Polygon","coordinates":[[[26.6438132,47.7009885],[26.6439267,47.7009301],[26.6427842,47.7001577],[26.6408999,47.6989662],[26.640802,47.6990247],[26.6438132,47.7009885]]]}},{"type":"Feature","properties":{"nr":null},"geometry":{"type":"Polygon","coordinates":[[[26.6318998,47.6987872],[26.6315947,47.6988148],[26.6349794,47.7022918],[26.6351906,47.7021676],[26.6318998,47.6987872]]]}}]}