{
  "type": "FeatureCollection",
  "features": [
    {
      "type": "Feature",
      "properties": {
        "id": "LEA-1",
        "tensiune": "20kV",
        "zona_protectie_m": 24,
        "stroke": "#1d4ed8",
        "stroke-width": 3
      },
      "geometry": {
        "type": "LineString",
        "coordinates": [
          [
            27.4841361,
            47.1348132
          ],
          [
            27.4852695,
            47.1379384
          ]
        ]
      }
    },
    {
      "type": "Feature",
      "properties": {
        "id": "LEA-2",
        "tensiune": "20kV",
        "zona_protectie_m": 24,
        "stroke": "#1d4ed8",
        "stroke-width": 3
      },
      "geometry": {
        "type": "LineString",
        "coordinates": [
          [
            27.4853876,
            47.1347863
          ],
          [
            27.486521,
            47.1379115
          ]
        ]
      }
    },
    {
      "type": "Feature",
      "properties": {
        "id": "LEA-3",
        "tensiune": "20kV",
        "zona_protectie_m": 24,
        "stroke": "#1d4ed8",
        "stroke-width": 3
      },
      "geometry": {
        "type": "LineString",
        "coordinates": [
          [
            27.4865982,
            47.1353002
          ],
          [
            27.4873358,
            47.1369941
          ]
        ]
      }
    }
  ]
}