{
 "type": "FeatureCollection",
 "name": "pug_com_baluseni",
 "crs": {
  "type": "name",
  "properties": {
   "name": "urn:ogc:def:crs:OGC:1.3:CRS84"
  }
 },
 "features": [
  {
   "type": "Feature",
   "properties": {
    "utr": "5",
    "UTR": 5,
    "c": "#d97706",
    "color": "#d97706",
    "denumire": "UTR 5 — CF 56832 Zăicești — PUZ HCL 42/2024",
    "POT": 50,
    "pot": 50,
    "CUT": 1.5,
    "cut": 1.5,
    "rh": "9m",
    "RH": "P+2",
    "functiune": "Industrial nepoluant / Depozitare / Servicii",
    "FUNCTIUNE": "Industrial nepoluant / Depozitare / Servicii",
    "suprafata_mp": 119500,
    "nc": "56832",
    "cad": "56832",
    "nota": "Split intravilan/extravilan actualizat dupa primirea limitelor DWG"
   },
   "geometry": {
    "type": "Polygon",
    "coordinates": [
     [
      [
       26.7224203,
       47.6822275
      ],
      [
       26.7224175,
       47.6822412
      ],
      [
       26.7221712,
       47.6827426
      ],
      [
       26.7219901,
       47.6831092
      ],
      [
       26.7219423,
       47.6831532
      ],
      [
       26.7217965,
       47.6832907
      ],
      [
       26.7216728,
       47.6834074
      ],
      [
       26.7216466,
       47.6834313
      ],
      [
       26.7212396,
       47.6837114
      ],
      [
       26.7203649,
       47.6842432
      ],
      [
       26.7203261,
       47.6842393
      ],
      [
       26.7195875,
       47.6836797
      ],
      [
       26.7194706,
       47.6836106
      ],
      [
       26.7195102,
       47.6835836
      ],
      [
       26.7195307,
       47.6835696
      ],
      [
       26.7197372,
       47.6834286
      ],
      [
       26.7168991,
       47.6815411
      ],
      [
       26.7166365,
       47.6817364
      ],
      [
       26.7160759,
       47.6813652
      ],
      [
       26.7160037,
       47.6814084
      ],
      [
       26.7159817,
       47.6814215
      ],
      [
       26.7158195,
       47.6815184
      ],
      [
       26.7157913,
       47.6815353
      ],
      [
       26.7156329,
       47.6816299
      ],
      [
       26.7155307,
       47.681691
      ],
      [
       26.7153906,
       47.6817747
      ],
      [
       26.7153291,
       47.6818114
      ],
      [
       26.7151291,
       47.6819309
      ],
      [
       26.7150296,
       47.6819903
      ],
      [
       26.7149773,
       47.6820216
      ],
      [
       26.7149709,
       47.6820268
      ],
      [
       26.7149273,
       47.6820609
      ],
      [
       26.7148897,
       47.6820903
      ],
      [
       26.7148389,
       47.6821267
      ],
      [
       26.7147155,
       47.682215
      ],
      [
       26.7146819,
       47.6822399
      ],
      [
       26.7146304,
       47.6822781
      ],
      [
       26.7145946,
       47.6823046
      ],
      [
       26.7145801,
       47.682317
      ],
      [
       26.7145328,
       47.6823578
      ],
      [
       26.7144793,
       47.6824038
      ],
      [
       26.7144701,
       47.6824124
      ],
      [
       26.7144574,
       47.6824243
      ],
      [
       26.7143792,
       47.6823753
      ],
      [
       26.7144244,
       47.6823355
      ],
      [
       26.7146683,
       47.6821258
      ],
      [
       26.7148033,
       47.6820302
      ],
      [
       26.7150001,
       47.6819175
      ],
      [
       26.7150677,
       47.6818189
      ],
      [
       26.7151071,
       47.6817507
      ],
      [
       26.7152268,
       47.6816731
      ],
      [
       26.7153735,
       47.6815522
      ],
      [
       26.7154596,
       47.681492
      ],
      [
       26.7155206,
       47.6815056
      ],
      [
       26.7155996,
       47.681431
      ],
      [
       26.7156808,
       47.6813157
      ],
      [
       26.7157849,
       47.681244
      ],
      [
       26.7163243,
       47.6807574
      ],
      [
       26.7169336,
       47.6806347
      ],
      [
       26.7170614,
       47.6805114
      ],
      [
       26.7172321,
       47.6803465
      ],
      [
       26.7174154,
       47.6801696
      ],
      [
       26.7180997,
       47.6795088
      ],
      [
       26.7187997,
       47.6799858
      ],
      [
       26.7189513,
       47.679861
      ],
      [
       26.7224203,
       47.6822275
      ]
     ]
    ]
   }
  },
  {
   "type": "Feature",
   "properties": {
    "utr": "?",
    "c": "#dc2626",
    "tip": "lea_linie",
    "denumire": "LEA 400kV proiectată NNE→SSW",
    "tensiune": "400kV"
   },
   "geometry": {
    "type": "LineString",
    "coordinates": [
     [
      26.720520973768192,
      47.680931827908154
     ],
     [
      26.72202504996591,
      47.68303842402888
     ]
    ]
   }
  },
  {
   "type": "Feature",
   "properties": {
    "utr": "?",
    "c": "#fee2e2",
    "tip": "lea_protectie",
    "denumire": "Culoar LEA 400kV 75m — NECONSTRUIBIL",
    "tensiune": "400kV",
    "suprafata_mp": 19258
   },
   "geometry": {
    "type": "Polygon",
    "coordinates": [
     [
      [
       26.721601840116072,
       47.68166917262419
      ],
      [
       26.719440137479218,
       47.68019447271714
      ],
      [
       26.721709401957593,
       47.68337286981429
      ],
      [
       26.721796512926215,
       47.68329068763331
      ],
      [
       26.72194231073567,
       47.68315317183429
      ],
      [
       26.721990090529328,
       47.683109177431916
      ],
      [
       26.72217120951975,
       47.68274261374268
      ],
      [
       26.722251529668068,
       47.6825791003351
      ],
      [
       26.721601840116072,
       47.68166917262419
      ]
     ]
    ]
   }
  },
  {
   "type": "Feature",
   "properties": {
    "utr": "?",
    "c": "#f59e0b",
    "tip": "lea_linie",
    "denumire": "LEA 20kV existentă",
    "tensiune": "20kV"
   },
   "geometry": {
    "type": "LineString",
    "coordinates": [
     [
      26.718280954521678,
      47.68246013717446
     ],
     [
      26.71802594652248,
      47.67958001119107
     ]
    ]
   }
  },
  {
   "type": "Feature",
   "properties": {
    "utr": "?",
    "c": "#fef3c7",
    "tip": "lea_protectie",
    "denumire": "Culoar LEA 20kV 24m — NECONSTRUIBIL",
    "tensiune": "20kV"
   },
   "geometry": {
    "type": "Polygon",
    "coordinates": [
     [
      [
       26.718110837778326,
       47.68234699843914
      ],
      [
       26.71845107199081,
       47.6825732756507
      ],
      [
       26.7181848703717,
       47.67956683511553
      ],
      [
       26.718099701292942,
       47.6795087910885
      ],
      [
       26.717878464296966,
       47.6797224243049
      ],
      [
       26.718110837778326,
       47.68234699843914
      ]
     ]
    ]
   }
  },
  {
   "type": "Feature",
   "properties": {
    "utr": "?",
    "c": "#7c3aed",
    "tip": "restrictie",
    "denumire": "ZP-39 Necropola Zăicești RAN 36364.08",
    "raza_m": 100
   },
   "geometry": {
    "type": "Polygon",
    "coordinates": [
     [
      [
       26.723511492386905,
       47.68338027382478
      ],
      [
       26.723502216536765,
       47.68329223888413
      ],
      [
       26.72348020718829,
       47.68320524181215
      ],
      [
       26.723445676363486,
       47.68312012043087
      ],
      [
       26.723398956667605,
       47.68303769449463
      ],
      [
       26.72334049808391,
       47.68295875779588
      ],
      [
       26.723270863638277,
       47.6828840705211
      ],
      [
       26.723190723975495,
       47.682814351930475
      ],
      [
       26.723100850899513,
       47.682750273431644
      ],
      [
       26.723002109940055,
       47.682692452114495
      ],
      [
       26.722895452016875,
       47.68264144480921
      ],
      [
       26.72278190428236,
       47.682597742724305
      ],
      [
       26.722662560230223,
       47.68256176671681
      ],
      [
       26.7225385691659,
       47.682533863240046
      ],
      [
       26.72241112513976,
       47.68251430100739
      ],
      [
       26.722281455449664,
       47.68250326840519
      ],
      [
       26.722150808823713,
       47.68250087167853
      ],
      [
       26.722020443396634,
       47.68250713390855
      ],
      [
       26.721891614595727,
       47.682521994789866
      ],
      [
       26.721765563052838,
       47.68254531121158
      ],
      [
       26.721643502658683,
       47.68257685863469
      ],
      [
       26.721526608874544,
       47.68261633325475
      ],
      [
       26.721416007413698,
       47.68266335492664
      ],
      [
       26.721312763401677,
       47.682717470825125
      ],
      [
       26.721217871119514,
       47.682778159804954
      ],
      [
       26.721132244428937,
       47.68284483741914
      ],
      [
       26.7210567079714,
       47.682916861546595
      ],
      [
       26.720991989226025,
       47.68299353857521
      ],
      [
       26.72093871150273,
       47.68307413008127
      ],
      [
       26.72089738793814,
       47.68315785993989
      ],
      [
       26.720868416552154,
       47.683243921799026
      ],
      [
       26.720852076412793,
       47.683331486844665
      ],
      [
       26.72084852494648,
       47.68341971178231
      ],
      [
       26.720857796419455,
       47.68350774695842
      ],
      [
       26.720879801605385,
       47.6835947445426
      ],
      [
       26.72091432864227,
       47.683679866693254
      ],
      [
       26.720961045070382,
       47.683762293626515
      ],
      [
       26.721019501032064,
       47.68384123151151
      ],
      [
       26.72108913360221,
       47.683915920116206
      ],
      [
       26.72116927220809,
       47.68398564012937
      ],
      [
       26.72125914508636,
       47.684049720088666
      ],
      [
       26.721357886714916,
       47.68410754284801
      ],
      [
       26.721464546148276,
       47.68415855152191
      ],
      [
       26.721578096176035,
       47.6842022548492
      ],
      [
       26.72169744321632,
       47.68423823192503
      ],
      [
       26.72182143784889,
       47.68426613625519
      ],
      [
       26.721948885886267,
       47.68428569909332
      ],
      [
       26.722078559876394,
       47.684296732030006
      ],
      [
       26.722209210925943,
       47.68429912880714
      ],
      [
       26.722339580730203,
       47.68429286634174
      ],
      [
       26.722468413693647,
       47.684278004948176
      ],
      [
       26.722594469024465,
       47.684254687757154
      ],
      [
       26.722716532686366,
       47.684223139336986
      ],
      [
       26.72283342909252,
       47.6841836635307
      ],
      [
       26.72294403242886,
       47.68413664052885
      ],
      [
       26.723047277497795,
       47.68408252320786
      ],
      [
       26.723142169977656,
       47.68402183276759
      ],
      [
       26.723227795999147,
       47.68395515371116
      ],
      [
       26.7233033309465,
       47.68388312821516
      ],
      [
       26.72336804739863,
       47.683806449944136
      ],
      [
       26.723421322133767,
       47.683725857369645
      ],
      [
       26.723462642130105,
       47.68364212665771
      ],
      [
       26.723491609504876,
       47.68355606419302
      ],
      [
       26.723507945344192,
       47.68346849881298
      ],
      [
       26.723511492386905,
       47.68338027382478
      ]
     ]
    ]
   }
  },
  {
   "type": "Feature",
   "properties": {
    "utr": "?",
    "c": "#6d28d9",
    "tip": "restrictie",
    "denumire": "ZP-26 Movila de la Fermă RAN 36364.07",
    "raza_m": 100
   },
   "geometry": {
    "type": "Polygon",
    "coordinates": [
     [
      [
       26.72433143170167,
       47.68098026481144
      ],
      [
       26.72432215496813,
       47.68089222985176
      ],
      [
       26.72430014532921,
       47.68080523284774
      ],
      [
       26.724265614809667,
       47.68072011162079
      ],
      [
       26.724218896011838,
       47.680637685923735
      ],
      [
       26.724160438910317,
       47.680558749546705
      ],
      [
       26.724090806516685,
       47.68048406267306
      ],
      [
       26.72401066945598,
       47.680414344559175
      ],
      [
       26.723920799507095,
       47.68035026660805
      ],
      [
       26.723822062169614,
       47.68029244590436
      ],
      [
       26.723715408328438,
       47.68024143927232
      ],
      [
       26.723601865096622,
       47.68019773791398
      ],
      [
       26.723482525924528,
       47.68016176267943
      ],
      [
       26.723358540070592,
       47.68013386001445
      ],
      [
       26.72323110153501,
       47.6801142986247
      ],
      [
       26.72310143756277,
       47.68010326688828
      ],
      [
       26.722970796826914,
       47.68010087104207
      ],
      [
       26.72284043740546,
       47.680107134158646
      ],
      [
       26.72271161466787,
       47.68012199592421
      ],
      [
       26.722585569187594,
       47.680145313219114
      ],
      [
       26.722463514796992,
       47.680176861496186
      ],
      [
       26.722346626899526,
       47.68021633694261
      ],
      [
       26.722236031151763,
       47.68026335940544
      ],
      [
       26.722132792624247,
       47.680317476051655
      ],
      [
       26.722037905545196,
       47.68037816572892
      ],
      [
       26.72195228372621,
       47.68044484398351
      ],
      [
       26.721876751761847,
       47.68051686868814
      ],
      [
       26.72181203708795,
       47.68059354622517
      ],
      [
       26.721758762975224,
       47.680674138166
      ],
      [
       26.721717442525517,
       47.6807578683815
      ],
      [
       26.72168847372872,
       47.68084393051619
      ],
      [
       26.721672135627934,
       47.680931495753455
      ],
      [
       26.721668585629914,
       47.68101972079694
      ],
      [
       26.721677857986773,
       47.68110775599207
      ],
      [
       26.721699863463655,
       47.68119475350829
      ],
      [
       26.721734390195742,
       47.681279875504664
      ],
      [
       26.721781105726244,
       47.6813623021987
      ],
      [
       26.721839560206142,
       47.68144123976194
      ],
      [
       26.72190919072459,
       47.68151592796544
      ],
      [
       26.72198932672861,
       47.68158564750184
      ],
      [
       26.722079196479925,
       47.68164972691333
      ],
      [
       26.722177934486538,
       47.681707549059205
      ],
      [
       26.722284589837827,
       47.68175855705973
      ],
      [
       26.72239813536273,
       47.681802259660365
      ],
      [
       26.722517477522732,
       47.68183823596323
      ],
      [
       26.722641466944594,
       47.6818661394815
      ],
      [
       26.722768909491005,
       47.68188570147673
      ],
      [
       26.722898577762827,
       47.68189673354751
      ],
      [
       26.723029222921802,
       47.681899129444126
      ],
      [
       26.723159586719937,
       47.68189286609216
      ],
      [
       26.723288413619564,
       47.68187800381437
      ],
      [
       26.723414462887288,
       47.68185468575006
      ],
      [
       26.72353652054521,
       47.681823136476
      ],
      [
       26.72365341106432,
       47.681783659843326
      ],
      [
       26.723764008687255,
       47.68173663605064
      ],
      [
       26.723867248271453,
       47.681682517981926
      ],
      [
       26.72396213554808,
       47.68162182684428
      ],
      [
       26.72404775669793,
       47.68155514714755
      ],
      [
       26.724123287152175,
       47.68148312107445
      ],
      [
       26.72418799953299,
       47.681406442295064
      ],
      [
       26.724241270657807,
       47.681325849285955
      ],
      [
       26.724282587539584,
       47.68124211821716
      ],
      [
       26.724311552325563,
       47.681156055477004
      ],
      [
       26.724327886126765,
       47.68106848990537
      ],
      [
       26.72433143170167,
       47.68098026481144
      ]
     ]
    ]
   }
  }
 ]
}