{
  "type": "FeatureCollection",
  "name": "PUZ Pandoras - Zaicesti - Complet pentru proiectare",
  "metadata": {
    "hotarare": "HCL 42/28.08.2024",
    "aviz_cj": "26/22.08.2024",
    "proiect": "365.U/2023 - S.C. MA-DA PROIECT S.R.L.",
    "beneficiar": "S.C. PANDORAS COURIER S.R.L., CUI 34032503",
    "adresa": "loc. Zaicesti, com. Baluseni, jud. Botosani",
    "suprafata_totala_mp": 126316,
    "intravilan_existent_mp": 8625,
    "introdus_intravilan_mp": 117691,
    "nr_puncte_contur": 59,
    "sistem_coordonate": "Stereo70 EPSG:31700 / WGS84 EPSG:4326",
    "centroid_wgs84": [
      27.484062,
      47.134303
    ],
    "note": [
      "Zona extravilan reglementata EXCLUSIV prin PUZ aprobat HCL 42/2024",
      "2 situri arheologice in zona - zona protectie 100m cu aviz obligatoriu Min. Culturii",
      "3 linii LEA 20kV traverseaza terenul - zona protectie 24m - aviz E-ON Moldova SA",
      "Acces din DC50 (drum comunal) - latime minima acces 4m",
      "Coordonate LEA aproximative din plansa topo - solicitati aviz E-ON pentru coordonate exacte"
    ]
  },
  "features": [
    {
      "type": "Feature",
      "properties": {
        "tip": "perimetru-total",
        "label": "Zonă studiată PUZ - 126.316 mp",
        "suprafata_mp": 126316,
        "sursa": "Inventar OCPI, 59 puncte Stereo70",
        "hotarare": "HCL 42/28.08.2024 Consiliul Local Baluseni",
        "aviz_cj": "26/22.08.2024",
        "stroke": "#1e3a5f",
        "stroke-width": 4,
        "fill-opacity": 0
      },
      "geometry": {
        "type": "Polygon",
        "coordinates": [
          [
            [
              27.4844178,
              47.1379057
            ],
            [
              27.4856783,
              47.137567
            ],
            [
              27.4861358,
              47.1373167
            ],
            [
              27.4865199,
              47.1370323
            ],
            [
              27.4872718,
              47.1363939
            ],
            [
              27.4865779,
              47.1360138
            ],
            [
              27.486617,
              47.1359891
            ],
            [
              27.4867901,
              47.1360839
            ],
            [
              27.4892837,
              47.1345058
            ],
            [
              27.4891302,
              47.1343982
            ],
            [
              27.4888119,
              47.1341859
            ],
            [
              27.4875797,
              47.1349657
            ],
            [
              27.487898,
              47.135178
            ],
            [
              27.4866166,
              47.1359889
            ],
            [
              27.4865776,
              47.1360136
            ],
            [
              27.4863644,
              47.1358968
            ],
            [
              27.4862925,
              47.1358328
            ],
            [
              27.4860313,
              47.1360282
            ],
            [
              27.4831184,
              47.1342145
            ],
            [
              27.4833925,
              47.1340272
            ],
            [
              27.4828173,
              47.133669
            ],
            [
              27.4829493,
              47.1335562
            ],
            [
              27.4830362,
              47.1334853
            ],
            [
              27.4831591,
              47.1333899
            ],
            [
              27.4833352,
              47.1332531
            ],
            [
              27.4834241,
              47.1331857
            ],
            [
              27.4834989,
              47.1331338
            ],
            [
              27.4835147,
              47.1331167
            ],
            [
              27.4834956,
              47.1331049
            ],
            [
              27.4835724,
              47.1330181
            ],
            [
              27.4835939,
              47.1330313
            ],
            [
              27.4839003,
              47.1327009
            ],
            [
              27.4842401,
              47.1324959
            ],
            [
              27.4842066,
              47.1324709
            ],
            [
              27.4841508,
              47.1325035
            ],
            [
              27.4838568,
              47.1326792
            ],
            [
              27.4837239,
              47.1327753
            ],
            [
              27.4835695,
              47.1329141
            ],
            [
              27.4834287,
              47.1329649
            ],
            [
              27.483331,
              47.1329951
            ],
            [
              27.4832237,
              47.1330799
            ],
            [
              27.4830545,
              47.1331854
            ],
            [
              27.482971,
              47.1332467
            ],
            [
              27.4829908,
              47.1332883
            ],
            [
              27.4828891,
              47.1333443
            ],
            [
              27.4827246,
              47.1334052
            ],
            [
              27.4826252,
              47.1334792
            ],
            [
              27.4824624,
              47.1335917
            ],
            [
              27.4822593,
              47.1337168
            ],
            [
              27.4819639,
              47.1338929
            ],
            [
              27.4816968,
              47.1340859
            ],
            [
              27.4817846,
              47.1342898
            ],
            [
              27.4817096,
              47.1344582
            ],
            [
              27.4814692,
              47.134641
            ],
            [
              27.4811756,
              47.134822
            ],
            [
              27.4808228,
              47.1349963
            ],
            [
              27.4802079,
              47.1351328
            ],
            [
              27.480943,
              47.1355795
            ],
            [
              27.4807681,
              47.1356882
            ],
            [
              27.4844178,
              47.1379057
            ]
          ]
        ]
      }
    },
    {
      "type": "Feature",
      "properties": {
        "tip": "intravilan-existent",
        "label": "Intravilan existent (CF50194+CF55118) - 8.625 mp",
        "suprafata_mp": 8625,
        "cf": "CF50194 (4300mp) + CF55118 (4325mp)",
        "parcele": "Pc79/6, Pc79/2",
        "status": "INTRAVILAN EXISTENT - inainte de PUZ",
        "fill": "#22c55e",
        "fill-opacity": 0.25,
        "stroke": "#15803d",
        "stroke-width": 3
      },
      "geometry": {
        "type": "Polygon",
        "coordinates": [
          [
            [
              27.4844178,
              47.1379057
            ],
            [
              27.4856783,
              47.137567
            ],
            [
              27.4861358,
              47.1373167
            ],
            [
              27.4865199,
              47.1370323
            ],
            [
              27.4872718,
              47.1363939
            ],
            [
              27.4865779,
              47.1360138
            ],
            [
              27.486617,
              47.1359891
            ],
            [
              27.4867901,
              47.1360839
            ],
            [
              27.4892837,
              47.1345058
            ],
            [
              27.4891302,
              47.1343982
            ],
            [
              27.4888119,
              47.1341859
            ],
            [
              27.4875797,
              47.1349657
            ],
            [
              27.487898,
              47.135178
            ],
            [
              27.4866166,
              47.1359889
            ],
            [
              27.4865776,
              47.1360136
            ],
            [
              27.4863644,
              47.1358968
            ],
            [
              27.4862925,
              47.1358328
            ],
            [
              27.4860313,
              47.1360282
            ],
            [
              27.4844178,
              47.1379057
            ]
          ]
        ]
      }
    },
    {
      "type": "Feature",
      "properties": {
        "tip": "extravilan-introdus-intravilan",
        "label": "Extravilan introdus în intravilan prin PUZ - 117.691 mp",
        "suprafata_mp": 117691,
        "cf": "CF55210",
        "parcele": "Pc79/4, 79/3, 82/1, 79/2",
        "status": "INTRODUS INTRAVILAN prin HCL 42/2024",
        "fill": "#ef4444",
        "fill-opacity": 0.12,
        "stroke": "#dc2626",
        "stroke-width": 2,
        "stroke-dasharray": "8,4"
      },
      "geometry": {
        "type": "Polygon",
        "coordinates": [
          [
            [
              27.4831184,
              47.1342145
            ],
            [
              27.4833925,
              47.1340272
            ],
            [
              27.4828173,
              47.133669
            ],
            [
              27.4829493,
              47.1335562
            ],
            [
              27.4830362,
              47.1334853
            ],
            [
              27.4831591,
              47.1333899
            ],
            [
              27.4833352,
              47.1332531
            ],
            [
              27.4834241,
              47.1331857
            ],
            [
              27.4834989,
              47.1331338
            ],
            [
              27.4835147,
              47.1331167
            ],
            [
              27.4834956,
              47.1331049
            ],
            [
              27.4835724,
              47.1330181
            ],
            [
              27.4835939,
              47.1330313
            ],
            [
              27.4839003,
              47.1327009
            ],
            [
              27.4842401,
              47.1324959
            ],
            [
              27.4842066,
              47.1324709
            ],
            [
              27.4841508,
              47.1325035
            ],
            [
              27.4838568,
              47.1326792
            ],
            [
              27.4837239,
              47.1327753
            ],
            [
              27.4835695,
              47.1329141
            ],
            [
              27.4834287,
              47.1329649
            ],
            [
              27.483331,
              47.1329951
            ],
            [
              27.4832237,
              47.1330799
            ],
            [
              27.4830545,
              47.1331854
            ],
            [
              27.482971,
              47.1332467
            ],
            [
              27.4829908,
              47.1332883
            ],
            [
              27.4828891,
              47.1333443
            ],
            [
              27.4827246,
              47.1334052
            ],
            [
              27.4826252,
              47.1334792
            ],
            [
              27.4824624,
              47.1335917
            ],
            [
              27.4822593,
              47.1337168
            ],
            [
              27.4819639,
              47.1338929
            ],
            [
              27.4816968,
              47.1340859
            ],
            [
              27.4817846,
              47.1342898
            ],
            [
              27.4817096,
              47.1344582
            ],
            [
              27.4814692,
              47.134641
            ],
            [
              27.4811756,
              47.134822
            ],
            [
              27.4808228,
              47.1349963
            ],
            [
              27.4802079,
              47.1351328
            ],
            [
              27.480943,
              47.1355795
            ],
            [
              27.4807681,
              47.1356882
            ],
            [
              27.4831184,
              47.1342145
            ]
          ]
        ]
      }
    },
    {
      "type": "Feature",
      "properties": {
        "tip": "limita-intravilan-propus",
        "label": "Limita intravilan propus PUZ (aprobat HCL 42/2024)",
        "stroke": "#ef4444",
        "stroke-width": 4,
        "fill-opacity": 0,
        "nota": "Rosu intrerupt = limita noua intravilan"
      },
      "geometry": {
        "type": "LineString",
        "coordinates": [
          [
            27.4844178,
            47.1379057
          ],
          [
            27.4856783,
            47.137567
          ],
          [
            27.4861358,
            47.1373167
          ],
          [
            27.4865199,
            47.1370323
          ],
          [
            27.4872718,
            47.1363939
          ],
          [
            27.4865779,
            47.1360138
          ],
          [
            27.486617,
            47.1359891
          ],
          [
            27.4867901,
            47.1360839
          ],
          [
            27.4892837,
            47.1345058
          ],
          [
            27.4891302,
            47.1343982
          ],
          [
            27.4888119,
            47.1341859
          ],
          [
            27.4875797,
            47.1349657
          ],
          [
            27.487898,
            47.135178
          ],
          [
            27.4866166,
            47.1359889
          ],
          [
            27.4865776,
            47.1360136
          ],
          [
            27.4863644,
            47.1358968
          ],
          [
            27.4862925,
            47.1358328
          ],
          [
            27.4860313,
            47.1360282
          ],
          [
            27.4831184,
            47.1342145
          ],
          [
            27.4833925,
            47.1340272
          ],
          [
            27.4828173,
            47.133669
          ],
          [
            27.4829493,
            47.1335562
          ],
          [
            27.4830362,
            47.1334853
          ],
          [
            27.4831591,
            47.1333899
          ],
          [
            27.4833352,
            47.1332531
          ],
          [
            27.4834241,
            47.1331857
          ],
          [
            27.4834989,
            47.1331338
          ],
          [
            27.4835147,
            47.1331167
          ],
          [
            27.4834956,
            47.1331049
          ],
          [
            27.4835724,
            47.1330181
          ],
          [
            27.4835939,
            47.1330313
          ],
          [
            27.4839003,
            47.1327009
          ],
          [
            27.4842401,
            47.1324959
          ],
          [
            27.4842066,
            47.1324709
          ],
          [
            27.4841508,
            47.1325035
          ],
          [
            27.4838568,
            47.1326792
          ],
          [
            27.4837239,
            47.1327753
          ],
          [
            27.4835695,
            47.1329141
          ],
          [
            27.4834287,
            47.1329649
          ],
          [
            27.483331,
            47.1329951
          ],
          [
            27.4832237,
            47.1330799
          ],
          [
            27.4830545,
            47.1331854
          ],
          [
            27.482971,
            47.1332467
          ],
          [
            27.4829908,
            47.1332883
          ],
          [
            27.4828891,
            47.1333443
          ],
          [
            27.4827246,
            47.1334052
          ],
          [
            27.4826252,
            47.1334792
          ],
          [
            27.4824624,
            47.1335917
          ],
          [
            27.4822593,
            47.1337168
          ],
          [
            27.4819639,
            47.1338929
          ],
          [
            27.4816968,
            47.1340859
          ],
          [
            27.4817846,
            47.1342898
          ],
          [
            27.4817096,
            47.1344582
          ],
          [
            27.4814692,
            47.134641
          ],
          [
            27.4811756,
            47.134822
          ],
          [
            27.4808228,
            47.1349963
          ],
          [
            27.4802079,
            47.1351328
          ],
          [
            27.480943,
            47.1355795
          ],
          [
            27.4807681,
            47.1356882
          ],
          [
            27.4844178,
            47.1379057
          ]
        ]
      }
    },
    {
      "type": "Feature",
      "properties": {
        "tip": "utr-puz",
        "utr": "6",
        "utr_nr": "6",
        "label": "UTR 6 - Zona Industrială/Depozitare Centrală",
        "pot_max": 50,
        "cut_max": 1.5,
        "h_max_m": 9,
        "h_min_m": 4,
        "niv_max": 2,
        "spatii_verzi_pct": 40,
        "front_min_m": 20,
        "sf_min_mp": 1000,
        "retragere_fata_m": 6,
        "retragere_lateral_m": 6,
        "retragere_spate_m": 5,
        "utilizari_admise": "Constructii industriale nepoluante, depozitare, servicii, comert/alimentatie publica, birouri, locuire (max 2 unitati paza)",
        "utilizari_interzise": "Locuinte colective, scoli, unitati de invatamant, activitati poluante",
        "sursa": "PUZ aprobat HCL 42/2024",
        "fill": "#f97316",
        "fill-opacity": 0.35,
        "stroke": "#ea580c",
        "stroke-width": 2
      },
      "geometry": {
        "type": "Polygon",
        "coordinates": [
          [
            [
              27.4844178,
              47.1379057
            ],
            [
              27.4856783,
              47.137567
            ],
            [
              27.4861358,
              47.1373167
            ],
            [
              27.4865199,
              47.1370323
            ],
            [
              27.4872718,
              47.1363939
            ],
            [
              27.4865779,
              47.1360138
            ],
            [
              27.486617,
              47.1359891
            ],
            [
              27.4867901,
              47.1360839
            ],
            [
              27.4892837,
              47.1345058
            ],
            [
              27.4891302,
              47.1343982
            ],
            [
              27.4888119,
              47.1341859
            ],
            [
              27.4875797,
              47.1349657
            ],
            [
              27.487898,
              47.135178
            ],
            [
              27.4866166,
              47.1359889
            ],
            [
              27.4865776,
              47.1360136
            ],
            [
              27.4863644,
              47.1358968
            ],
            [
              27.4862925,
              47.1358328
            ],
            [
              27.4860313,
              47.1360282
            ],
            [
              27.4831184,
              47.1342145
            ],
            [
              27.4844178,
              47.1379057
            ]
          ]
        ]
      }
    },
    {
      "type": "Feature",
      "properties": {
        "tip": "utr-puz",
        "utr": "5",
        "utr_nr": "5",
        "label": "UTR 5 - Zona Industrială/Depozitare Sud-Vest",
        "pot_max": 50,
        "cut_max": 1.5,
        "h_max_m": 9,
        "h_min_m": 4,
        "niv_max": 2,
        "spatii_verzi_pct": 40,
        "front_min_m": 20,
        "sf_min_mp": 1000,
        "retragere_fata_m": 6,
        "retragere_lateral_m": 6,
        "retragere_spate_m": 5,
        "utilizari_admise": "Constructii industriale nepoluante, depozitare, servicii",
        "utilizari_interzise": "Locuinte, scoli, activitati poluante",
        "sursa": "PUZ aprobat HCL 42/2024",
        "fill": "#fb923c",
        "fill-opacity": 0.35,
        "stroke": "#ea580c",
        "stroke-width": 2
      },
      "geometry": {
        "type": "Polygon",
        "coordinates": [
          [
            [
              27.4831184,
              47.1342145
            ],
            [
              27.4833925,
              47.1340272
            ],
            [
              27.4828173,
              47.133669
            ],
            [
              27.4829493,
              47.1335562
            ],
            [
              27.4830362,
              47.1334853
            ],
            [
              27.4831591,
              47.1333899
            ],
            [
              27.4833352,
              47.1332531
            ],
            [
              27.4834241,
              47.1331857
            ],
            [
              27.4834989,
              47.1331338
            ],
            [
              27.4835147,
              47.1331167
            ],
            [
              27.4834956,
              47.1331049
            ],
            [
              27.4835724,
              47.1330181
            ],
            [
              27.4835939,
              47.1330313
            ],
            [
              27.4839003,
              47.1327009
            ],
            [
              27.4842401,
              47.1324959
            ],
            [
              27.4842066,
              47.1324709
            ],
            [
              27.4841508,
              47.1325035
            ],
            [
              27.4838568,
              47.1326792
            ],
            [
              27.4837239,
              47.1327753
            ],
            [
              27.4835695,
              47.1329141
            ],
            [
              27.4834287,
              47.1329649
            ],
            [
              27.483331,
              47.1329951
            ],
            [
              27.4832237,
              47.1330799
            ],
            [
              27.4830545,
              47.1331854
            ],
            [
              27.482971,
              47.1332467
            ],
            [
              27.4829908,
              47.1332883
            ],
            [
              27.4828891,
              47.1333443
            ],
            [
              27.4827246,
              47.1334052
            ],
            [
              27.4826252,
              47.1334792
            ],
            [
              27.4824624,
              47.1335917
            ],
            [
              27.4822593,
              47.1337168
            ],
            [
              27.4819639,
              47.1338929
            ],
            [
              27.4816968,
              47.1340859
            ],
            [
              27.4817846,
              47.1342898
            ],
            [
              27.4817096,
              47.1344582
            ],
            [
              27.4814692,
              47.134641
            ],
            [
              27.4811756,
              47.134822
            ],
            [
              27.4808228,
              47.1349963
            ],
            [
              27.4802079,
              47.1351328
            ],
            [
              27.480943,
              47.1355795
            ],
            [
              27.4807681,
              47.1356882
            ],
            [
              27.4831184,
              47.1342145
            ]
          ]
        ]
      }
    },
    {
      "type": "Feature",
      "properties": {
        "tip": "monument-arheologic",
        "id": "RAN-36364.08",
        "label": "🏛 Sit Arheologic: Dealul Porcului",
        "cod_ran": "36364.08",
        "perioada": "Latène timpuriu (sec.VI-IV a.Chr.)",
        "zona_protectie_m": 100,
        "restrictie": "OBLIGATORIU: aviz Min. Culturii pentru orice lucrare în 100m (Legea 422/2001)",
        "marker-color": "#7c3aed",
        "marker-size": "large"
      },
      "geometry": {
        "type": "Point",
        "coordinates": [
          27.4885327,
          47.1343587
        ]
      }
    },
    {
      "type": "Feature",
      "properties": {
        "tip": "zona-protectie-monument",
        "ref": "RAN-36364.08",
        "label": "Zonă protecție 100m - Dealul Porcului",
        "fill": "#7c3aed",
        "fill-opacity": 0.12,
        "stroke": "#7c3aed",
        "stroke-width": 2
      },
      "geometry": {
        "type": "Polygon",
        "coordinates": [
          [
            [
              27.4898532,
              47.1343587
            ],
            [
              27.4898419,
              47.134476
            ],
            [
              27.4898082,
              47.1345912
            ],
            [
              27.4897527,
              47.1347025
            ],
            [
              27.4896763,
              47.1348079
            ],
            [
              27.4895803,
              47.1349056
            ],
            [
              27.4894664,
              47.1349939
            ],
            [
              27.4893366,
              47.1350714
            ],
            [
              27.4891929,
              47.1351367
            ],
            [
              27.489038,
              47.1351886
            ],
            [
              27.4888745,
              47.1352264
            ],
            [
              27.4887051,
              47.1352493
            ],
            [
              27.4885327,
              47.135257
            ],
            [
              27.4883603,
              47.1352493
            ],
            [
              27.4881909,
              47.1352264
            ],
            [
              27.4880274,
              47.1351886
            ],
            [
              27.4878725,
              47.1351367
            ],
            [
              27.4877288,
              47.1350714
            ],
            [
              27.487599,
              47.1349939
            ],
            [
              27.4874851,
              47.1349056
            ],
            [
              27.4873891,
              47.1348079
            ],
            [
              27.4873127,
              47.1347025
            ],
            [
              27.4872572,
              47.1345912
            ],
            [
              27.4872235,
              47.134476
            ],
            [
              27.4872122,
              47.1343587
            ],
            [
              27.4872235,
              47.1342414
            ],
            [
              27.4872572,
              47.1341262
            ],
            [
              27.4873127,
              47.1340149
            ],
            [
              27.4873891,
              47.1339095
            ],
            [
              27.4874851,
              47.1338118
            ],
            [
              27.487599,
              47.1337235
            ],
            [
              27.4877288,
              47.133646
            ],
            [
              27.4878725,
              47.1335807
            ],
            [
              27.4880274,
              47.1335288
            ],
            [
              27.4881909,
              47.133491
            ],
            [
              27.4883603,
              47.1334681
            ],
            [
              27.4885327,
              47.1334604
            ],
            [
              27.4887051,
              47.1334681
            ],
            [
              27.4888745,
              47.133491
            ],
            [
              27.489038,
              47.1335288
            ],
            [
              27.4891929,
              47.1335807
            ],
            [
              27.4893366,
              47.133646
            ],
            [
              27.4894664,
              47.1337235
            ],
            [
              27.4895803,
              47.1338118
            ],
            [
              27.4896763,
              47.1339095
            ],
            [
              27.4897527,
              47.1340149
            ],
            [
              27.4898082,
              47.1341262
            ],
            [
              27.4898419,
              47.1342414
            ],
            [
              27.4898532,
              47.1343587
            ]
          ]
        ]
      }
    },
    {
      "type": "Feature",
      "properties": {
        "tip": "monument-arheologic",
        "id": "RAN-36364.07",
        "label": "🏛 Sit Arheologic: Movila de la Fermă",
        "cod_ran": "36364.07",
        "perioada": "Tumul - perioadă nedeterminată",
        "zona_protectie_m": 100,
        "restrictie": "OBLIGATORIU: aviz Min. Culturii pentru orice lucrare în 100m (Legea 422/2001)",
        "marker-color": "#7c3aed",
        "marker-size": "large"
      },
      "geometry": {
        "type": "Point",
        "coordinates": [
          27.4841107,
          47.1328341
        ]
      }
    },
    {
      "type": "Feature",
      "properties": {
        "tip": "zona-protectie-monument",
        "ref": "RAN-36364.07",
        "label": "Zonă protecție 100m - Movila de la Fermă",
        "fill": "#7c3aed",
        "fill-opacity": 0.12,
        "stroke": "#7c3aed",
        "stroke-width": 2
      },
      "geometry": {
        "type": "Polygon",
        "coordinates": [
          [
            [
              27.4854312,
              47.1328341
            ],
            [
              27.4854199,
              47.1329514
            ],
            [
              27.4853862,
              47.1330666
            ],
            [
              27.4853306,
              47.1331779
            ],
            [
              27.4852543,
              47.1332833
            ],
            [
              27.4851583,
              47.133381
            ],
            [
              27.4850444,
              47.1334693
            ],
            [
              27.4849145,
              47.1335468
            ],
            [
              27.4847709,
              47.1336121
            ],
            [
              27.484616,
              47.133664
            ],
            [
              27.4844525,
              47.1337018
            ],
            [
              27.4842831,
              47.1337247
            ],
            [
              27.4841107,
              47.1337324
            ],
            [
              27.4839383,
              47.1337247
            ],
            [
              27.4837689,
              47.1337018
            ],
            [
              27.4836054,
              47.133664
            ],
            [
              27.4834505,
              47.1336121
            ],
            [
              27.4833069,
              47.1335468
            ],
            [
              27.483177,
              47.1334693
            ],
            [
              27.4830631,
              47.133381
            ],
            [
              27.4829671,
              47.1332833
            ],
            [
              27.4828908,
              47.1331779
            ],
            [
              27.4828352,
              47.1330666
            ],
            [
              27.4828015,
              47.1329514
            ],
            [
              27.4827902,
              47.1328341
            ],
            [
              27.4828015,
              47.1327168
            ],
            [
              27.4828352,
              47.1326016
            ],
            [
              27.4828908,
              47.1324903
            ],
            [
              27.4829671,
              47.1323849
            ],
            [
              27.4830631,
              47.1322872
            ],
            [
              27.483177,
              47.1321989
            ],
            [
              27.4833069,
              47.1321214
            ],
            [
              27.4834505,
              47.1320561
            ],
            [
              27.4836054,
              47.1320042
            ],
            [
              27.4837689,
              47.1319664
            ],
            [
              27.4839383,
              47.1319435
            ],
            [
              27.4841107,
              47.1319358
            ],
            [
              27.4842831,
              47.1319435
            ],
            [
              27.4844525,
              47.1319664
            ],
            [
              27.484616,
              47.1320042
            ],
            [
              27.4847709,
              47.1320561
            ],
            [
              27.4849145,
              47.1321214
            ],
            [
              27.4850444,
              47.1321989
            ],
            [
              27.4851583,
              47.1322872
            ],
            [
              27.4852543,
              47.1323849
            ],
            [
              27.4853306,
              47.1324903
            ],
            [
              27.4853862,
              47.1326016
            ],
            [
              27.4854199,
              47.1327168
            ],
            [
              27.4854312,
              47.1328341
            ]
          ]
        ]
      }
    },
    {
      "type": "Feature",
      "properties": {
        "tip": "lea",
        "id": "LEA-1",
        "tensiune": "20 kV",
        "label": "LEA 20kV - linia 1",
        "zona_protectie_m": 24,
        "restrictie": "INTERZIS constructii in zona 24m de la ax - aviz E-ON Moldova SA obligatoriu",
        "stroke": "#2563eb",
        "stroke-width": 3,
        "nota": "Pozitie aproximativa din plansa topo 1:500 - verificare cu aviz E-ON"
      },
      "geometry": {
        "type": "LineString",
        "coordinates": [
          [
            27.4841361,
            47.1348132
          ],
          [
            27.4852695,
            47.1379384
          ]
        ]
      }
    },
    {
      "type": "Feature",
      "properties": {
        "tip": "zona-protectie-lea",
        "ref": "LEA-1",
        "label": "Zonă protecție 24m - LEA 1",
        "fill": "#2563eb",
        "fill-opacity": 0.08,
        "stroke": "#2563eb",
        "stroke-width": 1,
        "stroke-dasharray": "3,3"
      },
      "geometry": {
        "type": "Polygon",
        "coordinates": [
          [
            [
              27.4850461,
              47.1363758
            ],
            [
              27.4850432,
              47.1364063
            ],
            [
              27.4850344,
              47.1364363
            ],
            [
              27.48502,
              47.1364652
            ],
            [
              27.4850001,
              47.1364926
            ],
            [
              27.4849752,
              47.136518
            ],
            [
              27.4849456,
              47.136541
            ],
            [
              27.4849118,
              47.1365611
            ],
            [
              27.4848745,
              47.1365781
            ],
            [
              27.4848342,
              47.1365916
            ],
            [
              27.4847917,
              47.1366014
            ],
            [
              27.4847476,
              47.1366074
            ],
            [
              27.4847028,
              47.1366094
            ],
            [
              27.484658,
              47.1366074
            ],
            [
              27.4846139,
              47.1366014
            ],
            [
              27.4845714,
              47.1365916
            ],
            [
              27.4845311,
              47.1365781
            ],
            [
              27.4844938,
              47.1365611
            ],
            [
              27.48446,
              47.136541
            ],
            [
              27.4844304,
              47.136518
            ],
            [
              27.4844055,
              47.1364926
            ],
            [
              27.4843856,
              47.1364652
            ],
            [
              27.4843712,
              47.1364363
            ],
            [
              27.4843624,
              47.1364063
            ],
            [
              27.4843595,
              47.1363758
            ],
            [
              27.4843624,
              47.1363453
            ],
            [
              27.4843712,
              47.1363153
            ],
            [
              27.4843856,
              47.1362864
            ],
            [
              27.4844055,
              47.136259
            ],
            [
              27.4844304,
              47.1362336
            ],
            [
              27.48446,
              47.1362106
            ],
            [
              27.4844938,
              47.1361905
            ],
            [
              27.4845311,
              47.1361735
            ],
            [
              27.4845714,
              47.13616
            ],
            [
              27.4846139,
              47.1361502
            ],
            [
              27.484658,
              47.1361442
            ],
            [
              27.4847028,
              47.1361422
            ],
            [
              27.4847476,
              47.1361442
            ],
            [
              27.4847917,
              47.1361502
            ],
            [
              27.4848342,
              47.13616
            ],
            [
              27.4848745,
              47.1361735
            ],
            [
              27.4849118,
              47.1361905
            ],
            [
              27.4849456,
              47.1362106
            ],
            [
              27.4849752,
              47.1362336
            ],
            [
              27.4850001,
              47.136259
            ],
            [
              27.48502,
              47.1362864
            ],
            [
              27.4850344,
              47.1363153
            ],
            [
              27.4850432,
              47.1363453
            ],
            [
              27.4850461,
              47.1363758
            ]
          ]
        ]
      }
    },
    {
      "type": "Feature",
      "properties": {
        "tip": "lea",
        "id": "LEA-2",
        "tensiune": "20 kV",
        "label": "LEA 20kV - linia 2",
        "zona_protectie_m": 24,
        "restrictie": "INTERZIS constructii in zona 24m de la ax - aviz E-ON Moldova SA obligatoriu",
        "stroke": "#2563eb",
        "stroke-width": 3,
        "nota": "Pozitie aproximativa din plansa topo 1:500 - verificare cu aviz E-ON"
      },
      "geometry": {
        "type": "LineString",
        "coordinates": [
          [
            27.4853876,
            47.1347863
          ],
          [
            27.486521,
            47.1379115
          ]
        ]
      }
    },
    {
      "type": "Feature",
      "properties": {
        "tip": "zona-protectie-lea",
        "ref": "LEA-2",
        "label": "Zonă protecție 24m - LEA 2",
        "fill": "#2563eb",
        "fill-opacity": 0.08,
        "stroke": "#2563eb",
        "stroke-width": 1,
        "stroke-dasharray": "3,3"
      },
      "geometry": {
        "type": "Polygon",
        "coordinates": [
          [
            [
              27.4862976,
              47.1363489
            ],
            [
              27.4862947,
              47.1363794
            ],
            [
              27.4862859,
              47.1364094
            ],
            [
              27.4862715,
              47.1364383
            ],
            [
              27.4862516,
              47.1364657
            ],
            [
              27.4862267,
              47.1364911
            ],
            [
              27.4861971,
              47.1365141
            ],
            [
              27.4861633,
              47.1365342
            ],
            [
              27.486126,
              47.1365512
            ],
            [
              27.4860857,
              47.1365647
            ],
            [
              27.4860432,
              47.1365745
            ],
            [
              27.4859991,
              47.1365805
            ],
            [
              27.4859543,
              47.1365825
            ],
            [
              27.4859095,
              47.1365805
            ],
            [
              27.4858654,
              47.1365745
            ],
            [
              27.4858229,
              47.1365647
            ],
            [
              27.4857826,
              47.1365512
            ],
            [
              27.4857453,
              47.1365342
            ],
            [
              27.4857115,
              47.1365141
            ],
            [
              27.4856819,
              47.1364911
            ],
            [
              27.485657,
              47.1364657
            ],
            [
              27.4856371,
              47.1364383
            ],
            [
              27.4856227,
              47.1364094
            ],
            [
              27.4856139,
              47.1363794
            ],
            [
              27.485611,
              47.1363489
            ],
            [
              27.4856139,
              47.1363184
            ],
            [
              27.4856227,
              47.1362884
            ],
            [
              27.4856371,
              47.1362595
            ],
            [
              27.485657,
              47.1362321
            ],
            [
              27.4856819,
              47.1362067
            ],
            [
              27.4857115,
              47.1361837
            ],
            [
              27.4857453,
              47.1361636
            ],
            [
              27.4857826,
              47.1361466
            ],
            [
              27.4858229,
              47.1361331
            ],
            [
              27.4858654,
              47.1361233
            ],
            [
              27.4859095,
              47.1361173
            ],
            [
              27.4859543,
              47.1361153
            ],
            [
              27.4859991,
              47.1361173
            ],
            [
              27.4860432,
              47.1361233
            ],
            [
              27.4860857,
              47.1361331
            ],
            [
              27.486126,
              47.1361466
            ],
            [
              27.4861633,
              47.1361636
            ],
            [
              27.4861971,
              47.1361837
            ],
            [
              27.4862267,
              47.1362067
            ],
            [
              27.4862516,
              47.1362321
            ],
            [
              27.4862715,
              47.1362595
            ],
            [
              27.4862859,
              47.1362884
            ],
            [
              27.4862947,
              47.1363184
            ],
            [
              27.4862976,
              47.1363489
            ]
          ]
        ]
      }
    },
    {
      "type": "Feature",
      "properties": {
        "tip": "lea",
        "id": "LEA-3",
        "tensiune": "20 kV",
        "label": "LEA 20kV - linia 3",
        "zona_protectie_m": 24,
        "restrictie": "INTERZIS constructii in zona 24m de la ax - aviz E-ON Moldova SA obligatoriu",
        "stroke": "#2563eb",
        "stroke-width": 3,
        "nota": "Pozitie aproximativa din plansa topo 1:500 - verificare cu aviz E-ON"
      },
      "geometry": {
        "type": "LineString",
        "coordinates": [
          [
            27.4865982,
            47.1353002
          ],
          [
            27.4873358,
            47.1369941
          ]
        ]
      }
    },
    {
      "type": "Feature",
      "properties": {
        "tip": "zona-protectie-lea",
        "ref": "LEA-3",
        "label": "Zonă protecție 24m - LEA 3",
        "fill": "#2563eb",
        "fill-opacity": 0.08,
        "stroke": "#2563eb",
        "stroke-width": 1,
        "stroke-dasharray": "3,3"
      },
      "geometry": {
        "type": "Polygon",
        "coordinates": [
          [
            [
              27.4873103,
              47.1361471
            ],
            [
              27.4873074,
              47.1361776
            ],
            [
              27.4872986,
              47.1362076
            ],
            [
              27.4872842,
              47.1362365
            ],
            [
              27.4872643,
              47.1362639
            ],
            [
              27.4872394,
              47.1362893
            ],
            [
              27.4872098,
              47.1363123
            ],
            [
              27.487176,
              47.1363324
            ],
            [
              27.4871387,
              47.1363494
            ],
            [
              27.4870984,
              47.1363629
            ],
            [
              27.4870559,
              47.1363728
            ],
            [
              27.4870118,
              47.1363787
            ],
            [
              27.486967,
              47.1363807
            ],
            [
              27.4869222,
              47.1363787
            ],
            [
              27.4868781,
              47.1363728
            ],
            [
              27.4868356,
              47.1363629
            ],
            [
              27.4867953,
              47.1363494
            ],
            [
              27.486758,
              47.1363324
            ],
            [
              27.4867242,
              47.1363123
            ],
            [
              27.4866946,
              47.1362893
            ],
            [
              27.4866697,
              47.1362639
            ],
            [
              27.4866498,
              47.1362365
            ],
            [
              27.4866354,
              47.1362076
            ],
            [
              27.4866266,
              47.1361776
            ],
            [
              27.4866237,
              47.1361471
            ],
            [
              27.4866266,
              47.1361167
            ],
            [
              27.4866354,
              47.1360867
            ],
            [
              27.4866498,
              47.1360578
            ],
            [
              27.4866697,
              47.1360304
            ],
            [
              27.4866946,
              47.136005
            ],
            [
              27.4867242,
              47.135982
            ],
            [
              27.486758,
              47.1359619
            ],
            [
              27.4867953,
              47.1359449
            ],
            [
              27.4868356,
              47.1359314
            ],
            [
              27.4868781,
              47.1359215
            ],
            [
              27.4869222,
              47.1359156
            ],
            [
              27.486967,
              47.1359136
            ],
            [
              27.4870118,
              47.1359156
            ],
            [
              27.4870559,
              47.1359215
            ],
            [
              27.4870984,
              47.1359314
            ],
            [
              27.4871387,
              47.1359449
            ],
            [
              27.487176,
              47.1359619
            ],
            [
              27.4872098,
              47.135982
            ],
            [
              27.4872394,
              47.136005
            ],
            [
              27.4872643,
              47.1360304
            ],
            [
              27.4872842,
              47.1360578
            ],
            [
              27.4872986,
              47.1360867
            ],
            [
              27.4873074,
              47.1361167
            ],
            [
              27.4873103,
              47.1361471
            ]
          ]
        ]
      }
    },
    {
      "type": "Feature",
      "properties": {
        "tip": "acces",
        "label": "Acces principal din DC50",
        "tip_drum": "Drum comunal DC50",
        "latime_minima_m": 4,
        "nota": "Acces din DC50 - conform PUZ aprobat",
        "marker-color": "#16a34a",
        "marker-size": "medium"
      },
      "geometry": {
        "type": "Point",
        "coordinates": [
          27.4825926,
          47.1356563
        ]
      }
    },
    {
      "type": "Feature",
      "properties": {
        "tip": "zona-extravilan",
        "label": "⚠️ Zonă extravilan - reglementată DOAR prin PUZ aprobat",
        "nota": "Nu există PUG aprobat pentru această zonă. Singura reglementare: PUZ HCL 42/2024",
        "fill": "transparent",
        "fill-opacity": 0,
        "stroke": "transparent"
      },
      "geometry": {
        "type": "Polygon",
        "coordinates": [
          [
            [
              27.4831184,
              47.1342145
            ],
            [
              27.4833925,
              47.1340272
            ],
            [
              27.4828173,
              47.133669
            ],
            [
              27.4829493,
              47.1335562
            ],
            [
              27.4830362,
              47.1334853
            ],
            [
              27.4831591,
              47.1333899
            ],
            [
              27.4833352,
              47.1332531
            ],
            [
              27.4834241,
              47.1331857
            ],
            [
              27.4834989,
              47.1331338
            ],
            [
              27.4835147,
              47.1331167
            ],
            [
              27.4834956,
              47.1331049
            ],
            [
              27.4835724,
              47.1330181
            ],
            [
              27.4835939,
              47.1330313
            ],
            [
              27.4839003,
              47.1327009
            ],
            [
              27.4842401,
              47.1324959
            ],
            [
              27.4842066,
              47.1324709
            ],
            [
              27.4841508,
              47.1325035
            ],
            [
              27.4838568,
              47.1326792
            ],
            [
              27.4837239,
              47.1327753
            ],
            [
              27.4835695,
              47.1329141
            ],
            [
              27.4834287,
              47.1329649
            ],
            [
              27.483331,
              47.1329951
            ],
            [
              27.4832237,
              47.1330799
            ],
            [
              27.4830545,
              47.1331854
            ],
            [
              27.482971,
              47.1332467
            ],
            [
              27.4829908,
              47.1332883
            ],
            [
              27.4828891,
              47.1333443
            ],
            [
              27.4827246,
              47.1334052
            ],
            [
              27.4826252,
              47.1334792
            ],
            [
              27.4824624,
              47.1335917
            ],
            [
              27.4822593,
              47.1337168
            ],
            [
              27.4819639,
              47.1338929
            ],
            [
              27.4816968,
              47.1340859
            ],
            [
              27.4817846,
              47.1342898
            ],
            [
              27.4817096,
              47.1344582
            ],
            [
              27.4814692,
              47.134641
            ],
            [
              27.4811756,
              47.134822
            ],
            [
              27.4808228,
              47.1349963
            ],
            [
              27.4802079,
              47.1351328
            ],
            [
              27.480943,
              47.1355795
            ],
            [
              27.4807681,
              47.1356882
            ],
            [
              27.4831184,
              47.1342145
            ]
          ]
        ]
      }
    }
  ]
}